Label TC,Pinyin,Translation,Name TC,Name EN,Others TC,Others EN,Other Possibilities,Region,Category,Sights,Voyages,Source URL,Wiki EN,Wiki ZH,LOC URL,Page,x,y,lat,lng,Kamal Angle,geometry.type,type
菜園,láiyuán,vegetable garden,李江船廠的油、麻原料生產田，在造船廠外,oil and hemp for shipbuilding,,,,Jiangsu,descriptor,,,https://baike.baidu.com/item/%E6%96%B0%E7%BC%96%E9%83%91%E5%92%8C%E8%88%AA%E6%B5%B7%E5%9B%BE%E9%9B%86,,,https://loc.gov/resource/g7821rm.gct00058/?sp=1,1,108345,2452,,,,Point,Feature
自寶船廠開船從龍江關出水直抵外國諸番圖,Zì bǎochuánchǎng kāi chuán cóng lóngjiāng guān chūshuǐ zhídǐ wàiguó zhū fān tú,"Sailing from the Treasure-Ship Shipyard, departing from Longjiang Channel to various foreign countries",--,--,,,,--,descriptor,,,,,,https://loc.gov/resource/g7821rm.gct00058/?sp=1,1,108018,1649,,,,Point,Feature
太子州,Dàqiānzhōu,Heir Apparent Island,江心洲,Jiangxin Island,梅子洲、永定洲,,,Jiangsu,island,,,https://baike.baidu.com/item/%E6%96%B0%E7%BC%96%E9%83%91%E5%92%8C%E8%88%AA%E6%B5%B7%E5%9B%BE%E9%9B%86,https://en.wikipedia.org/wiki/Jiangxin_Island,https://zh.wikipedia.org/wiki/%E6%B1%9F%E5%BF%83%E6%B4%B2,https://loc.gov/resource/g7821rm.gct00058/?sp=1,1,107540,2902,32.0334,118.6946,,Point,Feature
五屑橋 (瓦屑橋),Wǔxièqiáo,Five Fragments Bridge (Tile Fragments Bridge),江東門?,near Jiangdongmen?,,,,Jiangsu,building,,,https://books.google.com.hk/books?id=DjQ9AAAAIAAJ&pg=PA258,,https://zh.wikipedia.org/wiki/%E6%B1%9F%E4%B8%9C%E4%B8%AD%E8%B7%AF,https://loc.gov/resource/g7821rm.gct00058/?sp=1,1,107522,731,32.0383,118.7333,,Point,Feature
寶船廠,Bǎochuánchǎng,Treasure-Ship Shipyard,南京寶船廠遺址公園,Nanjing Treasure Shipyard Relic Site Park,,,,Jiangsu,building,,"1,2,4,6,7",https://baike.baidu.com/item/%E6%96%B0%E7%BC%96%E9%83%91%E5%92%8C%E8%88%AA%E6%B5%B7%E5%9B%BE%E9%9B%86,,https://zh.wikipedia.org/wiki/%E9%BE%8D%E6%B1%9F%E8%88%B9%E5%BB%A0,https://loc.gov/resource/g7821rm.gct00058/?sp=1,1,107475,2327,32.0636,118.7291,,Point,Feature
石城橋,Shíchéngqiáo,Stone Wall Bridge,漢西門,Hanximen,漢中門,Hanzhongmen,,Jiangsu,building,,,https://baike.baidu.com/item/%E6%96%B0%E7%BC%96%E9%83%91%E5%92%8C%E8%88%AA%E6%B5%B7%E5%9B%BE%E9%9B%86,https://en.wikipedia.org/wiki/Stone_City,https://baike.baidu.com/item/%E6%B1%89%E8%A5%BF%E9%97%A8,https://loc.gov/resource/g7821rm.gct00058/?sp=1,1,106937,1284,32.0437,118.7627,,Point,Feature
龍江關,Longjiangguan,Dragon River Passage,下關,Xiaguan,,,,Jiangsu,area,,,https://baike.baidu.com/item/%E6%96%B0%E7%BC%96%E9%83%91%E5%92%8C%E8%88%AA%E6%B5%B7%E5%9B%BE%E9%9B%86,https://en.wikipedia.org/wiki/Xiaguan_District,https://zh.wikipedia.org/wiki/%E9%BE%8D%E6%B1%9F%E8%88%B9%E5%BB%A0,https://loc.gov/resource/g7821rm.gct00058/?sp=1,1,106700,2600,32.0782,118.7308,,Point,Feature
段腰,Duànyāo,Segment Waist,江心洲東北沙洲,sandbar northeast of Jiangxin,,,,Jiangsu,island,,,https://baike.baidu.com/item/%E6%96%B0%E7%BC%96%E9%83%91%E5%92%8C%E8%88%AA%E6%B5%B7%E5%9B%BE%E9%9B%86,,,https://loc.gov/resource/g7821rm.gct00058/?sp=1,1,106676,3300,32.0766,118.7138,,Point,Feature
抽分廠,Chōufēnchǎng,"""Extract Fraction"" Factory",明初三南京设铂分场再处，一圭瓦屑坝，一在龙江关,Tax Depot,,,,Jiangsu,building,,,https://baike.baidu.com/item/%E6%96%B0%E7%BC%96%E9%83%91%E5%92%8C%E8%88%AA%E6%B5%B7%E5%9B%BE%E9%9B%86,,,https://loc.gov/resource/g7821rm.gct00058/?sp=1,1,106661,1950,32.0973,118.7356,,Point,Feature
宣課司,Xuānkèsī,Propoganda Department,明代税收机关，谝布全国各地之水喃交通要道，下辖分司、抽分场总。招《图节集成》所载 南京宣课司设在龙江关旁。其址与原图所绘相符。,near Longjiang Road?,,Customs Office?,,Jiangsu,building,,,https://baike.baidu.com/item/%E6%96%B0%E7%BC%96%E9%83%91%E5%92%8C%E8%88%AA%E6%B5%B7%E5%9B%BE%E9%9B%86,,,https://loc.gov/resource/g7821rm.gct00058/?sp=1,1,106492,2417,32.0982,118.7342,,Point,Feature
水西橋,Shuǐxīqiáo,Water West Gate,三山門,Sanshan Gate,水西門,Shuixi Gate,,Jiangsu,building,,,https://baike.baidu.com/item/%E6%96%B0%E7%BC%96%E9%83%91%E5%92%8C%E8%88%AA%E6%B5%B7%E5%9B%BE%E9%9B%86,https://en.wikipedia.org/wiki/City_Wall_of_Nanjing,https://zh.wikipedia.org/wiki/%E6%B0%B4%E8%A5%BF%E9%97%A8_(%E5%8D%97%E4%BA%AC),https://loc.gov/resource/g7821rm.gct00058/?sp=1,1,106467,528,32.0325,118.7631,,Point,Feature
淨海寺,Jìnghǎisì,Temple of Calm Seas,靜海寺,Jinghai Temple,,,,Jiangsu,building,,,https://baike.baidu.com/item/%E6%96%B0%E7%BC%96%E9%83%91%E5%92%8C%E8%88%AA%E6%B5%B7%E5%9B%BE%E9%9B%86,https://en.wikipedia.org/wiki/Jinghai_Temple,https://zh.wikipedia.org/wiki/%E9%9D%99%E6%B5%B7%E5%AF%BA,https://loc.gov/resource/g7821rm.gct00058/?sp=1,1,106265,2170,32.0943,118.7370,,Point,Feature
天妃宮,Tiānfēigōng,Temple of the Celestial Spouse,天妃宫,Tianfei Temple,,,,Jiangsu,building,,,https://baike.baidu.com/item/%E6%96%B0%E7%BC%96%E9%83%91%E5%92%8C%E8%88%AA%E6%B5%B7%E5%9B%BE%E9%9B%86,http://www.gonanjingchina.com/nanjing-china-travel/tag/tianfei-palace,https://zh.wikipedia.org/wiki/%E5%8D%97%E4%BA%AC%E5%A4%A9%E5%A6%83%E5%AE%AB,https://loc.gov/resource/g7821rm.gct00058/?sp=1,1,106093,1915,32.0942,118.7421,,Point,Feature
祭祀壇,jìsìtán,sacraficial altar,明初立国时，在南京外城西北介旧金川门外，建有龙江坛，凡帝王外巡或浇将出 师时，别祀于此 坛，,outside Jinchuan Gate,,,,Jiangsu,building,,,https://baike.baidu.com/item/%E6%96%B0%E7%BC%96%E9%83%91%E5%92%8C%E8%88%AA%E6%B5%B7%E5%9B%BE%E9%9B%86,,https://zh.wikipedia.org/wiki/%E5%8D%97%E4%BA%AC%E5%9F%8E%E5%A2%99#%E9%87%91%E5%B7%9D%E9%97%A8,https://loc.gov/resource/g7821rm.gct00058/?sp=1,1,106037,2954,32.0902,118.7529,,Point,Feature
獅子山,Shīzishān,Lion Mountain,獅子山,Shizishan,,,,Jiangsu,mountain,,,https://baike.baidu.com/item/%E6%96%B0%E7%BC%96%E9%83%91%E5%92%8C%E8%88%AA%E6%B5%B7%E5%9B%BE%E9%9B%86,https://en.wikipedia.org/wiki/Yuejiang_Tower,https://zh.wikipedia.org/wiki/%E7%8B%AE%E5%AD%90%E5%B1%B1_(%E5%8D%97%E4%BA%AC),https://loc.gov/resource/g7821rm.gct00058/?sp=1,1,106013,2613,32.0978,118.7362,,Point,Feature
水驛,shuǐyì,maritime post office,在金川門门外大江边,"riverside, outside Jinchuan Gate",,,,Jiangsu,building,,,https://baike.baidu.com/item/%E6%96%B0%E7%BC%96%E9%83%91%E5%92%8C%E8%88%AA%E6%B5%B7%E5%9B%BE%E9%9B%86,,https://www.zdic.net/hant/%E6%B0%B4%E9%A9%9B,https://loc.gov/resource/g7821rm.gct00058/?sp=1,1,105796,3008,32.0922,118.7567,,Point,Feature
浦子口,Pǔzǐkou,Riverside Mouth,浦口,Pukou,,,,Jiangsu,town,,,https://baike.baidu.com/item/%E6%96%B0%E7%BC%96%E9%83%91%E5%92%8C%E8%88%AA%E6%B5%B7%E5%9B%BE%E9%9B%86,https://en.wikipedia.org/wiki/Pukou_District,https://zh.wikipedia.org/wiki/%E6%B5%A6%E5%8F%A3%E5%8C%BA,https://loc.gov/resource/g7821rm.gct00058/?sp=1,2,105515,3924,32.0598,118.6218,,Point,Feature
皇城,Huángchéng,Imperial City,明故宫,Ming Palace,,,,Jiangsu,building,,,https://baike.baidu.com/item/%E6%96%B0%E7%BC%96%E9%83%91%E5%92%8C%E8%88%AA%E6%B5%B7%E5%9B%BE%E9%9B%86,https://en.wikipedia.org/wiki/Ming_Palace,https://zh.wikipedia.org/wiki/%E6%98%8E%E6%95%85%E5%AE%AB,https://loc.gov/resource/g7821rm.gct00058/?sp=1,2,105513,1863,32.0426,118.8127,,Point,Feature
中和橋,Zhōnghéqiáo,Center Sum Bridge,中和橋,Zhonghe Bridge,,"Guanghua Gate, Zhengyang Gate",,Jiangsu,building,,,https://baike.baidu.com/item/%E6%96%B0%E7%BC%96%E9%83%91%E5%92%8C%E8%88%AA%E6%B5%B7%E5%9B%BE%E9%9B%86,,https://zh.wikipedia.org/wiki/%E5%85%89%E5%8D%8E%E9%97%A8,https://loc.gov/resource/g7821rm.gct00058/?sp=1,2,105380,195,32.0231,118.8069,,Point,Feature
復城橋,Fùchéngqiáo,Reply City Bridge,复城里,Fuchengli,,,,Jiangsu,building,,,https://baike.baidu.com/item/%E6%96%B0%E7%BC%96%E9%83%91%E5%92%8C%E8%88%AA%E6%B5%B7%E5%9B%BE%E9%9B%86,,http://blog.sina.com.cn/s/blog_63f6753c0102yr9b.html,https://loc.gov/resource/g7821rm.gct00058/?sp=1,2,105086,2975,32.0358,118.7966,,Point,Feature
天地壇,Tiāndìtán,Altar of Heaven and Earth,光華門,outside Guanghuamen,,,,Jiangsu,building,,,https://baike.baidu.com/item/%E6%96%B0%E7%BC%96%E9%83%91%E5%92%8C%E8%88%AA%E6%B5%B7%E5%9B%BE%E9%9B%86,,https://baike.baidu.com/item/%E5%A4%A9%E5%9D%9B/19964669,https://loc.gov/resource/g7821rm.gct00058/?sp=1,2,105049,1000,32.0582,118.8324,,Point,Feature
鐘山,Zhōngshān,Bell Mountain,紫金山,Purple Mountain,,,,Jiangsu,mountain,,,https://baike.baidu.com/item/%E6%96%B0%E7%BC%96%E9%83%91%E5%92%8C%E8%88%AA%E6%B5%B7%E5%9B%BE%E9%9B%86,https://en.wikipedia.org/wiki/Purple_Mountain_(Nanjing),https://zh.wikipedia.org/wiki/%E7%B4%AB%E9%87%91%E5%B1%B1,https://loc.gov/resource/g7821rm.gct00058/?sp=1,2,104948,1401,32.0707,118.8336,,Point,Feature
石灰山,Shíhuīshān,Lime Mountain,幕府山,Mufushan,,,,Jiangsu,mountain,,,https://baike.baidu.com/item/%E6%96%B0%E7%BC%96%E9%83%91%E5%92%8C%E8%88%AA%E6%B5%B7%E5%9B%BE%E9%9B%86,,https://baike.baidu.com/item/%E5%B9%95%E5%BA%9C%E5%B1%B1,https://loc.gov/resource/g7821rm.gct00058/?sp=1,2,104693,2370,32.1260,118.7924,,Point,Feature
通江橋,Tōngjiāngqiáo,Through River Bridge,通江桥在卓金上昨门外，江水经此桥下引入宝般厂稳船湖，此桥为通江的最外一桥，今稳船湖六已湾没，疾已无存。,"outside the gate of Zhuojinshang, wher Baobanchang Shipbuilding Lake once was",,,,Jiangsu,building,,,https://baike.baidu.com/item/%E6%96%B0%E7%BC%96%E9%83%91%E5%92%8C%E8%88%AA%E6%B5%B7%E5%9B%BE%E9%9B%86,,,https://loc.gov/resource/g7821rm.gct00058/?sp=1,2,104652,3020,32.1968,118.8652,,Point,Feature
方山,Fāngshān,Square Mountain,方山,Fangshan,,,,Jiangsu,mountain,,,https://baike.baidu.com/item/%E6%96%B0%E7%BC%96%E9%83%91%E5%92%8C%E8%88%AA%E6%B5%B7%E5%9B%BE%E9%9B%86,https://land8.com/one-of-the-top-geoparks-in-the-world-fangshan-tangshan-national-geopark-museum/,https://baike.baidu.com/item/%E6%96%B9%E5%B1%B1%E5%9B%BD%E5%AE%B6%E5%9C%B0%E8%B4%A8%E5%85%AC%E5%9B%AD,https://loc.gov/resource/g7821rm.gct00058/?sp=1,2,104236,328,31.9034,118.8832,,Point,Feature
靈山橋,Língshānqiáo,Spirit Mountain Bridge,靈山根,Lingshangen Village,,,,Jiangsu,building,,,https://baike.baidu.com/item/%E6%96%B0%E7%BC%96%E9%83%91%E5%92%8C%E8%88%AA%E6%B5%B7%E5%9B%BE%E9%9B%86,https://en.wikipedia.org/wiki/Lingshan_station,https://zh.wikipedia.org/wiki/%E7%81%B5%E5%B1%B1%E7%AB%99_(%E5%8D%97%E4%BA%AC%E5%9C%B0%E9%93%81),https://loc.gov/resource/g7821rm.gct00058/?sp=1,2,104182,2890,32.0771,118.9344,,Point,Feature
覬音山,Jìyīnshān,Coveted Sound Mountain,在观音门外，北演大江，西连攻许，东连临沂、街阳诸山，都是是关陆辟，地势险要。,Badou Mountain?,,,,Jiangsu,mountain,,,https://baike.baidu.com/item/%E6%96%B0%E7%BC%96%E9%83%91%E5%92%8C%E8%88%AA%E6%B5%B7%E5%9B%BE%E9%9B%86,,,https://loc.gov/resource/g7821rm.gct00058/?sp=1,2,104013,1990,32.1497,118.8304,,Point,Feature
觀音門,Guānyīnmén,Observed Sound Mountain,觀音門,Guanyin Gate,,,,Jiangsu,building,,,https://books.google.com.hk/books?id=DjQ9AAAAIAAJ&pg=PA260,,https://baike.baidu.com/item/%E8%A7%82%E9%9F%B3%E9%97%A8,https://loc.gov/resource/g7821rm.gct00058/?sp=1,2,103664,1803,32.1429,118.8145,,Point,Feature
燕子磯,Yànzijī,Swallow Rock,燕子矶,Yanziji Village,,,,Jiangsu,town,,,https://baike.baidu.com/item/%E6%96%B0%E7%BC%96%E9%83%91%E5%92%8C%E8%88%AA%E6%B5%B7%E5%9B%BE%E9%9B%86,https://en.wikipedia.org/wiki/Swallow_Rock,https://zh.wikipedia.org/wiki/%E7%87%95%E5%AD%90%E7%9F%B6,https://loc.gov/resource/g7821rm.gct00058/?sp=1,2,103549,2625,32.1490,118.8115,,Point,Feature
龍潭,Lóngtán,Dragon Pond,龍潭,"Longtan Street, Qixia District",,,,Jiangsu,town,,,https://baike.baidu.com/item/%E6%96%B0%E7%BC%96%E9%83%91%E5%92%8C%E8%88%AA%E6%B5%B7%E5%9B%BE%E9%9B%86,https://en.wikipedia.org/wiki/Qixia_District,https://zh.wikipedia.org/wiki/%E9%BE%99%E6%BD%AD%E8%A1%97%E9%81%93_(%E5%8D%97%E4%BA%AC%E5%B8%82),https://loc.gov/resource/g7821rm.gct00058/?sp=1,2,103157,1835,32.1780,119.0580,,Point,Feature
斬龍廟,Zhǎnlóngmiào,Beheaded Dragon Temple,"据《地图综要，江防图》, 新龙庙在仪征西方之青山墩上，  今吾山仿存，高77米。",Qingshan riverside,,,,Jiangsu,building,,,https://baike.baidu.com/item/%E6%96%B0%E7%BC%96%E9%83%91%E5%92%8C%E8%88%AA%E6%B5%B7%E5%9B%BE%E9%9B%86,,,https://loc.gov/resource/g7821rm.gct00058/?sp=2,3,102800,3585,32.2478,119.0764,,Point,Feature
高子港,Gāozǐgǎng,Tall Child Port,高资镇,Gaozi,,,,Jiangsu,water body,,,https://baike.baidu.com/item/%E6%96%B0%E7%BC%96%E9%83%91%E5%92%8C%E8%88%AA%E6%B5%B7%E5%9B%BE%E9%9B%86,https://en.wikipedia.org/wiki/Dantu_District,https://zh.wikipedia.org/wiki/%E9%AB%98%E8%B5%84%E9%95%87,https://loc.gov/resource/g7821rm.gct00058/?sp=2,3,102500,1563,32.1739,119.3025,,Point,Feature
礬山,Fánshān,Alum Mountain,砚山顶,Yanshan,,,,Jiangsu,island,,,https://baike.baidu.com/item/%E6%96%B0%E7%BC%96%E9%83%91%E5%92%8C%E8%88%AA%E6%B5%B7%E5%9B%BE%E9%9B%86,,,https://loc.gov/resource/g7821rm.gct00058/?sp=2,3,102302,3101,32.1792,119.4328,,Point,Feature
天寧州,Tiānníngzhōu,Island of Heavenly Peace,靖安街道,Jing'an Residential District,,,,Jiangsu,island,,,https://baike.baidu.com/item/%E6%96%B0%E7%BC%96%E9%83%91%E5%92%8C%E8%88%AA%E6%B5%B7%E5%9B%BE%E9%9B%86,,https://zh.wikipedia.org/wiki/%E5%A4%A9%E5%AE%81%E5%AF%BA_(%E6%89%AC%E5%B7%9E),https://loc.gov/resource/g7821rm.gct00058/?sp=2,3,102210,2484,32.2229,119.1622,,Point,Feature
儀真,Yízhēn,Instrument of Truth,儀真,Yizhen,,,,Jiangsu,town,,,https://baike.baidu.com/item/%E6%96%B0%E7%BC%96%E9%83%91%E5%92%8C%E8%88%AA%E6%B5%B7%E5%9B%BE%E9%9B%86,https://en.wikipedia.org/wiki/Yizheng,https://zh.wikipedia.org/wiki/%E4%BB%AA%E5%BE%81%E5%B8%82,https://loc.gov/resource/g7821rm.gct00058/?sp=2,3,101791,3931,32.2880,119.1579,,Point,Feature
鎮江,Zhènjiāng,Town River,鎮江,Zhenjiang Town,,,,Jiangsu,town,,,https://baike.baidu.com/item/%E6%96%B0%E7%BC%96%E9%83%91%E5%92%8C%E8%88%AA%E6%B5%B7%E5%9B%BE%E9%9B%86,https://en.wikipedia.org/wiki/Zhenjiang,https://zh.wikipedia.org/wiki/%E9%95%87%E6%B1%9F%E5%B8%82,https://loc.gov/resource/g7821rm.gct00058/?sp=2,3,101620,1562,32.1805,119.3720,,Point,Feature
金山,Jīnshān,Gold Mountain,金山,Jinshan,,,,Jiangsu,island,,,https://baike.baidu.com/item/%E6%96%B0%E7%BC%96%E9%83%91%E5%92%8C%E8%88%AA%E6%B5%B7%E5%9B%BE%E9%9B%86,https://en.wikipedia.org/wiki/Jinshan_Temple_(Zhenjiang),https://zh.wikipedia.org/wiki/%E9%87%91%E5%B1%B1_(%E9%95%87%E6%B1%9F),https://loc.gov/resource/g7821rm.gct00058/?sp=2,3,101316,2008,32.2255,119.4221,,Point,Feature
丹徒,Dāntú,Red Only,丹徒,Dantu Town,,,,Jiangsu,town,,,https://baike.baidu.com/item/%E6%96%B0%E7%BC%96%E9%83%91%E5%92%8C%E8%88%AA%E6%B5%B7%E5%9B%BE%E9%9B%86,https://en.wikipedia.org/wiki/Dantu_District,https://zh.wikipedia.org/wiki/%E4%B8%B9%E5%BE%92%E5%8C%BA,https://loc.gov/resource/g7821rm.gct00058/?sp=2,3,101247,1200,32.1429,119.3567,,Point,Feature
瓜洲,Guāzhōu,Melon Island,瓜州,Guazhou,,,,Jiangsu,town,,,https://baike.baidu.com/item/%E6%96%B0%E7%BC%96%E9%83%91%E5%92%8C%E8%88%AA%E6%B5%B7%E5%9B%BE%E9%9B%86,,https://zh.wikipedia.org/wiki/%E7%93%9C%E6%B4%B2%E9%95%87,https://loc.gov/resource/g7821rm.gct00058/?sp=2,3,100916,3614,32.2529,119.3839,,Point,Feature
焦山,Jiāoshān,Burnt Mountain,焦山,Jiaoshan,,,,Jiangsu,mountain,,,https://baike.baidu.com/item/%E6%96%B0%E7%BC%96%E9%83%91%E5%92%8C%E8%88%AA%E6%B5%B7%E5%9B%BE%E9%9B%86,https://en.wikipedia.org/wiki/Jiaoshan,https://zh.wikipedia.org/wiki/%E7%84%A6%E5%B1%B1,https://loc.gov/resource/g7821rm.gct00058/?sp=2,3,100787,1799,32.2384,119.4841,,Point,Feature
大港,Dàgǎng,Big Harbor,大港港區鎮江港,Dagang Port Area,,,,Jiangsu,water body,,,https://baike.baidu.com/item/%E6%96%B0%E7%BC%96%E9%83%91%E5%92%8C%E8%88%AA%E6%B5%B7%E5%9B%BE%E9%9B%86,https://en.wikipedia.org/wiki/Port_of_Zhenjiang,,https://loc.gov/resource/g7821rm.gct00058/?sp=2,3,100777,1208,32.1921,119.6621,,Point,Feature
圌山,Chuíshān,Round Mountain,圌山,Chuishan,洗山、誰山、譙山、瞿山、仙鶴山,,,Jiangsu,mountain,,,https://baike.baidu.com/item/%E6%96%B0%E7%BC%96%E9%83%91%E5%92%8C%E8%88%AA%E6%B5%B7%E5%9B%BE%E9%9B%86,,https://zh.wikipedia.org/wiki/%E5%9C%8C%E5%B1%B1,https://loc.gov/resource/g7821rm.gct00058/?sp=2,4,100194,1549,32.2155,119.7157,,Point,Feature
江陰縣,Jiāngyīnxiàn,River Shade County,江陰市,Jiangyin,,,,Jiangsu,town,,,https://baike.baidu.com/item/%E6%96%B0%E7%BC%96%E9%83%91%E5%92%8C%E8%88%AA%E6%B5%B7%E5%9B%BE%E9%9B%86,https://en.wikipedia.org/wiki/Jiangyin,https://zh.wikipedia.org/wiki/%E6%B1%9F%E9%98%B4%E5%B8%82,https://loc.gov/resource/g7821rm.gct00058/?sp=2,4,99692,1563,31.9074,120.2592,,Point,Feature
石牌灣,Shípáiwān,Stone Plate Bay,白屈港口,Baiqu Port,,,,Jiangsu,water body,,,https://baike.baidu.com/item/%E6%96%B0%E7%BC%96%E9%83%91%E5%92%8C%E8%88%AA%E6%B5%B7%E5%9B%BE%E9%9B%86,,https://baike.baidu.com/item/%E7%99%BD%E5%B1%88%E6%B8%AF,https://loc.gov/resource/g7821rm.gct00058/?sp=2,4,99466,1591,31.9486,120.3223,,Point,Feature
淺沙,qiǎnshā,shallow shoals,,,,,,Jiangsu,descriptor,,,,,,https://loc.gov/resource/g7821rm.gct00058/?sp=2,4,99144,2070,,,,Point,Feature
香山,Xiāngshān,Fragrant Hill,香山,Fragrance Hill Scenic Area,,,,Jiangsu,mountain,,,https://baike.baidu.com/item/%E6%96%B0%E7%BC%96%E9%83%91%E5%92%8C%E8%88%AA%E6%B5%B7%E5%9B%BE%E9%9B%866,,https://baike.baidu.com/item/%E9%A6%99%E5%B1%B1/6675394,https://loc.gov/resource/g7821rm.gct00058/?sp=2,4,99075,1434,31.9294,120.3935,,Point,Feature
西鞋山,Xīxiéshān,West Boot Island,孤山镇,Gushanzhen,,,,Jiangsu,island,,,https://baike.baidu.com/item/%E6%96%B0%E7%BC%96%E9%83%91%E5%92%8C%E8%88%AA%E6%B5%B7%E5%9B%BE%E9%9B%86,https://en.wikipedia.org/wiki/Jingjiang,https://zh.wikipedia.org/wiki/%E5%AD%A4%E5%B1%B1%E9%95%87_(%E9%9D%96%E6%B1%9F%E5%B8%82),https://loc.gov/resource/g7821rm.gct00058/?sp=2,4,98939,3151,32.0652,120.2949,,Point,Feature
天妃宫,Tiānfēigōng,Temple of the Celestial Spouse,在今江阴市西北黄田港附近,Huangtian Port,,,,Jiangsu,building,,,https://baike.baidu.com/item/%E6%96%B0%E7%BC%96%E9%83%91%E5%92%8C%E8%88%AA%E6%B5%B7%E5%9B%BE%E9%9B%86,https://en.wikipedia.org/wiki/List_of_Mazu_temples#China_2,https://zh.wikipedia.org/wiki/%E5%AA%BD%E7%A5%96%E5%BB%9F,https://loc.gov/resource/g7821rm.gct00058/?sp=2,4,98437,1352,31.9175,120.2559,,Point,Feature
東鞋山,Dōngxiéshān,East Boot Island,"血原图，轴山位置频在江阴北岸附送。西鞋山似指令靖江县东北10乏全里的莉山，持在大江中;，东鞋山即东山, 在县城东数公里。成化从年间(1472年) ，因潮沙玲积，两山均与江北岸陆地相连。",,,,,Jiangsu,island,,,https://baike.baidu.com/item/%E6%96%B0%E7%BC%96%E9%83%91%E5%92%8C%E8%88%AA%E6%B5%B7%E5%9B%BE%E9%9B%86,,,https://loc.gov/resource/g7821rm.gct00058/?sp=2,4,98186,3059,,,,Point,Feature
巡司,xúnsī,inspectorate,北通大江，南入横河，明设有石头洪这司,,,,,Jiangsu,building,,,https://baike.baidu.com/item/%E6%96%B0%E7%BC%96%E9%83%91%E5%92%8C%E8%88%AA%E6%B5%B7%E5%9B%BE%E9%9B%86,,,https://loc.gov/resource/g7821rm.gct00058/?sp=2,4,98117,1301,,,,Point,Feature
石頭港,Shítougǎng,Stone Head Port,张家港,Zhangjiagang,,,,Jiangsu,water body,,,https://baike.baidu.com/item/%E6%96%B0%E7%BC%96%E9%83%91%E5%92%8C%E8%88%AA%E6%B5%B7%E5%9B%BE%E9%9B%86,https://en.wikipedia.org/wiki/Zhangjiagang,https://zh.wikipedia.org/wiki/%E5%BC%A0%E5%AE%B6%E6%B8%AF%E5%B8%82,https://loc.gov/resource/g7821rm.gct00058/?sp=2,4,98060,1732,31.9671,120.4083,,Point,Feature
龍王廟,Lóngwángmiào,Dragon King Temple,白塔龍皇廟,Kunshan,,,,Jiangsu,building,,,https://baike.baidu.com/item/%E6%96%B0%E7%BC%96%E9%83%91%E5%92%8C%E8%88%AA%E6%B5%B7%E5%9B%BE%E9%9B%86,,https://baike.baidu.com/item/%E7%99%BD%E5%A1%94%E9%BE%99%E7%9A%87%E5%BA%99,https://loc.gov/resource/g7821rm.gct00058/?sp=3,5,97478,1218,31.3968,120.9854,,Point,Feature
巡司,xúnsī,inspectorate,明初在江阴设有江阴卫，以后迭经变革，改为守御千户所，设有刹港、石头港、昔港、 新港等扩检司，据原图所绘应指蔡港这检司,,,,,Jiangsu,building,,,https://baike.baidu.com/item/%E6%96%B0%E7%BC%96%E9%83%91%E5%92%8C%E8%88%AA%E6%B5%B7%E5%9B%BE%E9%9B%86,,https://zh.wikipedia.org/wiki/%E5%B7%A1%E6%AA%A2%E5%8F%B8,https://loc.gov/resource/g7821rm.gct00058/?sp=3,5,97050,1609,,,,Point,Feature
蔡港,Càigǎng,Weedy Port,梅李镇?,near Meili Village?,,,,Jiangsu,water body,,,https://books.google.com.hk/books?id=DjQ9AAAAIAAJ&pg=PA261,,https://baike.baidu.com/item/%E6%A2%85%E6%9D%8E%E9%95%87,https://loc.gov/resource/g7821rm.gct00058/?sp=3,5,96769,1695,31.7126,120.8604,,Point,Feature
白茅港,Báimáogǎng,White Thatch Port,白茆口,Baimaokou,,,,Jiangsu,water body,,7,https://baike.baidu.com/item/%E6%96%B0%E7%BC%96%E9%83%91%E5%92%8C%E8%88%AA%E6%B5%B7%E5%9B%BE%E9%9B%86,,,https://loc.gov/resource/g7821rm.gct00058/?sp=3,5,95963,1455,31.7276,121.0646,,Point,Feature
福山廟,Fúshānmiào,Fortune Mountain Temple,福山廟,Fushan Temple,,,,Jiangsu,building,,,,,,https://loc.gov/resource/g7821rm.gct00058/?sp=3,5,95474,689,,,,Point,Feature
太倉衛,Tàicāngwèi,Supreme Warehouse Guard,太倉市,Taicang,,Liujiagang,,Jiangsu,town,,"1,2,3,7",https://books.google.com.hk/books?id=DjQ9AAAAIAAJ&pg=PA261,https://en.wikipedia.org/wiki/Taicang,https://zh.wikipedia.org/wiki/%E5%A4%AA%E4%BB%93%E5%B8%82,https://loc.gov/resource/g7821rm.gct00058/?sp=3,5,95053,1635,31.4621,121.1272,,Point,Feature
宝山,Bǎoshān,Treasure Mountain,宝山,Baoshan,,,,Shanghai,town,,,,"https://en.wikipedia.org/wiki/Baoshan_District,_Shanghai",https://zh.wikipedia.org/wiki/%E5%AE%9D%E5%B1%B1%E5%8C%BA_(%E4%B8%8A%E6%B5%B7%E5%B8%82),https://loc.gov/resource/g7821rm.gct00058/?sp=3,5,95015,3094,31.4090,121.4939,,Point,Feature
天妃宫,Tiānfēigōng,Temple of the Celestial Spouse,天妃宫,Tianfei Palace in Liuhe,,,,Jiangsu,building,,,,https://en.wikipedia.org/wiki/List_of_Mazu_temples#China_2,https://zh.wikipedia.org/wiki/%E5%AA%BD%E7%A5%96%E5%BB%9F#%E4%B8%AD%E5%9C%8B%E5%A4%A7%E9%99%B8,https://loc.gov/resource/g7821rm.gct00058/?sp=3,6,94798,1471,31.5074,121.2632,,Point,Feature
崇明州,Chóngmíngzhōu,Worship Bright Island,,Chongming Island,,,,Shanghai,island,,,https://books.google.com.hk/books?id=DjQ9AAAAIAAJ&pg=PA261,https://en.wikipedia.org/wiki/Chongming_Island,https://zh.wikipedia.org/wiki/%E5%B4%87%E6%98%8E%E5%B2%9B,https://loc.gov/resource/g7821rm.gct00058/?sp=3,6,94384,3623,31.6384,121.5370,,Point,Feature
吳淞江,Wúsōngjiāng,variation of Pine River,黄浦江,Huangpu River,吴淞江、蘇州河、松江、松陵江、笠澤江、黃浦江、浦江、春申江、申江,"Wusong River, Suzhou Creek, Song River, Whangpoo RIver",,Shanghai,water body,,,https://books.google.com.hk/books?id=DjQ9AAAAIAAJ&pg=PA261,https://en.wikipedia.org/wiki/Wusong_RIver,https://zh.wikipedia.org/wiki/%E5%90%B4%E6%B7%9E%E6%B1%9F,https://loc.gov/resource/g7821rm.gct00058/?sp=3,6,94173,1519,31.3887,121.5086,,Point,Feature
淺沙,qiǎnshā,shallow sand,,,,,,Shanghai,descriptor,,,https://books.google.com.hk/books?id=DjQ9AAAAIAAJ&pg=PA262,,,https://loc.gov/resource/g7821rm.gct00058/?sp=3,6,93849,3919,,,,Point,Feature
胡椒沙,hújiāoshā,peppery sand,,,,,,Shanghai,descriptor,,,https://books.google.com.hk/books?id=DjQ9AAAAIAAJ&pg=PA262,,,https://loc.gov/resource/g7821rm.gct00058/?sp=3,6,93610,3651,,,,Point,Feature
招寶山,Zhāobǎoshān,Recruit Treasure Mountain,招寶山,"in Gaoqiao, formerly part of Baoshan County",,,,Shanghai,mountain,,,https://books.google.com.hk/books?id=DjQ9AAAAIAAJ&pg=PA262,https://www.shbsq.gov.cn/shbs/aboutbaoshan/20181129/68087.html,,https://loc.gov/resource/g7821rm.gct00058/?sp=3,6,93585,1227,31.3567,121.5800,,Point,Feature
青村所,Qīngcūnsuǒ,Green Village Battalion,青村镇,Qingcun Town,,,,Shanghai,town,,,https://books.google.com.hk/books?id=DjQ9AAAAIAAJ&pg=PA262,,https://baike.baidu.com/item/%E9%9D%92%E6%9D%91%E9%95%87,https://loc.gov/resource/g7821rm.gct00058/?sp=3,6,93401,950,30.9231,121.5521,,Point,Feature
銖翎沙,Zhūlíngshā,Cent Feathers Sand,,,,,,Shanghai,island,,,https://books.google.com.hk/books?id=DjQ9AAAAIAAJ&pg=PA262,,,https://loc.gov/resource/g7821rm.gct00058/?sp=3,6,93322,3437,,,,Point,Feature
南匯嘴,Nánhuìzuǐ,South Exchange Mouth,南匯嘴,Nanhuizui,南滙嘴,,,Shanghai,peninsula,,,https://books.google.com.hk/books?id=DjQ9AAAAIAAJ&pg=PA262,https://en.wikipedia.org/wiki/Nanhui_District,https://zh.wikipedia.org/wiki/%E5%8D%97%E6%B1%87%E5%8C%BA,https://loc.gov/resource/g7821rm.gct00058/?sp=3,6,93100,2073,30.8853,121.9695,,Point,Feature
茶山,Cháshān,Tea Island,佘山島,Sheshan Island,,,,Shanghai,island,,,,https://en.wikipedia.org/wiki/Sheshan_Island,https://zh.wikipedia.org/wiki/%E4%BD%98%E5%B1%B1%E5%B2%9B,https://loc.gov/resource/g7821rm.gct00058/?sp=3,6,93037,3798,31.4215,122.2409,,Point,Feature
金沙衛,Jīnshāwèi,Gold Sand Guard,金沙村,Jinsha Village,,,,Zhejiang,town,,,https://books.google.com.hk/books?id=DjQ9AAAAIAAJ&pg=PA262,,https://baike.baidu.com/item/%E9%87%91%E6%B2%99%E6%9D%91/10307206,https://loc.gov/resource/g7821rm.gct00058/?sp=3,6,92889,1483,30.7114,121.2602,,Point,Feature
大七,Dàqī,Big Seven,大戢山,Gutzlaff Island,,,,Zhejiang,island,,,https://books.google.com.hk/books?id=DjQ9AAAAIAAJ&pg=PA262,,https://zh-yue.wikipedia.org/wiki/%E5%A4%A7%E6%88%A2%E5%B1%B1,https://loc.gov/resource/g7821rm.gct00058/?sp=3,6,92617,3468,30.8101,122.1734,,Point,Feature
乍浦,Zhàpǔ,First Riverside,乍浦,Zhapu,,,,Zhejiang,town,,,https://books.google.com.hk/books?id=DjQ9AAAAIAAJ&pg=PA262,https://en.wikipedia.org/wiki/Zhapu,https://zh.wikipedia.org/wiki/%E4%B9%8D%E6%B5%A6%E9%95%87,https://loc.gov/resource/g7821rm.gct00058/?sp=3,6,92333,1959,30.6035,121.0781,,Point,Feature
海寧衛,Hǎiníngwèi,Sea Tranquility Guard,海寧衛,Haining,,,,Zhejiang,town,,,https://books.google.com.hk/books?id=DjQ9AAAAIAAJ&pg=PA262,https://en.wikipedia.org/wiki/Haining,https://zh.wikipedia.org/wiki/%E6%B5%B7%E5%AE%81%E5%B8%82,https://loc.gov/resource/g7821rm.gct00058/?sp=4,7,92121,2019,30.5125,120.6762,,Point,Feature
小七,Xiǎoqī,Small Seven,小戢山,Jinshan Mountain,,,,Zhejiang,island,,,https://books.google.com.hk/books?id=DjQ9AAAAIAAJ&pg=PA262,,http://blog.sina.com.cn/s/blog_52043a580102xrmr.html,https://loc.gov/resource/g7821rm.gct00058/?sp=4,7,92111,3504,30.7128,122.0510,,Point,Feature
觀海衛,Guānhǎiwèi,Watch Sea Guard,觀海衛鎮,Guanhaiwei Town,,,,Zhejiang,town,,,https://books.google.com.hk/books?id=DjQ9AAAAIAAJ&pg=PA262,,https://zh.wikipedia.org/wiki/观海卫镇,https://loc.gov/resource/g7821rm.gct00058/?sp=4,7,92101,863,30.1695,121.3995,,Point,Feature
湯山,Tāngshān,Soup Island,大洋山,Dayang Mountain,,,,Zhejiang,island,,,https://books.google.com.hk/books?id=DjQ9AAAAIAAJ&pg=PA262,,https://zh.wikipedia.org/wiki/%E5%A4%A7%E6%B4%8B%E5%B1%B1,https://loc.gov/resource/g7821rm.gct00058/?sp=4,7,91951,3845,30.5868,122.0690,,Point,Feature
靈山衛,Língshānwèi,Spirit Mountain Guard,靈山村,Lingshan Village,,,,Zhejiang,town,,,https://books.google.com.hk/books?id=DjQ9AAAAIAAJ&pg=PA262,,https://baike.baidu.com/item/%E7%81%B5%E5%B1%B1%E6%9D%91/7607296,https://loc.gov/resource/g7821rm.gct00058/?sp=4,7,91917,1261,29.9813,121.5262,,Point,Feature
許山,Xǔshān,Promise Mountain,滩浒岛,half of Tanhu Island,,Middle Seshan islands,,Zhejiang,island,,,https://books.google.com.hk/books?id=DjQ9AAAAIAAJ&pg=PA262,,https://baike.baidu.com/item/%E6%BB%A9%E6%B5%92%E5%B2%9B,https://loc.gov/resource/g7821rm.gct00058/?sp=4,7,91871,2562,30.6155,121.6272,,Point,Feature
青嶼,Qīngyǔ,Green Island,青嶼,Qingyu Islet,,,,Zhejiang,island,,,https://books.google.com.hk/books?id=DjQ9AAAAIAAJ&pg=PA263,,,https://loc.gov/resource/g7821rm.gct00058/?sp=4,7,91651,3442,30.2802,121.6170,,Point,Feature
尼山,Níshān,Nun Island,大魚山,Dayushan Island,,,,Zhejiang,island,,,https://books.google.com.hk/books?id=DjQ9AAAAIAAJ&pg=PA262,,,https://loc.gov/resource/g7821rm.gct00058/?sp=4,7,91623,3754,30.3135,121.9611,,Point,Feature
灘山,Tānshān,Beach Island,滩浒岛,half of Tanhu Island,,,,Zhejiang,island,,,https://books.google.com.hk/books?id=DjQ9AAAAIAAJ&pg=PA262,,https://baike.baidu.com/item/%E6%BB%A9%E6%B5%92%E5%B2%9B,https://loc.gov/resource/g7821rm.gct00058/?sp=4,7,91593,2242,30.6098,121.6183,,Point,Feature
定海衛,Dìnghǎiwèi,Set Sea Guard,鎮海區,Zhenhai District,,,,Zhejiang,town,,,https://books.google.com.hk/books?id=DjQ9AAAAIAAJ&pg=PA263,https://en.wikipedia.org/wiki/Zhenhai_District,https://zh.wikipedia.org/wiki/%E9%95%87%E6%B5%B7%E5%8C%BA_(%E5%AE%81%E6%B3%A2%E5%B8%82),https://loc.gov/resource/g7821rm.gct00058/?sp=4,7,91329,1143,29.9566,121.7133,,Point,Feature
昌國所,Chāngguósuǒ,Prosperous Country Military Station,舟山市,Zhoushan City,,"Choushan, Chusan Island",,Zhejiang,town,,,https://books.google.com.hk/books?id=DjQ9AAAAIAAJ&pg=PA263,https://en.wikipedia.org/wiki/Zhoushan,https://zh.wikipedia.org/wiki/%E8%88%9F%E5%B1%B1%E5%B8%82,https://loc.gov/resource/g7821rm.gct00058/?sp=4,7,90965,3379,29.9877,122.2030,,Point,Feature
列港,Liègǎng,Line Anchorage,瀝港村,Ligang Town,金塘島,Jingtang island,,Zhejiang,town,,,https://books.google.com.hk/books?id=DjQ9AAAAIAAJ&pg=PA263,https://en.wikipedia.org/wiki/Jintang_Island,https://zh.wikipedia.org/wiki/%E9%87%91%E5%A1%98%E5%B2%9B,https://loc.gov/resource/g7821rm.gct00058/?sp=4,7,90830,2310,30.0361,121.8481,,Point,Feature
川山,Chuānshān,River Mountain,穿山村,Chuanshan Town,,,,Zhejiang,town,,,https://books.google.com.hk/books?id=DjQ9AAAAIAAJ&pg=PA263,,https://baike.baidu.com/item/%E7%A9%BF%E5%B1%B1%E6%9D%91,https://loc.gov/resource/g7821rm.gct00058/?sp=4,7,90497,628,29.8847,121.9342,,Point,Feature
東霍山,Dōnghuòshān,East Sudden Mountain,東霍山,Donghuo Island,仙島,,,Zhejiang,island,,,https://books.google.com.hk/books?id=DjQ9AAAAIAAJ&pg=PA263,,http://blog.sina.com.cn/s/blog_1767c73450102xccg.html,https://loc.gov/resource/g7821rm.gct00058/?sp=4,7,90470,3642,30.2499,121.7183,,Point,Feature
西後門,Xīhòumén,West Back Channel,西後門,Xihoumen ,,Blackwell Pass,,Zhejiang,water body,,,https://books.google.com.hk/books?id=DjQ9AAAAIAAJ&pg=PA263,https://en.wikipedia.org/wiki/Xihoumen_Bridge,https://zh.wikipedia.org/wiki/%E8%A5%BF%E5%A0%A0%E9%96%80%E5%A4%A7%E6%A9%8B,https://loc.gov/resource/g7821rm.gct00058/?sp=4,7,90333,2275,30.0621,121.9256,,Point,Feature
廟州門,Miàozhōumén,Temple Island Channel,,the channel between Yangxiaomao (Roundabout) Island and the coast,,,,Zhejiang,water body,,,https://books.google.com.hk/books?id=DjQ9AAAAIAAJ,,,https://loc.gov/resource/g7821rm.gct00058/?sp=4,7,90118,2997,29.8968,122.1420,,Point,Feature
普陀山,Pǔtuóshān,General's Bank Island,普陀山,Mount Putuo,,,,Zhejiang,island,,,https://books.google.com.hk/books?id=DjQ9AAAAIAAJ&pg=PA263,https://en.wikipedia.org/wiki/Mount_Putuo,https://zh.wikipedia.org/wiki/%E6%99%AE%E9%99%80%E5%B1%B1,https://loc.gov/resource/g7821rm.gct00058/?sp=4,7,90097,3847,29.9943,122.3705,,Point,Feature
巡检司,xúnjiǎnsī,inspection department,,on Qitou (Ketow) peninsula?,,,,Zhejiang,building,,,https://books.google.com.hk/books?id=DjQ9AAAAIAAJ&pg=PA263,,https://zh.wikipedia.org/wiki/%E5%B7%A1%E6%AA%A2%E5%8F%B8,https://loc.gov/resource/g7821rm.gct00058/?sp=4,8,89474,1621,29.8722,122.0782,,Point,Feature
大磨山,Dàmóshān,Big Mill Island,大貓島,Damao Island,,,,Zhejiang,island,,,https://books.google.com.hk/books?id=DjQ9AAAAIAAJ&pg=PA263,https://en.wikipedia.org/wiki/Zhoushan_Island_Overhead_Powerline_Tie,https://baike.baidu.com/item/%E5%A4%A7%E7%8C%AB%E5%B2%9B,https://loc.gov/resource/g7821rm.gct00058/?sp=4,8,89193,3934,29.9493,122.0445,,Point,Feature
孝順洋,Xiàoshùnyáng,Filial Piety Ocean,牛鼻山水路,Xiaoshan Ocean,,northern portion of Niubishan Channel,,Zhejiang,water body,,,https://books.google.com.hk/books?id=DjQ9AAAAIAAJ&pg=PA267,,,https://loc.gov/resource/g7821rm.gct00058/?sp=4,8,89079,2848,29.6195,122.0854,,Point,Feature
小磨山,Xiǎomóshān,Small Mill Island,小貓山,Xiaomaoshan,,,,Zhejiang,island,,,https://books.google.com.hk/books?id=DjQ9AAAAIAAJ&pg=PA267,,,https://loc.gov/resource/g7821rm.gct00058/?sp=4,8,88922,2952,29.9417,122.0558,,Point,Feature
雙嶼門,Shuāngyǔmén,Double Island Channel,雙嶼港,Shuangyu Channel (seaward edge),,Duffield Pass,,Zhejiang,water body,,,https://books.google.com.hk/books?id=DjQ9AAAAIAAJ&pg=PA263,https://en.wikipedia.org/wiki/Shuangyu,https://zh.wikipedia.org/wiki/%E5%85%AD%E6%A8%AA%E8%B7%A8%E6%B5%B7%E5%A4%A7%E6%A1%A5#%E5%8F%8C%E5%B1%BF%E9%97%A8%E5%A4%A7%E6%A1%A5,https://loc.gov/resource/g7821rm.gct00058/?sp=4,8,88760,3736,29.7488,122.0555,,Point,Feature
崎頭,Qítóu,Steep Head,崎頭洋,Qitou Ocean,,,,Zhejiang,water body,,,https://books.google.com.hk/books?id=DjQ9AAAAIAAJ&pg=PA267,,,https://loc.gov/resource/g7821rm.gct00058/?sp=4,8,88624,2926,29.9108,122.1856,,Point,Feature
雙嶼門,Shuāngyǔmén,Double Island Channel,雙嶼港,Shuangyu Channel (landward edge),,,,Zhejiang,water body,,,https://books.google.com.hk/books?id=DjQ9AAAAIAAJ&pg=PA263,https://en.wikipedia.org/wiki/Shuangyu,https://zh.wikipedia.org/wiki/%E5%85%AD%E6%A8%AA%E8%B7%A8%E6%B5%B7%E5%A4%A7%E6%A1%A5#%E5%8F%8C%E5%B1%BF%E9%97%A8%E5%A4%A7%E6%A1%A5,https://loc.gov/resource/g7821rm.gct00058/?sp=4,8,88562,2257,29.7488,122.0555,,Point,Feature
昇羅嶼,Shēngluóyǔ,Liter Net Island,升螺圓山,Shengluo Yuanshan,,,,Zhejiang,island,,,https://books.google.com.hk/books?id=DjQ9AAAAIAAJ&pg=PA267,,,https://loc.gov/resource/g7821rm.gct00058/?sp=4,8,88392,2928,29.8608,122.0983,,Point,Feature
九山,Jiǔshān,Nine Islands,韭山列岛,Jiushan Archipelago,,,,Zhejiang,island,,,https://books.google.com.hk/books?id=DjQ9AAAAIAAJ&pg=PA267,,https://zh.wikipedia.org/wiki/%E9%9F%AD%E5%B1%B1%E5%88%97%E5%B2%9B,https://loc.gov/resource/g7821rm.gct00058/?sp=4,8,88310,2828,29.4257,122.1976,,Point,Feature
孛渡,Bèidù,Change Ferry,佛渡島,Fodu Island,,Botu Island,,Zhejiang,island,,,https://books.google.com.hk/books?id=DjQ9AAAAIAAJ,,https://zh.wikipedia.org/wiki/%E4%BD%9B%E6%B8%A1%E5%B2%9BB,https://loc.gov/resource/g7821rm.gct00058/?sp=4,8,88189,2088,29.7436,122.0214,,Point,Feature
東廚,Dōngchú,East Kitchen,東嶼山,Dongyushan,牛鼻山,Niu Pi Shan,,Zhejiang,island,,,https://books.google.com.hk/books?id=DjQ9AAAAIAAJ&pg=PA263,,https://zh.wikipedia.org/wiki/%E4%B8%9C%E5%B1%BF%E5%B1%B1,https://loc.gov/resource/g7821rm.gct00058/?sp=4,8,88007,2312,29.6172,122.0259,,Point,Feature
西㕑,Xīchú,West Kitchen,西嶼山,Xiyushan,,Ploughman Island,,Zhejiang,island,,,https://books.google.com.hk/books?id=DjQ9AAAAIAAJ&pg=PA263,,,https://loc.gov/resource/g7821rm.gct00058/?sp=4,8,87916,1865,29.6276,122.0008,,Point,Feature
東嶼,Dōngyǔ,East Island,六橫島,Liuhengdao,,,,Zhejiang,island,,,https://books.google.com.hk/books?id=DjQ9AAAAIAAJ&pg=PA263,,https://baike.baidu.com/item/%E5%85%AD%E6%A8%AA%E5%B2%9B,https://loc.gov/resource/g7821rm.gct00058/?sp=4,8,87800,3817,29.7279,122.1307,,Point,Feature
郭巨千戶所,Guōjùqiānhùsuǒ,Giant City Wall Battalion,爵溪街道,Juexi,,Jack Ji Town?,,Zhejiang,town,,,https://books.google.com.hk/books?id=DjQ9AAAAIAAJ&pg=PA263,,https://zh.wikipedia.org/wiki/%E7%88%B5%E6%BA%AA%E8%A1%97%E9%81%93,https://loc.gov/resource/g7821rm.gct00058/?sp=4,8,87716,841,29.4752,121.9469,,Point,Feature
砙礁洋,Wǎjiāoyáng,Big Brick Reef Ocean,亂礁洋,Chaos Reef,,southern portion of Niubishan Channel,,Zhejiang,water body,,,https://books.google.com.hk/books?id=DjQ9AAAAIAAJ,,,https://loc.gov/resource/g7821rm.gct00058/?sp=4,8,87388,2294,29.5894,122.0266,,Point,Feature
大麵山,Dàmiànshān,Big Flour Island,大漠山,Damao Island,,"Dai Muk, Bear Island",,Zhejiang,island,,,https://books.google.com.hk/books?id=DjQ9AAAAIAAJ&pg=PA263,,,https://loc.gov/resource/g7821rm.gct00058/?sp=4,8,87266,1898,29.4109,122.0063,,Point,Feature
昌國千戶所,Chāngguóqiānhùsuǒ,Prosperous Country Battalion Headquarters,九井村,Jiujing Village,,,,Zhejiang,town,,,https://books.google.com.hk/books?id=DjQ9AAAAIAAJ&pg=PA263,"https://en.wikipedia.org/wiki/Xiangshan_County,_Zhejiang",https://baike.baidu.com/item/%E4%B9%9D%E4%BA%95%E6%9D%91/8893646,https://loc.gov/resource/g7821rm.gct00058/?sp=4,8,86995,914,29.2557,121.9372,,Point,Feature
大嵩千戶所,Dàsōngqiānhùsuǒ,Big Sublime Battalion Headquarters,大嵩岙村,Dasong'aocun,,,,Zhejiang,town,,,https://books.google.com.hk/books?id=DjQ9AAAAIAAJ&pg=PA263,,https://zh.wikipedia.org/wiki/%E5%A4%A7%E5%B5%A9%E6%89%80%E5%9F%8E,https://loc.gov/resource/g7821rm.gct00058/?sp=5,9,86720,1109,29.7102,121.7815,,Point,Feature
檀頭山,Tántóushān,Sandalwood Head Island,檀頭山,Tantoushan Island,,Montague Island,,Zhejiang,island,,,https://books.google.com.hk/books?id=DjQ9AAAAIAAJ&pg=PA264,,https://baike.baidu.com/item/%E6%AA%80%E5%A4%B4%E5%B1%B1%E5%B2%9B,https://loc.gov/resource/g7821rm.gct00058/?sp=5,9,86560,2175,29.1816,122.0382,,Point,Feature
東門所,Dōngménsuǒ,East Channel Battalion,石浦镇,Shipu Town,,Tungmen,,Zhejiang,town,,,https://books.google.com.hk/books?id=DjQ9AAAAIAAJ&pg=PA264,,https://zh.wikipedia.org/wiki/%E7%9F%B3%E6%B5%A6%E9%95%87,https://loc.gov/resource/g7821rm.gct00058/?sp=5,9,86254,1169,29.1979,121.9340,,Point,Feature
東門山,Dōngménshān,East Channel Island,東門山,Dongmen Island,,"Tungmen Island, Nanhuishan",,Zhejiang,island,,,https://books.google.com.hk/books?id=DjQ9AAAAIAAJ&pg=PA264,,https://zh.wikipedia.org/wiki/%E4%B8%9C%E9%97%A8%E7%81%AF%E5%A1%94,https://loc.gov/resource/g7821rm.gct00058/?sp=5,9,86251,1677,29.1997,121.9540,,Point,Feature
昌國衛,Chāngguówèi,Prosperous Country Guard,,near Shipu?,,,,Zhejiang,town,,,https://books.google.com.hk/books?id=DjQ9AAAAIAAJ&pg=PA264,,,https://loc.gov/resource/g7821rm.gct00058/?sp=5,9,86023,766,29.1696,121.8481,,Point,Feature
東西岳山,Dōngxīyuèshān (Dōngxīqíshān),East & West Mountainous Islands,東磯列島,Dongji Archipelago,東西崎山,Dongjishan & Gaodao Islands,,Zhejiang,island,,,https://books.google.com.hk/books?id=DjQ9AAAAIAAJ&pg=PA264,,https://zh.wikipedia.org/wiki/%E4%B8%9C%E7%9F%B6%E5%88%97%E5%B2%9B,https://loc.gov/resource/g7821rm.gct00058/?sp=5,9,85800,2421,28.7473,121.8728,,Point,Feature
牡安千戶所,Mǔānqiānhùsuǒ,Male Peace Battalion Headquarters,前所,Qiansuo,,,,Zhejiang,town,,,https://books.google.com.hk/books?id=DjQ9AAAAIAAJ&pg=PA264,,https://baike.baidu.com/item/%E5%89%8D%E6%89%80%E8%A1%97%E9%81%93,https://loc.gov/resource/g7821rm.gct00058/?sp=5,9,85385,932,28.7000,121.4500,,Point,Feature
三母山,Sānmǔshān,Three Mothers Island,上大陳,Shangdachen Island,,,,Zhejiang,island,,,https://books.google.com.hk/books?id=DjQ9AAAAIAAJ&pg=PA264,https://en.wikipedia.org/wiki/Dachen_Islands,https://zh.wikipedia.org/wiki/%E5%A4%A7%E9%99%88%E5%B2%9B,https://loc.gov/resource/g7821rm.gct00058/?sp=5,9,85281,2135,28.5013,121.8717,,Point,Feature
台州衛,Táizhōuwèi,Table Prefecture Guard,臨海市,Linhai,,,,Zhejiang,building,,,https://books.google.com.hk/books?id=DjQ9AAAAIAAJ&pg=PA264,https://en.wikipedia.org/wiki/Linhai,https://zh.wikipedia.org/wiki/%E4%B8%B4%E6%B5%B7%E5%B8%82,https://loc.gov/resource/g7821rm.gct00058/?sp=5,9,85174,879,28.8541,121.1481,,Point,Feature
江片礁,Jiāngpiànjiāo,River Sheet Reef,,,,,,Zhejiang,island,,,https://books.google.com.hk/books?id=DjQ9AAAAIAAJ&pg=PA267,,,https://loc.gov/resource/g7821rm.gct00058/?sp=5,9,85108,3265,,,,,
魚山,Yúshān,Fish Island,漁山列島,Yushan Islands,,,,Zhejiang,island,,,https://books.google.com.hk/books?id=DjQ9AAAAIAAJ&pg=PA264,,https://zh.wikipedia.org/wiki/%E6%B8%94%E5%B1%B1%E5%88%97%E5%B2%9B,https://loc.gov/resource/g7821rm.gct00058/?sp=5,9,85119,4029,28.8827,122.2507,,Point,Feature
羊琪山,Yángqíshān,Sheep Jade Island,洋旗岛,Yangqi Island,洋岐岛,Pingfengshan,,Zhejiang,island,,,https://books.google.com.hk/books?id=DjQ9AAAAIAAJ&pg=PA264,,https://baike.baidu.com/item/%E6%B4%8B%E6%97%97%E5%B2%9B,https://loc.gov/resource/g7821rm.gct00058/?sp=5,9,85093,2639,28.4122,121.9142,,Point,Feature
大陳山,Dàchénshān,Big Old Island,下大陳,Xiadachen Island,,Dachen Island,,Zhejiang,island,,,https://books.google.com.hk/books?id=DjQ9AAAAIAAJ&pg=PA264,https://en.wikipedia.org/wiki/Dachen_Islands,,https://loc.gov/resource/g7821rm.gct00058/?sp=5,9,84761,2483,28.4945,121.8937,,Point,Feature
海門衛,Hǎiménwèi,Sea Gate Guard,海門,Haimen Town,,,,Zhejiang,town,,,https://books.google.com.hk/books?id=DjQ9AAAAIAAJ&pg=PA264,,https://baike.baidu.com/item/%E6%B5%B7%E9%97%A8%E5%8D%AB/4832652,https://loc.gov/resource/g7821rm.gct00058/?sp=5,9,84679,1411,28.7415,121.5669,,Point,Feature
大佛頭山,Dàfótóushān,Big Buddha Head Island,花嶴島,Hua'ao Island,,,,Zhejiang,island,,,https://books.google.com.hk/books?id=DjQ9AAAAIAAJ&pg=PA267,,https://baike.baidu.com/item/%E8%8A%B1%E5%B2%99%E5%B2%9B,https://loc.gov/resource/g7821rm.gct00058/?sp=5,9,84608,3278,29.0820,121.8152,,Point,Feature
黄礁山,Huángjiāoshān,Yellow Reef Island,黄礁岛,Huangjiao Island,,Shang hsu Island,,Zhejiang,island,,,https://books.google.com.hk/books?id=DjQ9AAAAIAAJ&pg=PA264,,https://zh.wikipedia.org/wiki/%E9%BB%84%E7%A4%81%E5%B2%9B,https://loc.gov/resource/g7821rm.gct00058/?sp=5,9,84259,2204,28.4706,121.6501,,Point,Feature
直谷,Zhígǔ,Straight Valley,積谷,Jigu Island,,Chiku Island,,Zhejiang,island,,,https://books.google.com.hk/books?id=DjQ9AAAAIAAJ&pg=PA264,,,https://loc.gov/resource/g7821rm.gct00058/?sp=5,10,83977,2130,28.3815,121.7243,,Point,Feature
石塘,Shítáng,Stone Pond,牛山島,Niushan Island,,Shetung?,,Zhejiang,town,,,https://books.google.com.hk/books?id=DjQ9AAAAIAAJ&pg=PA264,https://en.wikipedia.org/wiki/Niushan_Island,https://zh.wikipedia.org/wiki/%E7%89%9B%E5%B1%B1%E5%B2%9B,https://loc.gov/resource/g7821rm.gct00058/?sp=5,10,83761,2492,28.2838,121.6797,,Point,Feature
松門衛,Sōngménwèi,Pine Gate Guard,松門鎮,Songmen Town,,,,Zhejiang,town,,,https://books.google.com.hk/books?id=DjQ9AAAAIAAJ&pg=PA264,,https://zh.wikipedia.org/wiki/%E6%9D%BE%E9%97%A8%E9%95%87,https://loc.gov/resource/g7821rm.gct00058/?sp=5,10,83685,1139,28.3432,121.5966,,Point,Feature
大小六經山,Dàxiǎoliùjīngshān,Great & Lesser Six Channel Island,大鹿山,Dalu Island,,Taluk Island,,Zhejiang,island,,,https://books.google.com.hk/books?id=DjQ9AAAAIAAJ&pg=PA264,,https://baike.baidu.com/item/%E5%A4%A7%E9%B9%BF%E5%B1%B1/2795539,https://loc.gov/resource/g7821rm.gct00058/?sp=5,10,83516,2016,28.0977,121.4022,,Point,Feature
狹山,Xiáshān,Narrow Island,披山岛,Pishan Island,邳山,,,Zhejiang,island,,,https://books.google.com.hk/books?id=DjQ9AAAAIAAJ&pg=PA264,https://en.wikipedia.org/wiki/Yuhuan,https://zh.wikipedia.org/wiki/%E6%8A%AB%E5%B1%B1%E5%B2%9B,https://loc.gov/resource/g7821rm.gct00058/?sp=5,10,83271,2617,28.0936,121.5164,,Point,Feature
錢山,Qiánshān,Money Island,下前山,Xiaqianshan Island,中鹿岛、前山,Seoluk Islands,,Zhejiang,island,,,https://books.google.com.hk/books?id=DjQ9AAAAIAAJ&pg=PA264,,https://zh.wikipedia.org/wiki/%E4%B8%8B%E5%89%8D%E5%B1%B1,https://loc.gov/resource/g7821rm.gct00058/?sp=5,10,83104,2129,28.0400,121.4113,,Point,Feature
虎斗,Hǔdòu,Tiger Fight,虎頭嶼,Hutou Islet,,,,Zhejiang,island,,,https://books.google.com.hk/books?id=DjQ9AAAAIAAJ&pg=PA264,,,https://loc.gov/resource/g7821rm.gct00058/?sp=5,10,82824,2578,27.8356,121.2478,,Point,Feature
喜鵲山,Xǐquèshān,Magpie Island,,Xiqiaoshan?,,,Dongtou Island [Mills 264],Zhejiang,island,,,https://books.google.com.hk/books?id=DjQ9AAAAIAAJ&pg=PA264,,,https://loc.gov/resource/g7821rm.gct00058/?sp=5,10,82517,2378,,,,Point,Feature
盤石衛,Pánshíwèi,Plate Rock Guard,磐石镇,Panshi Town,,,,Zhejiang,town,,,https://books.google.com.hk/books?id=DjQ9AAAAIAAJ&pg=PA264,,https://zh.wikipedia.org/wiki/%E7%A3%90%E7%9F%B3%E9%95%87_(%E4%B9%90%E6%B8%85%E5%B8%82),https://loc.gov/resource/g7821rm.gct00058/?sp=5,10,82190,1567,27.9960,120.8140,,Point,Feature
黄山,Huángshān,Yellow Island,半屏島,Banpingdao,半面山,,,Zhejiang,island,,,https://books.google.com.hk/books?id=DjQ9AAAAIAAJ&pg=PA264,,https://baike.baidu.com/item/%E5%8D%8A%E5%B1%8F%E5%B2%9B,https://loc.gov/resource/g7821rm.gct00058/?sp=5,10,82070,2660,27.8039,121.1392,,,
中界山,Zhōngjièshān,Center Boundary Island,洞頭島,Dongtou Island,,,Beice Island [Mills 264],Zhejiang,island,,,https://baike.baidu.com/item/%E4%B8%AD%E7%95%8C/12015004,https://en.wikipedia.org/wiki/Dongtou_District,https://zh.wikipedia.org/wiki/%E6%B4%9E%E5%A4%B4%E5%8C%BA,https://loc.gov/resource/g7821rm.gct00058/?sp=5,10,81677,2272,27.8334,121.1501,,Point,Feature
夜了山,Yèleshān,Night Island,南策島,Nance Island,,,,Zhejiang,island,,,https://books.google.com.hk/books?id=DjQ9AAAAIAAJ&pg=PA265,,https://baike.baidu.com/item/%E5%8D%97%E7%AD%96%E5%B2%9B,https://loc.gov/resource/g7821rm.gct00058/?sp=6,11,81269,2492,27.7627,121.1320,,Point,Feature
瑞安,Ruì'ān,Lucky Peace,瑞安市,Rui'an City,,"Juian, Meitou",,Zhejiang,town,,,https://books.google.com.hk/books?id=DjQ9AAAAIAAJ&pg=PA265,https://en.wikipedia.org/wiki/Rui%27an,https://zh.wikipedia.org/wiki/%E7%91%9E%E5%AE%89%E5%B8%82,https://loc.gov/resource/g7821rm.gct00058/?sp=6,11,80913,734,27.7833,120.6250,,Point,Feature
東洛山,Dōngluòshān,Eastern Island of the Luo River,北麂山,Beiji Island,,Pi-ki Island,,Zhejiang,island,,,https://books.google.com.hk/books?id=DjQ9AAAAIAAJ&pg=PA265,,https://zh.wikipedia.org/wiki/%E5%8C%97%E9%BA%82%E5%88%97%E5%B2%9B,https://loc.gov/resource/g7821rm.gct00058/?sp=6,11,80659,2534,27.6233,121.2085,,Point,Feature
溫州衛,Wēnzhōuwèi,Warm Land Guard,溫州市,Wenzhou City,,,,Zhejiang,town,,,,https://en.wikipedia.org/wiki/Wenzhou,https://zh.wikipedia.org/wiki/%E6%B8%A9%E5%B7%9E%E5%B8%82,https://loc.gov/resource/g7821rm.gct00058/?sp=6,11,80497,1397,27.9781,120.5212,,Point,Feature
鹿屏山,Lùpíngshān,Deer Screen Island,北龍山,Beilong Island,,,,Zhejiang,island,,,https://books.google.com.hk/books?id=DjQ9AAAAIAAJ&pg=PA265,,https://www.cidianwang.com/lishi/diming/0/42090ir.htm,https://loc.gov/resource/g7821rm.gct00058/?sp=6,11,80379,2282,27.6590,120.9751,,Point,Feature
平陽衛,Píngyángwèi,Level Positive Guard,平陽縣,Pingyang County,,,,Zhejiang,town,,,https://books.google.com.hk/books?id=DjQ9AAAAIAAJ&pg=PA265,https://en.wikipedia.org/wiki/Pingyang_County,https://zh.wikipedia.org/wiki/%E5%B9%B3%E9%98%B3%E5%8E%BF,https://loc.gov/resource/g7821rm.gct00058/?sp=6,11,79945,1435,27.6442,120.5660,,Point,Feature
鳳凰山,Fènghuángshān,Phoenix Island,鳳凰兒嶼,Phoenix Island,,Tsang Islands,Tsang Islands [Mills 265],Zhejiang,island,,,https://books.google.com.hk/books?id=DjQ9AAAAIAAJ&pg=PA265,,https://www.mafengwo.cn/i/7678868.html,https://loc.gov/resource/g7821rm.gct00058/?sp=6,11,79769,2051,27.6903,120.8220,,Point,Feature
南己山,Nánjǐshān,South Self Island,南麂山,Nanji Island,,Nam-ki Island,,Zhejiang,island,,,https://books.google.com.hk/books?id=DjQ9AAAAIAAJ&pg=PA265,,https://kknews.cc/zh-hk/culture/qnl8b6y.html,https://loc.gov/resource/g7821rm.gct00058/?sp=6,11,79225,2955,27.4648,121.0605,,Point,Feature
西礁,Xījiāo,West Reef,,Turret Islet,,Shan ma an,,Zhejiang,island,,,https://books.google.com.hk/books?id=DjQ9AAAAIAAJ&pg=PA265,https://books.google.com.hk/books?id=wf0NAQAAIAAJ&pg=PA418,,https://loc.gov/resource/g7821rm.gct00058/?sp=6,11,78782,2733,27.4515,120.9638,,Point,Feature
金鄉衛,Jīnxiāngwèi,Gold Village Guard,金乡镇,Jinxiang Town,,,,Zhejiang,town,,,https://books.google.com.hk/books?id=DjQ9AAAAIAAJ&pg=PA265,https://en.wikipedia.org/wiki/Cangnan_County,https://zh.wikipedia.org/wiki/%E9%87%91%E4%B9%A1%E9%95%87_(%E8%8B%8D%E5%8D%97%E5%8E%BF),https://loc.gov/resource/g7821rm.gct00058/?sp=6,12,78497,1535,27.4303,120.6072,,Point,Feature
南船礁,Nánchuánjiāo,South Boat Reef,,Castellated Rock,,Lu Ying,,Zhejiang,island,,,https://books.google.com.hk/books?id=DjQ9AAAAIAAJ&pg=PA265,,,https://loc.gov/resource/g7821rm.gct00058/?sp=6,12,78443,2884,27.3548,120.9850,,Point,Feature
虎礁,Hǔjiāo,Tiger Reef,七星列島,Qixing Islands,,Seven Stars,,Zhejiang,island,,,https://books.google.com.hk/books?id=DjQ9AAAAIAAJ&pg=PA265,,https://baike.baidu.com/item/%E4%B8%83%E6%98%9F%E5%88%97%E5%B2%9B,https://loc.gov/resource/g7821rm.gct00058/?sp=6,12,78113,2928,27.0431,120.8343,,Point,Feature
礁,jiāo,reef,,,,,,Zhejiang,descriptor,,,,,,https://loc.gov/resource/g7821rm.gct00058/?sp=6,12,77996,2108,,,,Point,Feature
壯士千戶所,Zhuàngshìqiānhùsuǒ,Strong Man Battalion Headquarters,蒼南縣,in Cangnan County,南關鎮？,Nankuan Town?,,Zhejiang,town,,,https://books.google.com.hk/books?id=DjQ9AAAAIAAJ&pg=PA265,https://en.wikipedia.org/wiki/Cangnan_County,https://zh.wikipedia.org/wiki/%E5%A3%AE%E5%A3%AB%E6%89%80%E5%9F%8E,https://loc.gov/resource/g7821rm.gct00058/?sp=6,12,77892,1664,27.2315,120.4527,,Point,Feature
石帆,Shífān,Stone Sail,北关島,Beiguan Island,,Pingfong Island,,Zhejiang,island,,,https://books.google.com.hk/books?id=DjQ9AAAAIAAJ&pg=PA265,,,https://loc.gov/resource/g7821rm.gct00058/?sp=6,12,77780,2066,27.1649,120.5199,,Point,Feature
臺山,Táishān,Station Island,台山島,Taishan Island,,,,Fujian,island,,,https://books.google.com.hk/books?id=DjQ9AAAAIAAJ&pg=PA265,,https://baike.baidu.com/item/%E5%8F%B0%E5%B1%B1%E5%B2%9B,https://loc.gov/resource/g7821rm.gct00058/?sp=6,12,77710,2985,26.9843,120.7096,,Point,Feature
礁,jiāo,reef,東星島,Dongxing Island,,"Incog Islands, Ying ko ku lieh tao",,Fujian,island,,,https://books.google.com.hk/books?id=DjQ9AAAAIAAJ&pg=PA265,,https://baike.baidu.com/item/%E4%B8%9C%E6%98%9F%E5%B2%9B,https://loc.gov/resource/g7821rm.gct00058/?sp=6,12,77461,2058,26.9642,120.5082,,Point,Feature
洋礁,Yángjiāo,ocean reef,南屿,Nanyu Islet,,Strawstack Islet,,Fujian,island,,,https://books.google.com.hk/books?id=DjQ9AAAAIAAJ&pg=PA265,,,https://loc.gov/resource/g7821rm.gct00058/?sp=6,12,77077,2880,26.9275,120.6908,,Point,Feature
俞山,Yúshān,Yes Island,大嵛山,Dayushan,嵛山、盂山、窑山、鹞山,Fuyaoshan? Fuyan Island?,,Fujian,island,,,https://books.google.com.hk/books?id=DjQ9AAAAIAAJ&pg=PA265,,https://baike.baidu.com/item/%E5%A4%A7%E5%B5%9B%E5%B1%B1%E5%B2%9B,https://loc.gov/resource/g7821rm.gct00058/?sp=6,12,76886,2007,26.9448,120.3494,,Point,Feature
東乗,Dōngchéng,East Mount,南礵島,Nanshuang Island,,Country Island,,Fujian,island,,,https://books.google.com.hk/books?id=DjQ9AAAAIAAJ&pg=PA265,,https://baike.baidu.com/item/%E5%9B%9B%E7%A4%B5%E5%88%97%E5%B2%9B,https://loc.gov/resource/g7821rm.gct00058/?sp=6,12,76551,2542,26.6419,120.3585,,Point,Feature
滿門千戶所,Mǎnménqiānhùsuǒ,Full Door Battalion Headquarters,,,,,,Fujian,town,,,https://books.google.com.hk/books?id=DjQ9AAAAIAAJ&pg=PA265,,,https://loc.gov/resource/g7821rm.gct00058/?sp=6,12,76536,1572,,,,Point,Feature
西乗,Xīchéng,West Mount,北礵島,Beishuang Island,,Town Island,,Fujian,island,,,https://books.google.com.hk/books?id=DjQ9AAAAIAAJ&pg=PA265,,https://baike.baidu.com/item/%E5%8C%97%E7%A4%B5%E5%B2%9B,https://loc.gov/resource/g7821rm.gct00058/?sp=6,12,76167,2437,26.7005,120.3564,,Point,Feature
福寧衛,Fúníngwèi,Fortunate Tranquility Guard,福寧府,Funing,,Hsia pu,,Fujian,town,,,https://books.google.com.hk/books?id=DjQ9AAAAIAAJ&pg=PA265,https://en.wikipedia.org/wiki/Xiapu_County,https://zh.wikipedia.org/wiki/%E7%A6%8F%E5%AE%81%E5%BA%9C,https://loc.gov/resource/g7821rm.gct00058/?sp=6,12,76070,1690,26.9410,119.5659,,Point,Feature
大金巡司,Dàjīnxúnsī,Big Gold Inspectorate,大京城堡,Dajing Castle,,,,Fujian,building,,,https://books.google.com.hk/books?id=DjQ9AAAAIAAJ&pg=PA265,,https://baike.baidu.com/item/%E5%A4%A7%E4%BA%AC%E5%9F%8E%E5%A0%A1/4426878,https://loc.gov/resource/g7821rm.gct00058/?sp=7,13,75785,1792,26.6993,120.1018,,Point,Feature
芙蓉山,Fúróngshān,Lotus Island,浮鷹島,Fuying Island,,Double Peak Island?,,Fujian,island,,,https://books.google.com.hk/books?id=DjQ9AAAAIAAJ&pg=PA266,,https://zh.wikipedia.org/wiki/%E7%A6%8F%E5%BB%BA%E5%B2%9B%E5%B1%BF,https://loc.gov/resource/g7821rm.gct00058/?sp=7,13,75719,2956,26.5774,120.1460,,Point,Feature
洪山,Hóngshān,Vast Island,西洋島,Xiyang Island,蜘蛛島,Spider Island,,Fujian,island,,,https://books.google.com.hk/books?id=DjQ9AAAAIAAJ&pg=PA266,https://en.wikipedia.org/wiki/Haidao_Township,https://baike.baidu.com/item/%E8%A5%BF%E6%B4%8B%E5%B2%9B,https://loc.gov/resource/g7821rm.gct00058/?sp=7,13,75364,3318,26.5092,120.0465,,Point,Feature
筆架山,Bǐjiàshān,Pen Rack Island,烏嶼,Wuyu Islet,,,,Fujian,island,,,https://books.google.com.hk/books?id=DjQ9AAAAIAAJ&pg=PA266,,https://zh.wikipedia.org/wiki/%E7%A6%8F%E5%BB%BA%E5%B2%9B%E5%B1%BF#%E6%8C%89%E5%9C%B0%E7%90%86%E4%BD%8D%E7%BD%AE%E7%9A%84%E5%B2%9B%E5%B1%BF%E5%88%97%E8%A1%A8,https://loc.gov/resource/g7821rm.gct00058/?sp=7,13,75309,2164,26.5562,119.9685,,Point,Feature
小西洋,Xiǎoxīyáng,Small Western Ocean,黃灣島,Huangwan Island,,"Isthmus island, I ssu ma ssu tao",,Fujian,island,,,https://books.google.com.hk/books?id=DjQ9AAAAIAAJ&pg=PA266,,https://baike.baidu.com/item/%E5%B0%8F%E8%A5%BF%E6%B4%8B%E5%B2%9B,https://loc.gov/resource/g7821rm.gct00058/?sp=7,13,75268,2560,26.5380,120.0040,,Point,Feature
芥菜礁,Jiècàijiāo,Mustard Reef,,,,,,Fujian?,island,,,https://books.google.com.hk/books?id=DjQ9AAAAIAAJ&pg=PA266,,,https://loc.gov/resource/g7821rm.gct00058/?sp=7,13,75016,3184,,,,Point,Feature
大金門,Dàjīnmén,Big Gold Channel,可門水道,Kemen Waterway,,Sandu'ao Inlet,,Fujian,water body,,,https://books.google.com.hk/books?id=DjQ9AAAAIAAJ&pg=PA266,,https://baike.baidu.com/item/%E5%8F%AF%E9%97%A8%E6%B8%AF,https://loc.gov/resource/g7821rm.gct00058/?sp=7,13,74929,2180,26.4251,119.8063,,Point,Feature
東湧山,Dōngyǒngshān,Eastern Surge Island,東引島,Dongyin Island,,,,Taiwan,island,,,https://books.google.com.hk/books?id=DjQ9AAAAIAAJ&pg=PA266,"https://en.wikipedia.org/wiki/Dongyin,_Lienchiang",https://zh.wikipedia.org/wiki/%E4%B8%9C%E5%BC%95%E5%B2%9B,https://loc.gov/resource/g7821rm.gct00058/?sp=7,13,74834,3704,26.3667,120.4900,,Point,Feature
定海衛,Dìnghǎiwèi,Fixed Sea Guard,東沖半島？,on Dongchong Peninsula?,,,,Fujian,town,,,https://books.google.com.hk/books?id=DjQ9AAAAIAAJ&pg=PA266,,https://baike.baidu.com/item/%E4%B8%9C%E5%86%B2%E5%8D%8A%E5%B2%9B,https://loc.gov/resource/g7821rm.gct00058/?sp=7,13,74546,1499,26.5608,119.8594,,Point,Feature
龜嶼,Guīyǔ,Turtle Island,東沙島,Dongsha Island,,Alligator Islet,,Taiwan,island,,,https://books.google.com.hk/books?id=DjQ9AAAAIAAJ&pg=PA266,,,https://loc.gov/resource/g7821rm.gct00058/?sp=7,13,74299,3554,26.1565,120.4040,,Point,Feature
北交頭門,Běijiāotóumén,Northern Crossing Head Channel,,"the passage between Beilingisjiao and Beixu (Yangyu Island), 26º 22' N",,,,Fujian,water body,,,https://books.google.com.hk/books?id=DjQ9AAAAIAAJ&pg=PA268,,,https://loc.gov/resource/g7821rm.gct00058/?sp=7,13,74105,3240,26.3713,119.9602,,Point,Feature
北交,Běijiāotóumén,Northern Grossing,北茭村,Beijiao Village,北茭半島,Tailu,,Fujian,town,,,https://books.google.com.hk/books?id=DjQ9AAAAIAAJ&pg=PA266,https://en.wikipedia.org/wiki/Tailu,https://zh.wikipedia.org/wiki/%E8%8B%94%E8%8F%89%E9%95%87,https://loc.gov/resource/g7821rm.gct00058/?sp=7,13,73950,2551,26.3729,119.9512,,Point,Feature
連江衛,Liánjiāngwèi,Connecting River Guard,連江縣,Lianjiang County,,,,Fujian,town,,,https://books.google.com.hk/books?id=DjQ9AAAAIAAJ&pg=PA266,https://en.wikipedia.org/wiki/Lianjiang_County,https://zh.wikipedia.org/wiki/%E8%BF%9E%E6%B1%9F%E5%8E%BF,https://loc.gov/resource/g7821rm.gct00058/?sp=7,13,73895,1616,26.0958,119.4256,,Point,Feature
定海所,Dìnghǎisuǒ,Fixed Sea Battalion,定海古城,Dinghai Ancient City,,,,Fujian,town,,,https://books.google.com.hk/books?id=DjQ9AAAAIAAJ&pg=PA266,,https://baike.baidu.com/item/%E5%AE%9A%E6%B5%B7%E5%8F%A4%E5%9F%8E,https://loc.gov/resource/g7821rm.gct00058/?sp=7,13,73411,2312,26.2812,119.7913,,Point,Feature
天地,Tiāndì,Heaven and Earth,,,,,,Fujian,mountain,,,,,,https://loc.gov/resource/g7821rm.gct00058/?sp=7,14,73112,1083,,,,Point,Feature
古山,Gǔshān,Old Mountain,鼓山,Mount Gu,,,,Fujian,mountain,,,https://books.google.com.hk/books?id=DjQ9AAAAIAAJ&pg=PA266,https://en.wikipedia.org/wiki/Yongquan_Temple_(Fuzhou),https://zh.wikipedia.org/wiki/%E6%B6%8C%E6%B3%89%E5%AF%BA_(%E7%A6%8F%E5%B7%9E),https://loc.gov/resource/g7821rm.gct00058/?sp=7,14,73073,1581,26.0525,119.3888,,Point,Feature
巡檢司,xúnjiǎnsī,Inspectorate,琯頭鎮？,in Guantou?,,Kwantao?,,Fujian,building,,,https://books.google.com.hk/books?id=DjQ9AAAAIAAJ&pg=PA266,,https://zh.wikipedia.org/wiki/%E7%90%AF%E5%A4%B4%E9%95%87,https://loc.gov/resource/g7821rm.gct00058/?sp=7,14,72946,2556,26.1374,119.5601,,Point,Feature
巡檢司,xúnjiǎnsī,Inspectorate,馬尾區？,in Mawei?,,,,Fujian,building,,,https://books.google.com.hk/books?id=DjQ9AAAAIAAJ&pg=PA266,https://en.wikipedia.org/wiki/Mawei_District,https://zh.wikipedia.org/wiki/%E9%A9%AC%E5%B0%BE%E5%8C%BA,https://loc.gov/resource/g7821rm.gct00058/?sp=7,14,72642,2100,25.9912,119.4514,,Point,Feature
五虎山,Wǔhǔshān,Five Tigers Island,五虎礁,Wuhu Reef,,,,Fujian,island,,,https://books.google.com.hk/books?id=DjQ9AAAAIAAJ&pg=PA266,,https://baike.baidu.com/item/%E4%BA%94%E8%99%8E%E7%A4%81,https://loc.gov/resource/g7821rm.gct00058/?sp=7,14,72611,2730,26.149427,119.661586,,Point,Feature
福建布政司,Fújiànbùzhèngsī,Fortunate Construction Governament,福州,Fuzhou,,,,Fujian,town,,,https://books.google.com.hk/books?id=DjQ9AAAAIAAJ&pg=PA266,https://en.wikipedia.org/wiki/Fuzhou,https://zh.wikipedia.org/wiki/%E7%A6%8F%E5%BB%BA%E7%9C%81,https://loc.gov/resource/g7821rm.gct00058/?sp=7,14,72584,1112,26.1049,119.2904,,Point,Feature
沙淺,shāqiǎn,shallow sand,,,,,,Fujian,descriptor,,,https://books.google.com.hk/books?id=DjQ9AAAAIAAJ&pg=PA266,,,https://loc.gov/resource/g7821rm.gct00058/?sp=7,14,72583,3040,,,,Point,Feature
官塘山,Guāntángshān,Official Pond Island,,Jixingjiao,,,,Taiwan,island,,,https://books.google.com.hk/books?id=DjQ9AAAAIAAJ,,,https://loc.gov/resource/g7821rm.gct00058/?sp=7,14,72293,4028,26.0856,119.9631,,Point,Feature
馬頭,Mǎtóu,Horse Head,馬頭村,Matou Village,,,,Fujian,town,,,https://books.google.com.hk/books?id=DjQ9AAAAIAAJ&pg=PA266,,https://baike.baidu.com/item/%E9%A9%AC%E5%A4%B4%E6%9D%91/13015792,https://loc.gov/resource/g7821rm.gct00058/?sp=7,14,72100,1570,25.9394,119.4659,,Point,Feature
南臺橋,Nántáiqiáo,South Station Bridge,南臺島,Nantai Island,,,,Fujian,building,,,https://books.google.com.hk/books?id=DjQ9AAAAIAAJ&pg=PA266,https://en.wikipedia.org/wiki/Nantai_Island,https://zh.wikipedia.org/wiki/%E5%8D%97%E5%8F%B0%E5%B2%9B,https://loc.gov/resource/g7821rm.gct00058/?sp=7,14,71904,1196,26.0507,119.3307,,Point,Feature
長樂,Zhǎnglè,Long Music,長樂區,Changle District,,,,Fujian,town,,"1,2,3,7",https://books.google.com.hk/books?id=DjQ9AAAAIAAJ&pg=PA269,https://en.wikipedia.org/wiki/Changle_District,https://zh.wikipedia.org/wiki/%E9%95%BF%E4%B9%90%E5%8C%BA,https://loc.gov/resource/g7821rm.gct00058/?sp=7,14,71471,2400,26.0000,119.6167,,Point,Feature
三礁,sānjiāo,three reefs,,,,,,Fujian,descriptor,,,https://books.google.com.hk/books?id=DjQ9AAAAIAAJ&pg=PA269,,,https://loc.gov/resource/g7821rm.gct00058/?sp=7,14,71403,2826,,,,Point,Feature
六平山,Liùpíngshān,Six Level Mountain,董奉山,Dongfeng Mountain,,,,Fujian,mountain,,,https://books.google.com.hk/books?id=DjQ9AAAAIAAJ&pg=PA269,,https://baike.baidu.com/item/%E8%91%A3%E5%A5%89%E5%B1%B1,https://loc.gov/resource/g7821rm.gct00058/?sp=7,14,71240,906,25.8991,119.5134,,Point,Feature
南山寺,Nánshānsì,Southern Mountain Temple,南山寺,Nanshan Temple,,,,Fujian,building,,,,,,https://loc.gov/resource/g7821rm.gct00058/?sp=7,14,71150,1852,24.4960,117.6440,,Point,Feature
六平山,Liùpíngshān,Six Level Mountain,六平山,Liuping Mountain,芝山、鹿屏山、麓屏山,Lover's Leap,,Fujian,mountain,,,https://books.google.com.hk/books?id=DjQ9AAAAIAAJ&pg=PA269,,https://baike.baidu.com/item/%E5%85%AD%E5%B9%B3%E5%B1%B1,https://loc.gov/resource/g7821rm.gct00058/?sp=7,14,71042,1450,25.9708,119.5372,,Point,Feature
東沙,Dōngshā,Eastern Sand,莒光鄉,Juguang Township,東莒島、西莒島,"Dongju and Xiju Islands, Dongquan/Xiquan, White Dog Islands",,Taiwan,island,,,https://books.google.com.hk/books?id=DjQ9AAAAIAAJ&pg=PA266,,https://zh.wikipedia.org/wiki/%E8%8E%92%E5%85%89%E9%84%89,https://loc.gov/resource/g7821rm.gct00058/?sp=7,14,70974,3516,25.9664,119.9579,,Point,Feature
梅花千戶所,Méihuāqiānhùsuǒ,Plum Blossom Battalion Headquarters,梅花鎮,Meihua Town,,,,Fujian,town,,,https://books.google.com.hk/books?id=DjQ9AAAAIAAJ&pg=PA269,,https://zh.wikipedia.org/wiki/%E6%A2%85%E8%8A%B1%E9%95%87_(%E7%A6%8F%E5%B7%9E%E5%B8%82),https://loc.gov/resource/g7821rm.gct00058/?sp=7,14,70912,2378,26.0112,119.6783,,Point,Feature
牛者,Niúzhě,Cowboy,牛山島,Niushan Island,,Turnabout Island,,Fujian,island,,,https://books.google.com.hk/books?id=DjQ9AAAAIAAJ&pg=PA269,https://en.wikipedia.org/wiki/Niushan_Island,https://zh.wikipedia.org/wiki/%E7%89%9B%E5%B1%B1%E5%B2%9B,https://loc.gov/resource/g7821rm.gct00058/?sp=8,15,70312,2768,25.4345,119.9365,,Point,Feature
牛角山,Niújiǎoshān,Cow Point Mountain,御国山,Yuguoshan,,,,Fujian,mountain,,,https://books.google.com.hk/books?id=DjQ9AAAAIAAJ&pg=PA270,,,https://loc.gov/resource/g7821rm.gct00058/?sp=8,15,70210,2010,25.7505,119.6081,,Point,Feature
東墻,Dōngqiáng,East Wall,海壇島,Pingtan Island,平潭島,Haitan Island,,Fujian,island,,,https://books.google.com.hk/books?id=DjQ9AAAAIAAJ&pg=PA270,https://en.wikipedia.org/wiki/Pingtan_Island,https://zh.wikipedia.org/wiki/%E6%B5%B7%E5%9D%9B%E5%B2%9B,https://loc.gov/resource/g7821rm.gct00058/?sp=8,15,69997,2606,25.5032,119.7864,,Point,Feature
草嶼,Cǎoyǔ,Grass Island,草嶼島,Caoyu Island,,Chim Island,,Fujian,island,,,https://books.google.com.hk/books?id=DjQ9AAAAIAAJ&pg=PA270,,https://baike.baidu.com/item/%E8%8D%89%E5%B1%BF%E5%B2%9B,https://loc.gov/resource/g7821rm.gct00058/?sp=8,15,69644,2904,25.3586,119.7006,,Point,Feature
鎮東衛,Zhèndōngwèi,Town East Guard,高山镇,Gaoshan Town,,,,Fujian,town,,,https://books.google.com.hk/books?id=DjQ9AAAAIAAJ&pg=PA270,https://en.wikipedia.org/wiki/Fuqing,https://zh.wikipedia.org/wiki/%E9%AB%98%E5%B1%B1%E9%95%87_(%E7%A6%8F%E6%B8%85%E5%B8%82),https://loc.gov/resource/g7821rm.gct00058/?sp=8,15,69485,1768,25.4776,119.5591,,Point,Feature
南日山,Nánrìshān,Southern Sun Mountain,南日島,Nanri Island,南匿山,"Nanjisü, Nanjih, Nannishan, Lam Yit Island",,Fujian,island,,,https://books.google.com.hk/books?id=DjQ9AAAAIAAJ&pg=PA270,https://en.wikipedia.org/wiki/Nanri_Island,https://zh.wikipedia.org/wiki/%E5%8D%97%E6%97%A5%E9%95%87,https://loc.gov/resource/g7821rm.gct00058/?sp=8,15,69394,2600,25.1999,119.5034,,Point,Feature
烏邱山,Wūqiūshān,Dark Mound Island,烏坵鄉,Wuqiu Township,,Ockseu Islands,,Taiwan,island,,,https://books.google.com.hk/books?id=DjQ9AAAAIAAJ&pg=PA270,"https://en.wikipedia.org/wiki/Wuqiu,_Kinmen",https://zh.wikipedia.org/wiki/%E7%83%8F%E5%9D%B5%E9%84%89,https://loc.gov/resource/g7821rm.gct00058/?sp=8,15,69064,2852,24.9830,119.4500,,Point,Feature
興化府,Xīnghuàfǔ,Flourishing Prefecture,莆田縣,Putian County,,,,Fujian,area,,,https://books.google.com.hk/books?id=DjQ9AAAAIAAJ&pg=PA270,"https://en.wikipedia.org/wiki/Licheng_District,_Putian",https://zh.wikipedia.org/wiki/%E5%85%B4%E5%8C%96%E5%BA%9C,https://loc.gov/resource/g7821rm.gct00058/?sp=8,15,68773,1456,25.4317,119.0158,,Point,Feature
湄洲官,Méizhōuguān,Brink Island Official,湄洲妈祖祖庙,Meizhou Mazu Temple,,Meichen Island,,Fujian,building,,,https://books.google.com.hk/books?id=DjQ9AAAAIAAJ&pg=PA270,,https://zh.wikipedia.org/wiki/%E6%B9%84%E6%B4%B2%E5%A6%88%E7%A5%96%E7%A5%96%E5%BA%99,https://loc.gov/resource/g7821rm.gct00058/?sp=8,15,68569,2291,25.0640,119.1114,,Point,Feature
平海衛,Pínghǎiwèi,Flat Seas Guard,平海镇,Pinghai Town,,,,Fujian,town,,,https://books.google.com.hk/books?id=DjQ9AAAAIAAJ&pg=PA270,https://en.wikipedia.org/wiki/Xiuyu_District#Administrative_divisions,https://zh.wikipedia.org/wiki/%E5%B9%B3%E6%B5%B7%E9%95%87_(%E8%8E%86%E7%94%B0%E5%B8%82),https://loc.gov/resource/g7821rm.gct00058/?sp=8,15,68477,1810,25.1853,119.2739,,Point,Feature
崇武所,Chóngwǔsuǒ,Dignified Military Battalion,崇武鎮,Chongwu Town,,Tongbu Town,,Fujian,town,,,https://books.google.com.hk/books?id=DjQ9AAAAIAAJ&pg=PA270,https://en.wikipedia.org/wiki/Chongwu,https://zh.wikipedia.org/wiki/%E5%B4%87%E6%AD%A6%E9%95%87,https://loc.gov/resource/g7821rm.gct00058/?sp=8,16,67510,2238,24.8733,118.9275,,Point,Feature
泉州衛,Quánzhōuwèi,Fountain Prefecture Guard,泉州市,Quanzhou City,,,,Fujian,town,,5,https://books.google.com.hk/books?id=DjQ9AAAAIAAJ&pg=PA270,https://en.wikipedia.org/wiki/Quanzhou,https://zh.wikipedia.org/wiki/%E6%B3%89%E5%B7%9E%E5%B8%82,https://loc.gov/resource/g7821rm.gct00058/?sp=8,16,67397,1468,24.9070,118.5870,,Point,Feature
巡檢司,xúnjiǎnsī,Inspectorate,祥芝？,on Xiangzhi Peninsula?,,,,Fujian,building,,,https://books.google.com.hk/books?id=DjQ9AAAAIAAJ&pg=PA270,,https://baike.baidu.com/item/%E7%A5%A5%E8%8A%9D,https://loc.gov/resource/g7821rm.gct00058/?sp=8,16,67114,2232,24.7638,118.7584,,Point,Feature
永寧衛,Yǒngníngwèi,Forever Tranquil Guard,永寧鎮,Yongning Town,,,,Fujian,town,,,https://books.google.com.hk/books?id=DjQ9AAAAIAAJ&pg=PA270,"https://en.wikipedia.org/wiki/Yongning,_Fujian",https://zh.wikipedia.org/wiki/%E6%B0%B8%E5%AE%81%E9%95%87_(%E7%9F%B3%E7%8B%AE%E5%B8%82),https://loc.gov/resource/g7821rm.gct00058/?sp=8,16,66848,2140,24.6789,118.6958,,Point,Feature
平湖嶼,Pínghúyǔ,Flat Lake Island,澎湖縣,Penghu County,,"Pescadores, Fisherman Islands",,Taiwan,island,,,https://books.google.com.hk/books?id=DjQ9AAAAIAAJ&pg=PA270,https://en.wikipedia.org/wiki/Penghu,https://zh.wikipedia.org/wiki/%E6%BE%8E%E6%B9%96%E7%BE%A4%E5%B3%B6,https://loc.gov/resource/g7821rm.gct00058/?sp=8,16,66754,3970,23.5833,119.5833,,Point,Feature
東石巡檢司,Dōngshíxúnjiǎnsī,Eastern Stone Inspectorate,深沪镇,Shenhu Town,,,,Fujian,building,,,https://books.google.com.hk/books?id=DjQ9AAAAIAAJ&pg=PA270,https://en.wikipedia.org/wiki/Shenhu,https://zh.wikipedia.org/wiki/%E6%B7%B1%E6%B2%AA%E9%95%87,https://loc.gov/resource/g7821rm.gct00058/?sp=8,16,66520,2072,24.6172,118.6779,,Point,Feature
金門千戶所,Jīnménqiānhùsuǒ,Golden Gate Battalion Headquarters,金門縣,Kinmen County,,Quemoy Island,,Taiwan,town,,,https://books.google.com.hk/books?id=DjQ9AAAAIAAJ&pg=PA270,https://en.wikipedia.org/wiki/Kinmen,https://zh.wikipedia.org/wiki/%E9%87%91%E9%96%80%E7%B8%A3,https://loc.gov/resource/g7821rm.gct00058/?sp=8,16,66514,2515,24.4550,118.3795,,Point,Feature
漳州,Zhāngzhōu,Zhang (River) Prefecture,漳州市,Zhangzhou City,,"Changchow, Lung ch'i",,Fujian,town,,,https://books.google.com.hk/books?id=DjQ9AAAAIAAJ&pg=PA270,https://en.wikipedia.org/wiki/Zhangzhou,https://zh.wikipedia.org/wiki/%E6%BC%B3%E5%B7%9E%E5%B8%82,https://loc.gov/resource/g7821rm.gct00058/?sp=8,16,66308,1392,24.5124,117.6469,,Point,Feature
嘉禾千户所,Jiāhéqiānhùsuǒ,Fine Grain Battalion Headquarters,廈門市,Xiamen City,鷺島、思明州,Amoy,,Fujian,town,,,https://books.google.com.hk/books?id=DjQ9AAAAIAAJ&pg=PA270,https://en.wikipedia.org/wiki/Xiamen,https://zh.wikipedia.org/wiki/%E5%8E%A6%E9%97%A8%E5%B8%82,https://loc.gov/resource/g7821rm.gct00058/?sp=8,16,65992,2496,24.4796,118.0889,,Point,Feature
大武山,Dàwǔshān,Big Military Mountain,南太武山,South Taiwu Mountian,,,,Fujian,mountain,,,https://books.google.com.hk/books?id=DjQ9AAAAIAAJ&pg=PA270,,https://baike.baidu.com/item/%E5%8D%97%E5%A4%AA%E6%AD%A6%E5%B1%B1,https://loc.gov/resource/g7821rm.gct00058/?sp=8,16,65645,1416,24.3290,118.0602,,Point,Feature
小甘,Xiǎogān,Small Sweet,兩兄弟島,Brothers Islands,,,,Fujian,island,,,https://books.google.com.hk/books?id=DjQ9AAAAIAAJ&pg=PA271,https://en.wikipedia.org/wiki/Liangxiongdiyu,https://zh.wikipedia.org/wiki/%E4%B8%A4%E5%85%84%E5%BC%9F%E5%B2%9B,https://loc.gov/resource/g7821rm.gct00058/?sp=9,17,64812,2532,23.5520,117.6642,,Point,Feature
大甘,Dàgān,Big Sweet,兩兄弟島,Brothers Islands,,,,Fujian,island,,,https://books.google.com.hk/books?id=DjQ9AAAAIAAJ&pg=PA271,https://en.wikipedia.org/wiki/Liangxiongdiyu,https://zh.wikipedia.org/wiki/%E4%B8%A4%E5%85%84%E5%BC%9F%E5%B2%9BB,https://loc.gov/resource/g7821rm.gct00058/?sp=9,17,64720,2248,23.5326,117.6882,,Point,Feature
同山千戶所,Tóngshānqiānhùsuǒ,Similar Mountain Battalion Headquarters,東山縣,Dongshan County,,,,Fujian,island,,,https://books.google.com.hk/books?id=DjQ9AAAAIAAJ&pg=PA271,https://en.wikipedia.org/wiki/Dongshan_County,https://zh.wikipedia.org/wiki/%E4%B8%9C%E5%B1%B1%E5%8E%BF,https://loc.gov/resource/g7821rm.gct00058/?sp=9,17,64306,2176,23.6940,117.4380,,Point,Feature
外平,Wàipíng,Outer Flat,南澎列島,Nanpang Islands,,Lamock Islands,,Guangdong,island,,,https://books.google.com.hk/books?id=DjQ9AAAAIAAJ&pg=PA271,https://en.wikipedia.org/wiki/Nanpeng_Islands,https://zh.wikipedia.org/wiki/%E5%8D%97%E6%BE%8E%E5%88%97%E5%B2%9B,https://loc.gov/resource/g7821rm.gct00058/?sp=9,17,64228,2508,23.2575,117.2877,,Point,Feature
南粵山,Nányuèshān,Southern Yue Mountain,南澳島,Nan'ao Island,,Namoa Island,,Guangdong,island,,,https://books.google.com.hk/books?id=DjQ9AAAAIAAJ&pg=PA271,https://en.wikipedia.org/wiki/Nan%27ao_County,https://zh.wikipedia.org/wiki/%E5%8D%97%E6%BE%B3%E5%8E%BF,https://loc.gov/resource/g7821rm.gct00058/?sp=9,17,63908,1984,23.4333,117.0167,,Point,Feature
大星尖,Dàxīngjiān,Big Star Point,針頭岩,Pedro Blanco,大星簪,Zhenyantou,,Guangdong,island,,,https://books.google.com.hk/books?id=DjQ9AAAAIAAJ&pg=PA271,,https://zh.wikipedia.org/wiki/%E9%92%88%E5%A4%B4%E5%B2%A9,https://loc.gov/resource/g7821rm.gct00058/?sp=9,17,63847,2475,22.3500,115.2500,,Point,Feature
蒲胎山,Pútāishān,Floating Platform Island,蒲台島,Po Toi Island,,,,Hong Kong,island,,,https://books.google.com.hk/books?id=DjQ9AAAAIAAJ&pg=PA271,https://en.wikipedia.org/wiki/Po_Toi,https://zh.wikipedia.org/wiki/%E8%92%B2%E5%8F%B0,https://loc.gov/resource/g7821rm.gct00058/?sp=9,17,63507,2260,22.1691,114.2634,,Point,Feature
官富寨,Guānfùzhài,Official Wealth Stronghold,南頭,"Nantou, Shanzhen",,,,Guangdong,town,,,https://books.google.com.hk/books?id=DjQ9AAAAIAAJ&pg=PA271,https://en.wikipedia.org/wiki/Nantou_(historic_town),https://zh.wikipedia.org/wiki/%E5%8D%97%E5%A4%B4_(%E6%B7%B1%E5%9C%B3),https://loc.gov/resource/g7821rm.gct00058/?sp=9,17,63251,1046,22.5505,113.9116,,Point,Feature
佛堂門,Fótángmén,Buddhist Temple Gate,佛堂門,Fat Tong Mun,,,,Hong Kong,island,,,https://books.google.com.hk/books?id=DjQ9AAAAIAAJ&pg=PA271,https://en.wikipedia.org/wiki/Fat_Tong_Mun,https://zh.wikipedia.org/wiki/%E4%BD%9B%E5%A0%82%E9%96%80,https://loc.gov/resource/g7821rm.gct00058/?sp=9,17,63139,1880,22.2597,114.2969,,Point,Feature
大奚山,Dàxīshān,Big What Island,大嶼山,Lantau Island,,,Hong Kong Island [Mills 271],Hong Kong,island,,,,https://en.wikipedia.org/wiki/Lantau_Island,https://zh.wikipedia.org/wiki/%E5%A4%A7%E5%B6%BC%E5%B1%B1,https://loc.gov/resource/g7821rm.gct00058/?sp=9,17,62935,1373,22.2706,113.9528,,Point,Feature
東姜山,Dōngjiāngshān,Eastern Ginger Island,擔杆島,Dangan Island,,,,Guangdong,island,,,https://books.google.com.hk/books?id=DjQ9AAAAIAAJ&pg=PA271,https://en.wikipedia.org/wiki/Wanshan_Archipelago,https://zh.wikipedia.org/wiki/%E6%93%94%E6%A1%BF%E5%88%97%E5%B3%B6,https://loc.gov/resource/g7821rm.gct00058/?sp=9,17,62877,2392,22.0417,114.2801,,Point,Feature
翁鞋山,Wēngxiéshān,Old-Man Shoes Island,二洲島,Erzhou Island, ,Er Chou Island,,Guangdong,island,,,https://books.google.com.hk/books?id=DjQ9AAAAIAAJ&pg=PA271,,https://baike.baidu.com/item/%E4%BA%8C%E6%B4%B2%E5%B2%9B,https://loc.gov/resource/g7821rm.gct00058/?sp=9,17,62630,2206,22.0035,114.1950,,Point,Feature
泠汀山,Língtīngshān,Splashing Sandbank Island,外伶仃島,Wailingding Island,,,,Guangdong,island,,,https://books.google.com.hk/books?id=DjQ9AAAAIAAJ&pg=PA271,,https://baike.baidu.com/item/%E5%A4%96%E4%BC%B6%E4%BB%83%E5%B2%9B,https://loc.gov/resource/g7821rm.gct00058/?sp=9,17,62618,1814,22.0997,114.0402,,Point,Feature
小奚山,Xiǎoxīshān,Small What Island,大嶼山的一部分,part of Lantau Island,,,,Hong Kong?,island,,,https://books.google.com.hk/books?id=DjQ9AAAAIAAJ&pg=PA271,https://en.wikipedia.org/wiki/Lantau_Island,https://zh.wikipedia.org/wiki/%E5%A4%A7%E5%B6%BC%E5%B1%B1,https://loc.gov/resource/g7821rm.gct00058/?sp=9,17,62369,1538,22.2278,113.9918,,Point,Feature
東莞所,Dōngguǎnsuǒ,Eastern Reeds Battalion,東莞市,Dongguan City,,,,Guangdong,town,,,https://books.google.com.hk/books?id=DjQ9AAAAIAAJ&pg=PA271,https://en.wikipedia.org/wiki/Dongguan,https://zh.wikipedia.org/wiki/%E4%B8%9C%E8%8E%9E,https://loc.gov/resource/g7821rm.gct00058/?sp=9,17,62348,757,23.0609,113.7522,,Point,Feature
北尖,Běijiān,North Point,北尖島,Beijian Island,,,,Guangdong,island,,,https://books.google.com.hk/books?id=DjQ9AAAAIAAJ&pg=PA271,,https://baike.baidu.com/item/%E5%8C%97%E5%B0%96%E5%B2%9B/7097486,https://loc.gov/resource/g7821rm.gct00058/?sp=9,18,62044,2368,21.8971,114.0512,,Point,Feature
南停山,Nántíngshān,South Stop Mountain,內伶仃島,Neilingding Island,,,,Guangdong,island,,,https://books.google.com.hk/books?id=DjQ9AAAAIAAJ&pg=PA271,https://en.wikipedia.org/wiki/Nei_Lingding_Island,https://zh.wikipedia.org/wiki/%E5%85%A7%E4%BC%B6%E4%BB%83%E5%B3%B6,https://loc.gov/resource/g7821rm.gct00058/?sp=9,18,61932,1683,22.4088,113.8094,,Point,Feature
九星,Jiǔxīng,Nine Stars,九洲岛,Jiuzhou Island,,,,Guangdong,island,,,https://books.google.com.hk/books?id=DjQ9AAAAIAAJ&pg=PA271,https://en.wikipedia.org/wiki/Jiuzhou_Port_(Zhuhai),https://zh.wikipedia.org/wiki/%E4%B9%9D%E6%B4%B2%E6%B8%AF,https://loc.gov/resource/g7821rm.gct00058/?sp=9,18,61776,1090,22.2429,113.6123,,Point,Feature
鹿頸高闌,Lùjǐnggāolán,Deer Neck High Railing,高欄島,Gaolan Island,,,,Guangdong,island,,,https://books.google.com.hk/books?id=DjQ9AAAAIAAJ&pg=PA271,https://en.wikipedia.org/wiki/Gaolan_Island,https://baike.baidu.com/item/%E9%AB%98%E6%A0%8F%E5%B2%9B,https://loc.gov/resource/g7821rm.gct00058/?sp=9,18,61737,2277,21.9192,113.2570,,Point,Feature
上下川山,Shàngxiàchuānshān,Upper and Lower River Islands,上下川島,Chuanshan Archipelago,,Saint John Island,,Guangdong,island,,,https://books.google.com.hk/books?id=DjQ9AAAAIAAJ&pg=PA272,https://en.wikipedia.org/wiki/Chuanshan_Archipelago,https://zh.wikipedia.org/wiki/%E4%B8%8A%E5%B7%9D%E5%B2%9B,https://loc.gov/resource/g7821rm.gct00058/?sp=9,18,61585,2578,21.6937,112.6843,,Point,Feature
石星石塘,Shíxīngshítáng,Stone Star Stone Pond,,Pratas Islands?,,Macclesfield Bank (Paracels)?,,Disputed,island,,,https://books.google.com.hk/books?id=DjQ9AAAAIAAJ&pg=PA271,https://en.wikipedia.org/wiki/Pratas_Islands,https://zh.wikipedia.org/wiki/%E6%9D%B1%E6%B2%99%E7%BE%A4%E5%B3%B6,https://loc.gov/resource/g7821rm.gct00058/?sp=9,18,61554,3734,20.7022,116.7275,,Point,Feature
大金,Dàjīn,Big Gold,大橫琴島,Dahengqin Island,,,,Guangdong,island,,,https://books.google.com.hk/books?id=DjQ9AAAAIAAJ&pg=PA271,https://en.wikipedia.org/wiki/Hengqin,https://baike.baidu.com/item/%E5%A4%A7%E6%A8%AA%E7%90%B4%E5%B2%9B,https://loc.gov/resource/g7821rm.gct00058/?sp=9,18,61500,2016,22.0964,113.5142,,Point,Feature
南海衛,Nánhǎiwèi,Southern Seas Guard,南海區,"Nanhai District, Foshan City",,,,Guangdong,town,,,https://books.google.com.hk/books?id=DjQ9AAAAIAAJ&pg=PA271,https://en.wikipedia.org/wiki/Nanhai_District,https://zh.wikipedia.org/wiki/%E5%8D%97%E6%B5%B7%E5%8C%BA,https://loc.gov/resource/g7821rm.gct00058/?sp=9,18,61495,384,23.0916,112.9645,,Point,Feature
香山所,Xiāngshānsuǒ,Fragrant Mountain Battalion,中山市,Zhongshan City,,,Macau Island [Mills 272],Guangdong,town,,,,https://en.wikipedia.org/wiki/Zhongshan,https://zh.wikipedia.org/wiki/%E4%B8%AD%E5%B1%B1%E5%B8%82,https://loc.gov/resource/g7821rm.gct00058/?sp=9,18,61444,1574,22.5170,113.3925,,Point,Feature
烏豬門,Wūzhūmén,Dark Pig Channel,渡過烏豬洲,channel past Wuzhu Island,,,,Guangdong,water body,,,https://books.google.com.hk/books?id=DjQ9AAAAIAAJ&pg=PA272,"https://en.wikipedia.org/wiki/Taishan,_Guangdong",https://baike.baidu.com/item/%E4%B9%8C%E7%8C%AA%E6%B4%B2/8840865,https://loc.gov/resource/g7821rm.gct00058/?sp=9,18,61279,2908,21.6005,112.8378,,Point,Feature
小金,Xiǎojīn,Small Gold,小橫琴島,"Xiaohengqin Island, Guangdon",,,,Guangdong,island,,,https://books.google.com.hk/books?id=DjQ9AAAAIAAJ&pg=PA272,"https://en.wikipedia.org/wiki/Wanzai,_Small_Hengqin_and_Great_Hengqin_islands",https://baike.baidu.com/item/%E5%B0%8F%E6%A8%AA%E7%90%B4%E5%B2%9B,https://loc.gov/resource/g7821rm.gct00058/?sp=9,18,61196,2110,22.1369,113.5000,,Point,Feature
七洲,Qīzhōu,Seven Islands,七洲列島,Qizhou Liedao,,Taya Islands,,Hainan,island,,,https://books.google.com.hk/books?id=DjQ9AAAAIAAJ&pg=PA272,,https://zh.wikipedia.org/zh-hk/%E4%B8%83%E6%B4%B2%E5%88%97%E5%B2%9B,https://loc.gov/resource/g7821rm.gct00058/?sp=9,18,61091,2565,19.9684,111.2642,,Point,Feature
廣海衛,Guǎnghǎiwèi,Wide Sea Guard,廣海鎮,Guanghai Town,,,,Guangdong,town,,,https://books.google.com.hk/books?id=DjQ9AAAAIAAJ&pg=PA272,https://en.wikipedia.org/wiki/Guanghai,https://zh.wikipedia.org/wiki/%E5%B9%BF%E6%B5%B7%E9%95%87,https://loc.gov/resource/g7821rm.gct00058/?sp=9,18,61023,1747,21.9628,112.7956,,Point,Feature
神電衛,Shéndiànwèi,God-Shocked Guard,电城镇,Diancheng Town,,Tien pai town,,Guangdong,town,,,https://books.google.com.hk/books?id=DjQ9AAAAIAAJ&pg=PA272,https://en.wikipedia.org/wiki/List_of_township-level_divisions_of_Guangdong#Dianbai_County,https://baike.baidu.com/item/%E7%94%B5%E5%9F%8E%E9%95%87,https://loc.gov/resource/g7821rm.gct00058/?sp=9,18,60819,1472,21.5147,111.2977,,Point,Feature
高州,Gāozhōu,High Provice,高州市,Gaozhou City,,,,Guangdong,town,,,https://books.google.com.hk/books?id=DjQ9AAAAIAAJ&pg=PA272,https://en.wikipedia.org/wiki/Gaozhou,https://zh.wikipedia.org/wiki/%E9%AB%98%E5%B7%9E%E5%B8%82,https://loc.gov/resource/g7821rm.gct00058/?sp=9,18,60586,1596,21.9255,110.8505,,Point,Feature
廣東,Guǎngdōng,Wide East,廣州市,Guangzhou City,,,,Guangdong,town,,,https://books.google.com.hk/books?id=DjQ9AAAAIAAJ&pg=PA272,https://en.wikipedia.org/wiki/Guangzhou,https://zh.wikipedia.org/wiki/%E5%B9%BF%E4%B8%9C,https://loc.gov/resource/g7821rm.gct00058/?sp=9,18,60525,768,23.1320,113.2660,,Point,Feature
銅鼓山,Tónggǔshān,Copper Drum Mountain,銅鼓嶺景區,Tongguling Scenic Area,,,,Hainan,mountain,,,https://books.google.com.hk/books?id=DjQ9AAAAIAAJ&pg=PA272,,https://baike.baidu.com/item/%E6%B5%B7%E5%8D%97%E9%93%9C%E9%BC%93%E5%B2%AD%E6%99%AF%E5%8C%BA/23603569,https://loc.gov/resource/g7821rm.gct00058/?sp=9,18,60465,2280,19.6710,111.0157,,Point,Feature
萬生石塘嶼,Wànshēngshítángyǔ,Myriad Life Rock Pond Islets,南沙群島？,Paracel Islands?,,,,Disputed,island,,,https://books.google.com.hk/books?id=DjQ9AAAAIAAJ&pg=PA272,https://en.wikipedia.org/wiki/Paracel_Islands#Xisha_and_other_Chinese_names,https://zh.wikipedia.org/wiki/%E8%A5%BF%E6%B2%99%E7%BE%A4%E5%B2%9B,https://loc.gov/resource/g7821rm.gct00058/?sp=9,18,60256,3968,16.8444,112.3472,,Point,Feature
雷州,Léizhōu,Mine Province,雷州半島,Leizhou Peninsula,,Luichow,,Guangdong,peninsula,,,https://books.google.com.hk/books?id=DjQ9AAAAIAAJ&pg=PA272,https://en.wikipedia.org/wiki/Leizhou_Peninsula,https://zh.wikipedia.org/wiki/%E9%9B%B7%E5%B7%9E%E5%8D%8A%E5%B2%9B,https://loc.gov/resource/g7821rm.gct00058/?sp=9,18,60158,1541,20.9142,110.0964,,Point,Feature
萬州,Wànzhōu,Myriad Province,萬寧市,Wanning City,,,,Hainan,town,,,https://books.google.com.hk/books?id=DjQ9AAAAIAAJ&pg=PA272,https://en.wikipedia.org/wiki/Wanning,https://zh.wikipedia.org/wiki/%E4%B8%87%E5%AE%81%E5%B8%82,https://loc.gov/resource/g7821rm.gct00058/?sp=9,18,60124,2300,18.7972,110.3828,,Point,Feature
獨豬山,Dúzhūshān,Lone Pig Island,大洲島,Dazhou Island,,Tinhosa Island,,Hainan,island,,,https://books.google.com.hk/books?id=DjQ9AAAAIAAJ&pg=PA272,https://en.wikipedia.org/wiki/Dazhou_Island,https://zh.wikipedia.org/wiki/%E5%A4%A7%E6%B4%B2%E5%B2%9B,https://loc.gov/resource/g7821rm.gct00058/?sp=9,18,59896,2720,18.6754,110.4809,,Point,Feature
瓊州府,Qióngzhōufǔ,Jade Province House,瓊山區,Qiongshan District,,,,Hainan,town,,,https://books.google.com.hk/books?id=DjQ9AAAAIAAJ&pg=PA272,https://en.wikipedia.org/wiki/Qiongshan_District,https://zh.wikipedia.org/wiki/%E7%90%BC%E5%B1%B1%E5%8C%BA,https://loc.gov/resource/g7821rm.gct00058/?sp=9,18,59850,2057,20.0024,110.3567,,Point,Feature
石塘,Shítáng,Stone Pond,南沙群島？,Paracel Reefs?,,,,Disputed,island,,,https://books.google.com.hk/books?id=DjQ9AAAAIAAJ&pg=PA272,https://en.wikipedia.org/wiki/Paracel_Islands#Xisha_and_other_Chinese_names,https://zh.wikipedia.org/wiki/%E8%A5%BF%E6%B2%99%E7%BE%A4%E5%B2%9B,https://loc.gov/resource/g7821rm.gct00058/?sp=9,18,59776,3896,15.8000,111.2000,,Point,Feature
廉州,Liánzhōu,Cheap Province,廉州,Former Lian Prefecture,合浦縣,"Hepu, Beihai, and Pubei Counties",,Guangxi,town,,,https://books.google.com.hk/books?id=DjQ9AAAAIAAJ&pg=PA272,https://en.wikipedia.org/wiki/Lian_Prefecture_(Guangxi),https://zh.wikipedia.org/wiki/%E5%BB%89%E5%B7%9E_(%E5%94%90%E6%9C%9D),https://loc.gov/resource/g7821rm.gct00058/?sp=9,18,59653,1545,21.6605,109.2067,,Point,Feature
福州,Fúzhōu,Fortune Province,儋州市,Danzhou City,,Tamchow,,Hainan,town,,,https://books.google.com.hk/books?id=DjQ9AAAAIAAJ&pg=PA273,https://en.wikipedia.org/wiki/Danzhou,https://zh.wikipedia.org/wiki/%E5%84%8B%E5%B7%9E%E5%B8%82,https://loc.gov/resource/g7821rm.gct00058/?sp=10,19,59312,2168,19.7429,109.3495,,Point,Feature
钦州,Qīnzhōu,Royal Province,钦州市,Qinzhou City,,"Yamchow, Yen Chow",,Guangxi,town,,,https://books.google.com.hk/books?id=DjQ9AAAAIAAJ&pg=PA273,https://en.wikipedia.org/wiki/Qinzhou,https://zh.wikipedia.org/wiki/%E9%92%A6%E5%B7%9E%E5%B8%82,https://loc.gov/resource/g7821rm.gct00058/?sp=10,19,59214,600,21.9500,108.6167,,Point,Feature
交趾界,Jiāozhǐjiè,Crossed-Toes Border,越南界,Vietnam Border,,border between Yuan China and the recently-annexed Jiaozhi/Jiaozhou province in modern Vietnam (Mon-cay River),,Vietnam/Guangxi,descriptor,,,https://books.google.com.hk/books?id=DjQ9AAAAIAAJ&pg=PA273,https://en.wikipedia.org/wiki/Fourth_Chinese_domination_of_Vietnam,https://zh.wikipedia.org/wiki/%E4%BA%A4%E8%B6%BE%E6%89%BF%E5%AE%A3%E5%B8%83%E6%94%BF%E4%BD%BF%E5%8F%B8,https://loc.gov/resource/g7821rm.gct00058/?sp=10,19,59061,332,21.8424,108.5339,,Point,Feature
南海黎母大山,Nánhǎilímǔdàshān,South Seas Great Mother Big Mountain,黎母山国家森林公园,Loi voe Mountain,,,,Hainan,mountain,,,https://books.google.com.hk/books?id=DjQ9AAAAIAAJ&pg=PA273,,https://baike.baidu.com/item/%E9%BB%8E%E6%AF%8D%E5%B1%B1%E5%9B%BD%E5%AE%B6%E6%A3%AE%E6%9E%97%E5%85%AC%E5%9B%AD,https://loc.gov/resource/g7821rm.gct00058/?sp=10,19,59026,2043,19.1709,109.7612,,Point,Feature
大靈胡山,Dàlínghúshān,Big Spirit Beard Mountain,靈蔡山,"mountain east of Hue, Vietnam",,,Hui Am Yap Mountain [Mills 274],Vietnam,mountain,,,http://www.world10k.com/blog/?p=1125,,,https://loc.gov/resource/g7821rm.gct00058/?sp=10,19,58632,1262,16.1923,107.9447,,Point,Feature
交趾洋,Jiāozhǐyáng,Crossed-Toes Ocean,北部灣,Gulf of Tonkin,,,,Vietnam/Hainan,water body,,,http://www.world10k.com/blog/?p=1194,https://en.wikipedia.org/wiki/Gulf_of_Tonkin,https://zh.wikipedia.org/wiki/%E5%8C%97%E9%83%A8%E6%B9%BE,https://loc.gov/resource/g7821rm.gct00058/?sp=10,19,58468,3976,19.7500,107.7500,,Point,Feature
外羅山,Wàiluóshān,Outer Net Island,理山島,Cù-Lao Ré Island,岣嶗裡,Lý Sơn,,Vietnam,island,,,http://www.world10k.com/blog/?p=1339,https://en.wikipedia.org/wiki/L%C3%BD_S%C6%A1n_District,https://zh.wikipedia.org/wiki/%E7%90%86%E5%B1%B1%E5%B2%9B,https://loc.gov/resource/g7821rm.gct00058/?sp=10,19,58462,3424,15.3800,109.1200,,Point,Feature
石牌蛟,Shípáijiāo,Stone Plate Dragon,佔婆島,Chàm Islands,劬勞佔,Cù lao Chàm,Rocher Plat [Mills 274],Vietnam,island,,,http://www.world10k.com/blog/?p=1310,https://en.wikipedia.org/wiki/Ch%C3%A0m_Islands,https://zh.wikipedia.org/wiki/%E5%8D%A0%E5%A9%86%E5%B2%9B,https://loc.gov/resource/g7821rm.gct00058/?sp=10,19,57696,3212,15.9607,108.5065,,Point,Feature
玳瑁山,Dàimàoshān,Hawksbill Turtle Mountain,巴朗安角,Batangan Peninsula,,"Mũi Ba Làng An, Cape Batangan",,Vietnam,mountain,,,http://www.world10k.com/blog/?p=1127,https://en.wikipedia.org/wiki/Batangan_Peninsula,,https://loc.gov/resource/g7821rm.gct00058/?sp=10,19,57672,2492,15.2302,108.9273,,Point,Feature
白沙灣,Báishāwān,White Sand Bay,馮新灣,Vũng Mới Bay,,off the coast of Phù Mỹ District,,Vietnam,water body,,,http://www.world10k.com/blog/?p=1330,https://vi.wikipedia.org/wiki/V%C5%A9ng_M%E1%BB%9Bi,https://zh.wikipedia.org/wiki/%E7%AC%A6%E7%BE%8E%E7%B8%A3,https://loc.gov/resource/g7821rm.gct00058/?sp=10,20,56604,2688,14.2229,109.1876,,Point,Feature
青嶼,Qīngyǔ,Green Island,,Buffalo Isle,,Ile Buffle,,Vietnam,island,,,https://books.google.com.hk/books?id=DjQ9AAAAIAAJ&pg=PA274,,,https://loc.gov/resource/g7821rm.gct00058/?sp=10,20,56172,3221,14.1380,109.2944,,Point,Feature
占城國,Zhànchéngguó,[transliteration from Sino-Vietnamese],占婆,Central Vietnam,,"Champa, Chiêm Thành, Vijaya",,Vietnam,area,,"1,2,3,4,5,7",http://www.world10k.com/blog/?p=1395,https://en.wikipedia.org/wiki/Champa,https://zh.wikipedia.org/wiki/%E5%8D%A0%E5%A9%86,https://loc.gov/resource/g7821rm.gct00058/?sp=10,20,56026,1039,13.9287,109.0751,,Point,Feature
筊杯嶼,Xiáobēiyǔ,Rope Cup Island,南義平省歸仁港東面芳梅一帶的海角,Nhơn Hải Peninsula,,,Tally islands: Nui Ong Co & Nui Ong Can [Mills 274],Vietnam,peninsula,,,http://www.world10k.com/blog/?p=1196,"https://vi.wikipedia.org/wiki/Nh%C6%A1n_H%E1%BA%A3i,_Quy_Nh%C6%A1n",,https://loc.gov/resource/g7821rm.gct00058/?sp=10,20,55641,3412,13.777208,109.275294,,Point,Feature
棺墓山,Guānmùshān,Coffin Tomb Mountain,在越南義平省東南岸，位芳梅的北面,Núi Dau Goc Let,,,,Vietnam,mountain,,,http://www.world10k.com/blog/?p=1167,"https://vi.wikipedia.org/wiki/Nh%C6%A1n_H%E1%BA%A3i,_Quy_Nh%C6%A1n",,https://loc.gov/resource/g7821rm.gct00058/?sp=10,20,55535,2996,13.7811,109.2698,,Point,Feature
新州港,Xīnzhōugǎng,New Province Anchorage,归仁港,Qui Nhơn,,"Pulo Cambi, Champa Port",,Vietnam,town,,,http://www.world10k.com/blog/?p=1371,https://en.wikipedia.org/wiki/Qui_Nh%C6%A1n,https://zh.wikipedia.org/wiki/%E6%AD%B8%E4%BB%81%E5%B8%82,https://loc.gov/resource/g7821rm.gct00058/?sp=10,20,55472,1316,13.7856,109.0873,,Point,Feature
洋嶼,Yángyǔ,Foreign Island,,Cù lao Xanh,甘比爾島,"Gambir Island, Poulo Gambir",,Vietnam,island,,,http://www.world10k.com/blog/?p=1380,https://vi.wikipedia.org/wiki/C%C3%B9_lao_Xanh,,https://loc.gov/resource/g7821rm.gct00058/?sp=10,20,54356,3267,13.6200,109.3330,,Point,Feature
雞籠山,Jīlóngshān,Chicken Coop Island,,Núi Mô Cheo,,,,Vietnam,mountain,,,https://books.google.com.hk/books?id=DjQ9AAAAIAAJ&pg=PA274,https://mapcarta.com/15494792,,https://loc.gov/resource/g7821rm.gct00058/?sp=11,21,53765,1594,13.4502,109.1472,,Point,Feature
小灣,Xiǎowān,Little Bay,,Xuân Đài Bay,,Vũng Chào,,Vietnam,water body,,,https://books.google.com.hk/books?id=DjQ9AAAAIAAJ&pg=PA274,https://vi.wikipedia.org/wiki/V%E1%BB%8Bnh_Xu%C3%A2n_%C4%90%C3%A0i,,https://loc.gov/resource/g7821rm.gct00058/?sp=11,21,53646,2348,13.4524,109.2527,,Point,Feature
靈山,Língshān,Spirit Mountain,石碑山,Đá Bia Mountain,,"Thạch Bi Mountain, Ông Mountain",,Vietnam,mountain,,,http://www.world10k.com/blog/?p=1224,https://vi.wikipedia.org/wiki/N%C3%BAi_%C4%90%C3%A1_Bia,https://zh.wikipedia.org/wiki/%E7%9F%B3%E7%A2%91%E5%B1%B1,https://loc.gov/resource/g7821rm.gct00058/?sp=11,21,53367,1852,12.8862,109.3955,,Point,Feature
大灣,Dàwān,Big Bay,,Vân Phong Bay,,,,Vietnam,water body,,,http://www.world10k.com/blog/?p=1119,https://en.wikipedia.org/wiki/V%C3%A2n_Phong_Bay,,https://loc.gov/resource/g7821rm.gct00058/?sp=11,21,52981,1896,12.6655,109.2875,,Point,Feature
羅漢嶼,Luóhànyǔ,Collecting Chinese Island,竹島,Hòn Tre,,Hòn Lớn,,Vietnam,island,,,http://www.world10k.com/blog/?p=1229,https://vi.wikipedia.org/wiki/H%C3%B2n_Tre_(Kh%C3%A1nh_H%C3%B2a),,https://loc.gov/resource/g7821rm.gct00058/?sp=11,21,52640,1362,12.2155,109.2485,,Point,Feature
羅灣頭,Luówāntóu,Collecting Bay Head,巴達蘭角,Mũi Dinh,,"Cape Padaran, Cà Ná Cape",,Vietnam,island,,,http://www.world10k.com/blog/?p=1229,https://vi.wikipedia.org/wiki/M%C5%A9i_Dinh,,https://loc.gov/resource/g7821rm.gct00058/?sp=11,21,52295,1238,11.3632,109.0103,,Point,Feature
東董,Dōngdǒng,Eastern Director,,Hòn Hải,,"Sapate Island, Poulo Sapatu",,Vietnam,island,,,http://www.world10k.com/blog/?p=1141,https://thanhnien.vn/thoi-su/hon-hai-hon-da-khong-lo-giua-bien-1089078.html,,https://loc.gov/resource/g7821rm.gct00058/?sp=11,21,52122,2960,9.9732,109.0843,,Point,Feature
赤坎,Chìkǎn,[transliteration from Vietnamese],在今越南的東南岸，一般認為在格嘎（Ke Ga）角附近。也有的主張指藩切（Phan Thiet）一帶,Point Kê Gà,,Mũi Khe Gà,,Vietnam,peninsula,,,http://www.world10k.com/blog/?p=1112,https://vi.wikipedia.org/wiki/M%C5%A9i_K%C3%AA_G%C3%A0,,https://loc.gov/resource/g7821rm.gct00058/?sp=11,21,51671,1348,10.7003,107.9919,,Point,Feature
西董,Xīdǒng,Western Director,卡特威克群島,Hòn Thầy Bối,,Great Catwick Island,,Vietnam,island,,,http://www.world10k.com/blog/?p=1141,https://books.google.com.hk/books?id=eMQQHutYjzYC&pg=PA10&lpg=PA10&dq=iles+catwick+vietnam&source=bl&ots=WLmKhuwk3k&sig=ACfU3U2Tpi1QTHe4Dxry4zt3joDpXZ0Xqw&hl=en&sa=X&ved=2ahUKEwj1wKD63PHpAhXSad4KHbNZCksQ6AEwBXoECAsQAQ#v=onepage&q=iles%20catwick%20vietnam&f=false,,https://loc.gov/resource/g7821rm.gct00058/?sp=11,21,51569,3070,10.0549,108.8974,,Point,Feature
玳瑁洲,Dàimàozhōu,Hawksbill Turtle Island,富贵县,Phú Quý,縣富貴,Poulo-Cécir-de-Mer,,Vietnam,island,,,http://www.world10k.com/blog/?p=1127,https://en.wikipedia.org/wiki/Ph%C3%BA_Qu%C3%BD,https://zh.wikipedia.org/wiki/%E5%AF%8C%E8%B4%B5%E5%8E%BF,https://loc.gov/resource/g7821rm.gct00058/?sp=11,21,51539,2416,10.5333,108.9500,,Point,Feature
上臘港,Shànglàgǎng,Upon Year-End Anchorage,,Sông Dinh River,,,,Vietnam,water body,,,http://www.world10k.com/blog/?p=1302,https://en.wikipedia.org/wiki/Dinh_River_(B%C3%A0_R%E1%BB%8Ba%E2%80%93V%C5%A9ng_T%C3%A0u),,https://loc.gov/resource/g7821rm.gct00058/?sp=11,21,51323,1296,10.6548,107.7763,,Point,Feature
東蛇籠 (東西蛇羅山),Dōngshélóng (Dōngxīshéluóshān),East & West Snake Cage Islands,單戎獨山,Tanjong Datu,,Tandjong Datu,,Indonesia/Malaysia,peninsula,,,http://www.world10k.com/blog/?p=1143,https://en.wikipedia.org/wiki/Tanjong_Datu,,https://loc.gov/resource/g7821rm.gct00058/?sp=11,22,51116,3352,2.0800,109.6466,,Point,Feature
覆鼎山,Fùdǐngshān,Covered Tripod Mountain,,Nui Khong?,,Nui Voi?,,Vietnam,mountain,,,https://books.google.com.hk/books?id=DjQ9AAAAIAAJ&pg=PA275,,,https://loc.gov/resource/g7821rm.gct00058/?sp=11,22,51085,1303,10.7832,107.7426,,Point,Feature
白礁,Báijiāo,White Reef,,Hòn Trứng,白礁嶼,Rocher Blanc,,Vietnam,island,,,http://www.world10k.com/blog/?p=1087,https://en.wikipedia.org/wiki/C%C3%B4n_%C4%90%E1%BA%A3o#List_of_islands,https://zh.wikipedia.org/wiki/%E6%98%86%E4%BB%91%E7%BE%A4%E5%B2%9B,https://loc.gov/resource/g7821rm.gct00058/?sp=11,22,50816,2439,8.7789,106.7198,,Point,Feature
沙吳皮,Shāwúpí,Sand Shout Skin,默龍東島,Merundung Island,沙胡皮嶼,,,Indonesia,island,,,http://www.world10k.com/blog/?p=1300,https://en.wikipedia.org/wiki/List_of_islands_in_the_South_China_Sea#Islands_of_Borneo,,https://loc.gov/resource/g7821rm.gct00058/?sp=11,22,50812,3214,2.7982,108.5893,,Point,Feature
梹郞洲,Bīnlángzhōu,[transliteration?],拜競島,Hòn Bảy Cạnh,檳榔嶼,"Bãi Cạnh Island, Phú Hòa",,Vietnam,island,,,http://www.world10k.com/blog/?p=1100,https://en.wikipedia.org/wiki/C%C3%B4n_%C4%90%E1%BA%A3o,,https://loc.gov/resource/g7821rm.gct00058/?sp=11,22,50603,2520,8.6667,106.6833,,Point,Feature
崑崙山,Kūnlúnshān,[transliteration from Vietnamese],崑山島,"Côn Lôn, Côn Sơn Island",,"Grande-Condore, Côn Lôn, Kunlun Island, Phú Hải",,Vietnam,island,,,http://www.world10k.com/blog/?p=1213,https://en.wikipedia.org/wiki/C%C3%B4n_S%C6%A1n_Island,https://zh.wikipedia.org/wiki/%E6%98%86%E5%B1%B1%E5%B2%9B,https://loc.gov/resource/g7821rm.gct00058/?sp=11,22,50510,2270,8.6931,106.6094,,Point,Feature
占臘港,Zhànlàgǎng,Khmer Anchorage,,Soài Rạp River,,,,Vietnam,water body,,,http://www.world10k.com/blog/?p=1395,https://en.wikipedia.org/wiki/So%C3%A0i_R%E1%BA%A1p,,https://loc.gov/resource/g7821rm.gct00058/?sp=11,22,50452,473,10.7317,106.7560,,Point,Feature
占浦山,Zhànpǔshān,Cham Shore Mountain,,Nui Chau Vien,,,,Vietnam,mountain,,,http://www.world10k.com/blog/?p=1396,https://mapcarta.com/15516906,,https://loc.gov/resource/g7821rm.gct00058/?sp=11,22,50411,1516,10.4123,107.2409,,Point,Feature
竹嶼,Zhúyǔ,Bamboo Island,巴島,Hòn Bà,,"Petite-Condore, Little Côn Lôn Island, Phú Sơn",,Vietnam,island,,,http://www.world10k.com/blog/?p=1412,https://en.wikipedia.org/wiki/H%C3%B2n_B%C3%A0,,https://loc.gov/resource/g7821rm.gct00058/?sp=11,22,50290,2515,8.6489,106.5565,,Point,Feature
八開港,Bākāigǎng,[transliteration of Vaico] Anchorage,汛苦河,Vàm Cỏ River,,Vaico River,,Vietnam,water body,,,http://www.world10k.com/blog/?p=1078,https://en.wikipedia.org/wiki/V%C3%A0m_C%E1%BB%8F,,https://loc.gov/resource/g7821rm.gct00058/?sp=11,22,50232,675,10.4861,106.7194,,Point,Feature
銅鼓山,Tónggǔshān,Copper Drum Mountain,,Mount Asuansang,,,,Indonesia,mountain,,,http://www.world10k.com/blog/?p=1333,https://sv.linkfang.org/wiki/Gunung_Asuansang,,https://loc.gov/resource/g7821rm.gct00058/?sp=11,22,50132,3503,1.8222,109.4844,,Point,Feature
大橫,Dàhéng,Big Traverse,土珠島,Thổ Chu Island,,"đảo Thổ Châu, Poulo Panjang, Pulo Panjang",,Vietnam,island,,,http://www.world10k.com/blog/?p=1120,https://en.wikipedia.org/wiki/Th%E1%BB%95_Chu_Island,https://zh.wikipedia.org/wiki/%E5%9C%9F%E7%8F%A0%E5%B3%B6,https://loc.gov/resource/g7821rm.gct00058/?sp=11,22,50108,2571,9.3000,103.4833,,Point,Feature
佛山,Fúshān,Buddha Mountain,頭頓,Vũng Tàu,城庯淎艚,"Cap Saint-Jacques, Cap Xanh Giac",,Vietnam,peninsula,,,http://www.world10k.com/blog/?p=1154,https://en.wikipedia.org/wiki/V%C5%A9ng_T%C3%A0u,https://zh.wikipedia.org/wiki/%E9%A0%AD%E9%A0%93%E5%B8%82,https://loc.gov/resource/g7821rm.gct00058/?sp=11,22,50066,1478,10.3645,107.0676,,Point,Feature
占臘國,Zhànlàguó,[transliteration from Khmer],真臘,Cambodia & Southern Vietnam,,"Chenla, Khmer Empire",,Vietnam,area,,,http://www.world10k.com/blog/?p=1395,https://en.wikipedia.org/wiki/Chenla,https://zh.wikipedia.org/wiki/%E7%9C%9F%E8%85%8A,https://loc.gov/resource/g7821rm.gct00058/?sp=11,22,49861,346,13.4125,103.8667,,Point,Feature
小橫,Xiǎohéng,Small Traverse,威島,Koh Poulo Wai,,Wai Islands,,Cambodia,island,,,http://www.world10k.com/blog/?p=1363,https://en.wikipedia.org/wiki/Koh_Poulo_Wai,https://zh.wikipedia.org/wiki/%E5%A8%81%E5%B2%9B,https://loc.gov/resource/g7821rm.gct00058/?sp=11,22,49830,2423,9.9167,102.9000,,Point,Feature
真嶼,Zhēnyǔ,True (Obi) Island,薯島,Hòn Khoai,奧比島、快島,"Obi Island, Pulo Ubi",,Vietnam,island,,,http://www.world10k.com/blog/?p=1402,https://en.wikipedia.org/wiki/Hon_Khoai,,https://loc.gov/resource/g7821rm.gct00058/?sp=11,22,49766,2102,8.4333,104.8333,,Point,Feature
小崑崙,Xiǎokūnlún,Small [transliteration from Vietnamese],大小蛋島,Trứng Lớn and Trứng Nhỏ Islands,兩兄弟,"Les Frères, The Brothers, Anh and Em Islands",,Vietnam,island,,,http://www.world10k.com/blog/?p=1364,https://en.wikipedia.org/wiki/C%C3%B4n_%C4%90%E1%BA%A3o#List_of_islands,https://zh.wikipedia.org/wiki/%E6%98%86%E4%BB%91%E7%BE%A4%E5%B2%9B,https://loc.gov/resource/g7821rm.gct00058/?sp=11,22,49595,2335,8.5934,106.1215,,Point,Feature
假嶼,Jiǎyǔ,False (Obi) Island,塞奧比島,Hòn Chuối,,"False Obi Island, Fausse Obi",,Vietnam,island,,,http://www.world10k.com/blog/?p=1188,https://vi.wikipedia.org/wiki/H%C3%B2n_Chu%E1%BB%91i,,https://loc.gov/resource/g7821rm.gct00058/?sp=11,22,49582,1970,8.9483,104.5255,,Point,Feature
萬年嶼,Wànniányǔ,Ten Thousand Year Island,坤甸,Pontianak,,,,Indonesia,town,,,http://www.world10k.com/blog/?p=1340,https://en.wikipedia.org/wiki/Pontianak,https://zh.wikipedia.org/wiki/%E5%9D%A4%E7%94%B8,https://loc.gov/resource/g7821rm.gct00058/?sp=11,22,49536,3177,-0.024768,109.341456,,Point,Feature
竹里木,Zhúlǐmù,[derived from full name in Khmer],金边,Phnom Penh,,"Krong Chaktomuk Serimongkul, Chidor-muc",,Cambodia,town,,,http://www.world10k.com/blog/?p=1412,https://en.wikipedia.org/wiki/Phnom_Penh,https://zh.wikipedia.org/wiki/%E9%87%91%E8%BE%B9,https://loc.gov/resource/g7821rm.gct00058/?sp=11,22,49456,1128,11.5694,104.9211,,Point,Feature
象坎,Xiàngkǎn,Elephant Ridge,閣昌島,Koh Chang,,,Phu Quoc [Mills 276],Thailand,island,,,http://www.world10k.com/blog/?p=1361,https://en.wikipedia.org/wiki/Ko_Chang_District,https://zh.wikipedia.org/wiki/%E9%98%81%E6%98%8C%E5%B2%9B,https://loc.gov/resource/g7821rm.gct00058/?sp=11,22,49426,2114,12.1036,102.3519,,Point,Feature
奶門,Nǎimén,Milky Channel,薩梅散島,Samae San Island,,,Koh Rong Sam Lem Island [Mills 276],Thailand,island,,,http://www.world10k.com/blog/?p=1263,https://en.wikipedia.org/wiki/Samae_San_Island,,https://loc.gov/resource/g7821rm.gct00058/?sp=11,22,49196,2094,12.5881,100.9464,,Point,Feature
小士闌,Xiǎoshìlán,Small Scholar Railing,庫特島,Ko Tao Mo,,Kut Island,,Thailand,island,,,http://www.world10k.com/blog/?p=1363,https://en.wikipedia.org/wiki/Sattahip_Bay,,https://loc.gov/resource/g7821rm.gct00058/?sp=11,22,48962,2098,12.6382,100.8700,,Point,Feature
占賁港,Zhànbìgǎng,[transliteration from Thai],庄他武里府,Chantaburi,,,,Thailand,town,,,http://www.world10k.com/blog/?p=1396,https://en.wikipedia.org/wiki/Chanthaburi,https://zh.wikipedia.org/wiki/%E5%BA%84%E4%BB%96%E6%AD%A6%E9%87%8C,https://loc.gov/resource/g7821rm.gct00058/?sp=11,22,48925,1310,12.5210,102.0717,,Point,Feature
大士闌,Dàshìlán,Big Scholar Railing,古蘭島,Ko Khram,,,Ko Chang [Mills 276],Thailand,island,,,http://www.world10k.com/blog/?p=1120,https://en.wikipedia.org/wiki/Ko_Khram,,https://loc.gov/resource/g7821rm.gct00058/?sp=11,22,48684,2098,12.7000,100.7833,,Point,Feature
角圓山,Jiǎoyuánshān,Pointed Round Mountain,恰毛山,Khao Chamao,,,Khao Sattahip Hill [Mills 276],Thailand,mountain,,,http://www.world10k.com/blog/?p=1199,https://en.wikipedia.org/wiki/Khao_Chamao%E2%80%93Khao_Wong_National_Park,,https://loc.gov/resource/g7821rm.gct00058/?sp=11,22,48550,1484,12.9500,101.7400,,Point,Feature
暹羅國,Xiānluóguó,[transliteration of Siam and Lahu Kingdoms],阿瑜陀耶,Ayutthaya,,Siam,,Thailand,area,,"2,3,6,7",http://www.world10k.com/blog/?p=1360,https://en.wikipedia.org/wiki/Ayutthaya_Kingdom,https://zh.wikipedia.org/wiki/%E9%98%BF%E7%91%9C%E9%99%80%E8%80%B6%E5%8F%A4%E5%9F%8E,https://loc.gov/resource/g7821rm.gct00058/?sp=12,23,48161,1508,14.3504,100.5569,,Point,Feature
竹嶼,Zhúyǔ,Bamboo Island,閣西昌島,Ko Sichang,竹篙嶼,,near Maenam Phet Buri [Mills 276],Thailand,island,,,http://www.world10k.com/blog/?p=1412,https://en.wikipedia.org/wiki/Ko_Sichang_District,https://zh.wikipedia.org/wiki/%E9%96%A3%E8%A5%BF%E6%98%8C%E5%B3%B6,https://loc.gov/resource/g7821rm.gct00058/?sp=12,23,48161,2098,13.1529,100.8088,,,
十二子山,Shíèrzishān,Twelve Boys Islands,帕內邦岸,Pulau Penebangan,,,Burung Kepulauan [Mills 280],Indonesia,island,,,http://www.world10k.com/blog/?p=1309,,,https://loc.gov/resource/g7821rm.gct00058/?sp=12,23,47456,2818,-1.2165,109.2438,,Point,Feature
假里馬達 (假里馬答),Jiǎlǐmǎdá,[transliteration from Bahasa],卡里馬塔群島,Karimata Islands,,,,Indonesia,island,,,http://www.world10k.com/blog/?p=1188,https://en.wikipedia.org/wiki/Karimata_Islands,,https://loc.gov/resource/g7821rm.gct00058/?sp=12,23,47057,2654,-1.6167,108.8833,,Point,Feature
筆架山,Bǐjiàshān,Pen Rack Mountain,沙姆洛越山,Khao Sam Roi Yot,,or Ko Khram?,,Thailand,mountain,,,http://www.world10k.com/blog/?p=1097,https://en.wikipedia.org/wiki/Khao_Sam_Roi_Yot_National_Park,,https://loc.gov/resource/g7821rm.gct00058/?sp=12,23,46843,556,12.1825,99.9483,,Point,Feature
黎頭山,Lítóushān,Dark Head Island,小珊瑚島,Ko Lan,,,Ploughshare Mountain - Khao Takiap headland [Mills 276],Thailand,island,,,http://www.world10k.com/blog/?p=1219,https://en.wikipedia.org/wiki/Ko_Lan,https://zh.wikipedia.org/wiki/%E5%B0%8F%E7%8F%8A%E7%91%9A%E5%B3%B6,https://loc.gov/resource/g7821rm.gct00058/?sp=12,23,46791,978,12.9158,100.7775,,Point,Feature
犀角山,Xījiǎoshān,Rhino Horn Mountain,,Laem Phak Bia,,Chulai Point,Ko Satakut [Mills 276],Thailand,peninsula,,,http://www.world10k.com/blog/?p=1357,https://en.wikipedia.org/wiki/Laem_Phak_Bia,,https://loc.gov/resource/g7821rm.gct00058/?sp=12,23,46701,1440,13.0589,100.1047,,Point,Feature
交闌山 (交欄山),Jiāolánshān,Crossed Fence Island,格蘭島,Gelam Island,,,,Indonesia,island,,,http://www.world10k.com/blog/?p=1195,https://books.google.com.hk/books?id=_OhNAQAAMAAJ&pg=PA250,,https://loc.gov/resource/g7821rm.gct00058/?sp=12,23,46353,3557,-2.8833,110.1667,,Point,Feature
出蘇木,chūsūmù,produces sappanwood,,,,,,Thailand,descriptor,,,,https://en.wikipedia.org/wiki/Biancaea_sappan,https://zh.wikipedia.org/wiki/%E8%8B%8F%E6%9C%A8_(%E6%A4%8D%E7%89%A9),https://loc.gov/resource/g7821rm.gct00058/?sp=12,23,46317,338,,,,Point,Feature
赤坎,Chìkǎn,Red Ridge,,Khao Lom Muak,,Ko Lam,,Thailand,island,,,http://www.world10k.com/blog/?p=1112,https://en.wikipedia.org/wiki/Prachuap_Bay,,https://loc.gov/resource/g7821rm.gct00058/?sp=12,24,45435,838,11.7858,99.8165,,Point,Feature
吉利悶,Jílìmèn,[transliteration from Bahasa],卡里摩爪哇群島,"Karimunjawa, Karimun",,,,Indonesia,island,,,http://www.world10k.com/blog/?p=1179,https://en.wikipedia.org/wiki/Karimunjawa,,https://loc.gov/resource/g7821rm.gct00058/?sp=12,24,45259,2498,-5.8192,110.4590,,Point,Feature
馬鞍山,Mǎ'ānshān,Horse Saddle Island,閣道島,Ko Tao,,,,Thailand,island,,,http://www.world10k.com/blog/?p=1235,https://en.wikipedia.org/wiki/Ko_Tao,https://zh.wikipedia.org/wiki/%E9%96%A3%E9%81%93%E5%B3%B6,https://loc.gov/resource/g7821rm.gct00058/?sp=12,24,45239,1354,10.0900,99.8381,,Point,Feature
佛山,Fúshān,Buddha Island,,Ko Wiang,,Iang Island,,Thailand,island,,,http://www.world10k.com/blog/?p=1154,https://thaiislandtimes.substack.com/p/ko-wiang-a-rugged-karst-island-in,,https://loc.gov/resource/g7821rm.gct00058/?sp=12,24,44925,886,10.8479,99.4812,,Point,Feature
石班洲,Shíbānzhōu,Stone Class Province,閣帕岸島,Ko Pha-ngan,,,,Thailand,island,,,http://www.world10k.com/blog/?p=1310,https://en.wikipedia.org/wiki/Ko_Pha-ngan,https://zh.wikipedia.org/wiki/%E9%96%A3%E5%B8%95%E5%B2%B8%E5%B3%B6,https://loc.gov/resource/g7821rm.gct00058/?sp=12,24,44784,1456,9.7500,100.0333,,Point,Feature
海門山,Hǎiménshān,Sea Gate Island,閣沙梅島,Ko Samui,,,,Thailand,island,,,http://www.world10k.com/blog/?p=1169,https://en.wikipedia.org/wiki/Ko_Samui,https://zh.wikipedia.org/wiki/%E9%98%81%E6%B2%99%E6%A2%85%E5%B2%9B_(%E7%B4%A0%E5%8F%BB%E4%BB%96%E5%B0%BC%E5%BA%9C),https://loc.gov/resource/g7821rm.gct00058/?sp=12,24,44172,1240,9.5000,100.0000,,Point,Feature
爪哇國,Zhǎowāguó,[transliteration from Bahasa],爪哇島,Java Island,,,,Indonesia,island,,"1,2,3,4,5,7",https://books.google.com.hk/books?id=DjQ9AAAAIAAJ&pg=PA281,https://en.wikipedia.org/wiki/Java,https://zh.wikipedia.org/wiki/%E7%88%AA%E5%93%87%E5%B2%9B,https://loc.gov/resource/g7821rm.gct00058/?sp=12,24,43717,3509,-7.247198,112.738706,,Point,Feature
玳瑁嶼,Dàimàoyǔ,Hawksbill Turtle Island,克拉島,Ko Kra,,,,Thailand,island,,,http://www.world10k.com/blog/?p=1127,https://en.wikipedia.org/wiki/Ko_Kra,,https://loc.gov/resource/g7821rm.gct00058/?sp=12,24,43448,1068,8.3969,100.7369,,Point,Feature
眾不淺,Zhòngbùqiǎn,Many Not Shallows,,Laem Talumphuk,,,Hlaem Kolam [Mills 277],Thailand,descriptor,,,http://www.world10k.com/blog/?p=1407,https://en.wikipedia.org/wiki/Pak_Phanang_District,,https://loc.gov/resource/g7821rm.gct00058/?sp=12,24,43336,648,8.5179,100.1373,,Point,Feature
大小姨山,Dàxiǎoyíshān,Big and Small Aunt Islands,桑吉昂島,Sangiang,,,,Indonesia,island,,,http://www.world10k.com/blog/?p=1124,https://en.wikipedia.org/wiki/Sangiang,https://zh.wikipedia.org/wiki/%E6%A1%91%E5%90%89%E6%98%82%E5%B3%B6,https://loc.gov/resource/g7821rm.gct00058/?sp=13,25,42926,3668,-5.9558,105.8550,,Point,Feature
石礁,Shíjiāo,rocky reef,在今印度尼西亞的勿里洞（Billiton）島東面，今地不詳,east of Billiton,,,,Indonesia,descriptor,,,http://www.world10k.com/blog/?p=1310,,,https://loc.gov/resource/g7821rm.gct00058/?sp=13,25,42888,2311,,,,Point,Feature
孫姑那,Sūngūnà,[transliteration from Thai],宋卡,Songkhla,,,,Thailand,town,,,http://www.world10k.com/blog/?p=1323,https://en.wikipedia.org/wiki/Songkhla,https://zh.wikipedia.org/wiki/%E5%AE%8B%E5%8D%A1%E5%BA%9CC,https://loc.gov/resource/g7821rm.gct00058/?sp=13,25,42680,576,7.2061,100.5967,,Point,Feature
貓鼠嶼,Māoshǔyǔ,Cat & Mouse Island,,Ko Maew & Ko Nu,,Cat & Mouse Island,,Thailand,island,,,http://www.world10k.com/blog/?p=1246,https://en.wikipedia.org/wiki/Songkhla_Province#Geography,https://zh.wikipedia.org/wiki/%E5%AE%8B%E5%8D%A1%E5%BA%9C,https://loc.gov/resource/g7821rm.gct00058/?sp=13,25,42584,1110,7.2363,100.5966,,Point,Feature
麻里束 (麻里東),Málǐshù (Málǐdōng),[transliteration from Bahasa],勿里洞,Belitung Island,,Billiton Island,,Indonesia,island,,,http://www.world10k.com/blog/?p=1239,https://en.wikipedia.org/wiki/Belitung,https://zh.wikipedia.org/wiki/%E5%8B%BF%E9%87%8C%E6%B4%9E%E5%B2%9B,https://loc.gov/resource/g7821rm.gct00058/?sp=13,25,42552,2091,-2.8333,107.9167,,Point,Feature
麻剌哇嶼,Máláwayǔ,Spicy Obstinant Wow Island,克巴都島,Pulau Kebatu,,,,Indonesia,island,,,http://www.world10k.com/blog/?p=1241,https://sv.wikipedia.org/wiki/Pulau_Kebatu,,https://loc.gov/resource/g7821rm.gct00058/?sp=13,25,42524,2569,-3.8000,108.0667,,Point,Feature
硫黃嶼,Liúhuángyǔ,Sulphur Island,喀拉喀托火山,Krakatoa,,,,Indonesia,island,,,http://www.world10k.com/blog/?p=1225,https://en.wikipedia.org/wiki/Krakatoa,https://zh.wikipedia.org/wiki/%E5%96%80%E6%8B%89%E5%96%80%E6%89%98%E7%81%AB%E5%B1%B1,https://loc.gov/resource/g7821rm.gct00058/?sp=13,25,42481,3664,-6.1458,105.4401,,Point,Feature
狼西加,Lángxījiā,[transliteration from Tamil],狼牙脩,Langkasuka Kingdom,北大年,Pattani,,Thailand,town,,,http://www.world10k.com/blog/?p=1216,https://en.wikipedia.org/wiki/Langkasuka,https://zh.wikipedia.org/wiki/%E7%8B%BC%E7%89%99%E8%84%A9,https://loc.gov/resource/g7821rm.gct00058/?sp=13,25,42324,620,6.7603,101.2933,,Point,Feature
昆下池港,Kūnxiàchígǎng,Lower Stream of Kun Anchorage,北大年,Pattani River,,,,Thailand,water body,,,http://www.world10k.com/blog/?p=1213,https://en.wikipedia.org/wiki/Pattani_River,,https://loc.gov/resource/g7821rm.gct00058/?sp=13,25,42211,477,6.9002,101.2469,,Point,Feature
砂淺出水,shāqiǎnchūshuǐ,above-water sand shoals,門達瑙島,Mendanau Island,,Pulau Mendanau,,Indonesia,island,,,https://books.google.com.hk/books?id=DjQ9AAAAIAAJ&pg=PA284,https://en.wikipedia.org/wiki/Mendanau_Island,,https://loc.gov/resource/g7821rm.gct00058/?sp=13,25,42132,2214,-2.8767,107.4207,,Point,Feature
担嶼,Dānyǔ,Burden Island,在今印度尼西亞巽他（Sunda）海峽，一說即蘇門答臘島東南岸外的Sumur島。,Sumur Islands,,,,Indonesia,island,,,http://www.world10k.com/blog/?p=1130,https://en.wikipedia.org/wiki/Sunda_Strait,https://zh.wikipedia.org/wiki/%E5%B7%BD%E4%BB%96%E6%B5%B7%E5%B3%A1,https://loc.gov/resource/g7821rm.gct00058/?sp=13,25,42090,3564,-5.8714,105.7748,,Point,Feature
出降真,chūjiàngzhēn,produces lakawood,,,,,,Thailand,descriptor,,,,https://en.wikipedia.org/wiki/Acronychia_pedunculata,https://zh-yue.wikipedia.org/wiki/%E9%99%8D%E7%9C%9F%E9%A6%99,https://loc.gov/resource/g7821rm.gct00058/?sp=13,25,42073,502,,,,Point,Feature
烟墩嶼 (煙燉嶼),Yāndūnyǔ (Yāndùnyǔ),Smoky Stewed Island,,Pulau Susu Dara,,,,Malaysia,island,,,http://www.world10k.com/blog/?p=1379,https://ceb.wikipedia.org/wiki/Pulau_Susu_Dara,,https://loc.gov/resource/g7821rm.gct00058/?sp=13,25,42066,1380,5.9593,102.6639,,Point,Feature
馬鞍山,Mǎ'ānshān,Horse Saddle Island,塞爾通島,Pulau Sertung,,Verlaten Island,,Indonesia,island,,,http://www.world10k.com/blog/?p=1235,https://en.wikipedia.org/wiki/Verlaten_Island,,https://loc.gov/resource/g7821rm.gct00058/?sp=13,25,41969,4004,-6.0905,105.3811,,Point,Feature
昆下池,Kūnxiàchí,Lower Stream of Kun,,Pattani Bay,,,,Thailand,water body,,,http://www.world10k.com/blog/?p=1213,"https://ceb.wikipedia.org/wiki/Laem_Pho_(punta_sa_Thayland,_Changwat_Pattani)",,https://loc.gov/resource/g7821rm.gct00058/?sp=13,25,41823,1066,6.9082,101.2841,,Point,Feature
鬼嶼,Guǐyǔ,Ghost Island,塞蘭島,Pulau Seram,,"Gezusters, The Sisters",,Indonesia,island,,,http://www.world10k.com/blog/?p=1168,https://sv.wikipedia.org/wiki/Seram_(%C3%B6ar),,https://loc.gov/resource/g7821rm.gct00058/?sp=13,25,41806,3370,-5.7410,105.8096,,Point,Feature
攬邦港,Lǎnbānggǎng,[transliteration] + anchorage,楠榜省,Lampung Bay,,,,Indonesia,water body,,,http://www.world10k.com/blog/?p=1215,https://en.wikipedia.org/wiki/Lampung,https://zh.wikipedia.org/wiki/%E6%A5%A0%E6%A6%9C%E7%9C%81,https://loc.gov/resource/g7821rm.gct00058/?sp=13,25,41802,3858,-5.6667,105.3000,,,
西港,Xīgǎng,[transliteration from Thai],賽武里縣,Sai Buri,,,,Thailand,town,,,http://www.world10k.com/blog/?p=1355,https://en.wikipedia.org/wiki/Sai_Buri_District,https://zh.wikipedia.org/wiki/%E8%B5%9B%E6%AD%A6%E9%87%8C%E5%8E%BF,https://loc.gov/resource/g7821rm.gct00058/?sp=13,25,41752,776,6.7014,101.6175,,Point,Feature
三角嶼,Sānjiǎoyǔ,Triangle Island,大停泊島,Greater Perhentian Island,,Pulau Perhentian Besar,,Malaysia,island,,,http://www.world10k.com/blog/?p=12977,https://en.wikipedia.org/wiki/Perhentian_Islands,https://zh.wikipedia.org/wiki/%E5%81%9C%E6%B3%8A%E7%BE%A4%E5%B2%9B,https://loc.gov/resource/g7821rm.gct00058/?sp=13,25,41617,1423,5.9033,102.7555,,Point,Feature
竹嶼,Zhúyǔ,Bamboo Island,,Pulau Mundu,,,,Indonesia,island,,,http://www.world10k.com/blog/?p=1412,https://sv.wikipedia.org/wiki/Pulau_Mundu,,https://loc.gov/resource/g7821rm.gct00058/?sp=13,25,41616,3198,-5.6800,105.8378,,Point,Feature
涼傘礁,Liángsǎnjiāo,Parasol Reef,,Dapoer Island,,,,Indonesia,island,,,http://www.world10k.com/blog/?p=1222,https://sv.wikipedia.org/wiki/Pulau_Labun,,https://loc.gov/resource/g7821rm.gct00058/?sp=13,25,41574,2548,-3.1315,106.5152,,Point,Feature
三麥嶼,Sānmàiyǔ,Three Wheat Island,,Pulau Maspari,,,,Indonesia,island,,,http://www.world10k.com/blog/?p=1297,https://sv.wikipedia.org/wiki/Pulau_Maspari,,https://loc.gov/resource/g7821rm.gct00058/?sp=13,25,41538,2860,-3.2167,106.2167,,Point,Feature
出降香,Chūjiàngxiāng,produces lakawood,,,,,,Malaysia,descriptor,,,,https://en.wikipedia.org/wiki/Acronychia_pedunculata,https://zh-yue.wikipedia.org/wiki/%E9%99%8D%E7%9C%9F%E9%A6%99,https://loc.gov/resource/g7821rm.gct00058/?sp=13,25,41535,720,,,,Point,Feature
古闌丹港,Gǔlándāngǎng,[transliteration from Bahasa],吉蘭丹河,Sungei Kelantan Estuary,,,,Malaysia,water body,,4,http://www.world10k.com/blog/?p=1166,https://en.wikipedia.org/wiki/Kelantan_River,https://zh.wikipedia.org/wiki/%E5%90%89%E5%85%B0%E4%B8%B9%E6%B2%B3,https://loc.gov/resource/g7821rm.gct00058/?sp=13,25,41433,339,6.1340,102.2325,,Point,Feature
石山,Shíshān,Stone Island,浪中島,Lang Tengah Island,,,,Malaysia,island,,,http://www.world10k.com/blog/?p=1310,https://en.wikipedia.org/wiki/Lang_Tengah_Island,https://zh.wikipedia.org/wiki/%E6%B5%AA%E4%B8%AD%E5%B2%9B,https://loc.gov/resource/g7821rm.gct00058/?sp=13,25,41297,1010,5.7833,102.8833,,Point,Feature
羊嶼,Yángyǔ,Sheep Island,熱浪島,Redang Island,,,,Malaysia,island,,,http://www.world10k.com/blog/?p=1380,https://en.wikipedia.org/wiki/Redang_Island,https://zh.wikipedia.org/wiki/%E7%83%AD%E6%B5%AA%E5%B2%9B,https://loc.gov/resource/g7821rm.gct00058/?sp=13,25,41291,1422,5.7750,103.0150,,Point,Feature
都魯把汪 (都魯把旺),Dōulǔbǎwāng (Dōulǔbǎwàng),[transliteration from Bahasa],圖朗巴旺,Tulang Bawang,,,,Indonesia,town,,,http://www.world10k.com/blog/?p=1144,https://en.wikipedia.org/wiki/Tulang_Bawang_Regency,,https://loc.gov/resource/g7821rm.gct00058/?sp=13,25,41274,3634,-4.4052,105.8442,,Point,Feature
龜嶼,Guīyǔ,Turtle Island,,Tanjung Tua,,,,Indonesia,peninsula,,,http://www.world10k.com/blog/?p=1168,"https://id.wikipedia.org/wiki/Bakauheni,_Bakauheni,_Lampung_Selatan",,https://loc.gov/resource/g7821rm.gct00058/?sp=13,25,41258,3068,-5.9063,105.7172,,Point,Feature
角員,Jiǎoyuán,Corner Member,比農島,Bidong Island,,Pulau Bidong Laut,,Malaysia,island,,,http://www.world10k.com/blog/?p=1199,https://en.wikipedia.org/wiki/Bidong_Island,https://zh.wikipedia.org/wiki/%E6%AF%94%E5%86%9C%E5%B2%9B,https://loc.gov/resource/g7821rm.gct00058/?sp=13,25,40933,1384,5.6193,103.0639,,Point,Feature
狹門,Xiámén,Narrow Gate,邦加海峽,Bangka Strait,,,,Indonesia,water body,,,http://www.world10k.com/blog/?p=1359,https://en.wikipedia.org/wiki/Bangka_Strait,https://zh.wikipedia.org/wiki/%E9%82%A6%E5%8A%A0%E6%B5%B7%E5%B3%BD,https://loc.gov/resource/g7821rm.gct00058/?sp=13,25,40697,3491,-2.6600,105.8284,,Point,Feature
吉貝嶼,Jíbèiyǔ,[transliteration from Bahasa],木棉島,Pulau Kapak,綿花嶼、士員嶼,Pulau Karah,,Malaysia,island,,,http://www.world10k.com/blog/?p=1178,https://ceb.m.wikipedia.org/wiki/Pulau_Karah,,https://loc.gov/resource/g7821rm.gct00058/?sp=13,25,40675,1050,5.5977,103.0645,,Point,Feature
丁加下路 (丁家廬),Dīngjiāxiàlù (Dīngjiālú),[transliteration from Bahasa],瓜拉登嘉樓,Kuala Trengganu,,,,Malaysia,town,,,http://www.world10k.com/blog/?p=1137,https://en.wikipedia.org/wiki/Kuala_Terengganu,https://zh.wikipedia.org/wiki/%E7%93%9C%E6%8B%89%E7%99%BB%E5%98%89%E6%A5%BC,https://loc.gov/resource/g7821rm.gct00058/?sp=13,25,40653,688,5.3292,103.1361,,Point,Feature
斗嶼,Dòuyǔ,Fight Island,天鹅岛,Tenggol Island,,,,Malaysia,island,,,http://www.world10k.com/blog/?p=1144,https://en.wikipedia.org/wiki/Tenggol_Island,https://zh.wikipedia.org/wiki/%E5%A4%A9%E9%B9%85%E5%B2%9B,https://loc.gov/resource/g7821rm.gct00058/?sp=13,26,40162,1136,4.8000,103.6833,,Point,Feature
椰子塘,Yēzitáng,Coconut Pond,恩加諾島,Enggano Island,,,,Indonesia,island,,,http://www.world10k.com/blog/?p=1382,https://en.wikipedia.org/wiki/Enggano_Island,,https://loc.gov/resource/g7821rm.gct00058/?sp=13,26,39891,3806,-5.4013,102.2451,,Point,Feature
東港,Dōnggǎng,East Harbor,,Air Saleh River,,,,Indonesia,water body,,,https://books.google.com.hk/books?id=DjQ9AAAAIAAJ&pg=PA284,https://ceb.wikipedia.org/wiki/Air_Saleh_(suba_sa_Sumatera_Selatan),,https://loc.gov/resource/g7821rm.gct00058/?sp=13,26,39637,3107,-2.3794,105.1082,,Point,Feature
彭杭港 (彭亨港),Pénghánggǎng (Pénghēnggǎng),[transliteration],彭亨河,Sungei Pahang Estuary,,,,Malaysia,water body,,"4,5",http://www.world10k.com/blog/?p=12777,https://en.wikipedia.org/wiki/Kuala_Pahang,,https://loc.gov/resource/g7821rm.gct00058/?sp=13,26,39409,330,3.5333,103.4667,,Point,Feature
打金山,Dǎjīnshān,Strike Gold Mountain,帕塔山,Mount Patah,,,,Indonesia,mountain,,,http://www.world10k.com/blog/?p=1116,https://en.wikipedia.org/wiki/Mount_Patah,https://zh.wikipedia.org/wiki/%E5%B8%95%E5%A1%94%E5%B1%B1,https://loc.gov/resource/g7821rm.gct00058/?sp=13,26,39377,3648,-4.2700,103.3000,,Point,Feature
舊港,Jiùgǎng,Old Port,,Musi River (center channel),,Palembang River,,Indonesia,water body,,7,http://www.world10k.com/blog/?p=12066,https://en.wikipedia.org/wiki/Musi_River_(Indonesia),https://zh.wikipedia.org/wiki/%E7%A9%86%E8%A5%BF%E6%B2%B3,https://loc.gov/resource/g7821rm.gct00058/?sp=13,26,39317,3116,-2.4068,104.9261,,Point,Feature
苧麻山,Zhùmáshān,Ramie Island,刁曼岛,Tioman Island,,,,Malaysia,island,,,http://www.world10k.com/blog/?p=1412,https://en.wikipedia.org/wiki/Tioman_Island,,https://loc.gov/resource/g7821rm.gct00058/?sp=13,26,39283,1222,2.8167,104.1833,,Point,Feature
石礁,Shíjiāo,rocky reef,,Pulau Siribuat,,,,Malaysia,island,,,http://www.world10k.com/blog/?p=1310,https://ceb.wikipedia.org/wiki/Pulau_Seri_Buat,,https://loc.gov/resource/g7821rm.gct00058/?sp=13,26,39242,908,2.6890,103.9121,,Point,Feature
彭加山,Péngjiāshān,[transliteration],邦加島,Bangka Island,,Menumbing Mountain,,Indonesia,island,,,http://www.world10k.com/blog/?p=1277,https://en.wikipedia.org/wiki/Bangka_Island,https://zh.wikipedia.org/wiki/%E9%82%A6%E5%8A%A0%E5%B3%B6,https://loc.gov/resource/g7821rm.gct00058/?sp=13,26,39073,2212,-2.2500,106.0000,,Point,Feature
西港,Xīgǎng,West Harbor,,Air Banjuasin River,,,,Indonesia,water body,,,https://books.google.com.hk/books?id=DjQ9AAAAIAAJ&pg=PA284,https://en.wikipedia.org/wiki/Banyuasin_River,,https://loc.gov/resource/g7821rm.gct00058/?sp=13,26,39059,3156,-2.2761,104.8213,,Point,Feature
官嶼,Guānyǔ,Official Island,貝哈拉島,Berhala Island,,,,Indonesia,island,,,http://www.world10k.com/blog/?p=1167,https://en.wikipedia.org/wiki/Berhala_Island_(Java_Sea),,https://loc.gov/resource/g7821rm.gct00058/?sp=13,26,38636,2407,-0.8591,104.4060,,Point,Feature
東竹山,Dōngzhúshān,East Bamboo Island,澳島,Pulau Aur East Mountain,,,,Malaysia,island,,,http://www.world10k.com/blog/?p=1141,https://en.wikipedia.org/wiki/Aur_Island,https://zh.wikipedia.org/wiki/%E6%BE%B3%E5%B2%9B,https://loc.gov/resource/g7821rm.gct00058/?sp=13,26,38382,1212,2.4380,104.5300,,Point,Feature
犀角山,Xījiǎoshān,Rhino Horn Mountain,登波火山,Mount Dempo,,,,Indonesia,mountain,,,http://www.world10k.com/blog/?p=1357,https://en.wikipedia.org/wiki/Mount_Dempo,https://zh.wikipedia.org/wiki/%E7%99%BB%E6%B3%A2%E7%81%AB%E5%B1%B1,https://loc.gov/resource/g7821rm.gct00058/?sp=13,26,38382,3464,-4.0164,103.1279,,Point,Feature
西竹山,Xīzhúshān,West Bamboo Island,澳島,Pulau Aur West Mountain,,,,Malaysia,island,,,http://www.world10k.com/blog/?p=1356,https://en.wikipedia.org/wiki/Aur_Island,https://zh.wikipedia.org/wiki/%E6%BE%B3%E5%B2%9B,https://loc.gov/resource/g7821rm.gct00058/?sp=13,26,38350,908,2.4580,104.5164,,Point,Feature
龍牙山,Lóngyáshān,[transliteration],林加島,Lingga Island,,,,Indonesia,island,,,http://www.world10k.com/blog/?p=1226,https://en.wikipedia.org/wiki/Lingga_Island,https://zh.wikipedia.org/wiki/%E6%9E%97%E5%8A%A0%E5%B3%B6,https://loc.gov/resource/g7821rm.gct00058/?sp=13,26,38208,1730,-0.1667,104.6500,,Point,Feature
百必港 (占必港),Bǎibìgǎng (Zhànbìgǎng),[transliteration of Jambi],佔碑,Batang Hari River,佔卑,river leading to Jambi,,Indonesia,water body,,,http://www.world10k.com/blog/?p=1089,https://en.wikipedia.org/wiki/Batang_Hari_River,https://zh.wikipedia.org/wiki/%E5%8D%A0%E7%A2%91,https://loc.gov/resource/g7821rm.gct00058/?sp=13,26,38010,2996,-1.0606,104.2017,,Point,Feature
舊港,Jiùgǎng,Old Port,巨港,Palembang,,,,Indonesia,town,,"1,4,5,7",http://www.world10k.com/blog/?p=1206,https://en.wikipedia.org/wiki/Palembang,,https://loc.gov/resource/g7821rm.gct00058/?sp=13,26,37965,3318,-2.9861,104.7556,,Point,Feature
三佛嶼,Sānfúyǔ,Three Buddhas Island,,Alang Tiga Islets,,,,Indonesia,island,,,http://www.world10k.com/blog/?p=1297,https://books.google.com.hk/books?id=YklO-nRk-1AC&pg=PA275&lpg=PA275&dq=Alang+Tiga+Islets&source=bl&ots=i3ozTbFnvn&sig=ACfU3U0rvmEem-MW3u2zTUknqtjVFR_SOg&hl=en&sa=X&ved=2ahUKEwi2xZzG0dTrAhUp-2EKHX2KBYkQ6AEwDHoECAEQAQ#v=onepage&q=Alang%20Tiga%20Islets&f=false,,https://loc.gov/resource/g7821rm.gct00058/?sp=13,26,37954,2296,-0.5162,104.0373,,Point,Feature
毘宋嶼,Písòngyǔ,[transliteration],默加,Pulau Mega,,,,Indonesia,island,,,http://www.world10k.com/blog/?p=1279,https://id.wikipedia.org/wiki/Pulau_Mega,,https://loc.gov/resource/g7821rm.gct00058/?sp=13,26,37946,3736,-4.0017,101.0430,,Point,Feature
將軍帽,Jiāngjūnmào,General's Hat,丁宜島,Tinggi Island,,,,Malaysia,island,,,http://www.world10k.com/blog/?p=1190,https://en.wikipedia.org/wiki/Tinggi_Island,,https://loc.gov/resource/g7821rm.gct00058/?sp=13,26,37941,1166,2.3000,104.1167,,Point,Feature
鼇魚山 (鰲魚嶼),Áoyúshān (Áoyúyǔ),Turtle Fish Island,,Buaja Island,,,,Indonesia,island,,,http://www.world10k.com/blog/?p=1066,"https://id.wikipedia.org/wiki/Batu_Belubang,_Pangkalan_Baru,_Bangka_Tengah",,https://loc.gov/resource/g7821rm.gct00058/?sp=14,27,37469,1996,0.1778,104.2035,,Point,Feature
白礁,Báijiāo,White Reef,白礁,Pedra Branca,,,,Singapore,island,,,http://www.world10k.com/blog/?p=1087,"https://en.wikipedia.org/wiki/Pedra_Branca,_Singapore",https://zh.wikipedia.org/wiki/%E7%99%BD%E7%A4%81,https://loc.gov/resource/g7821rm.gct00058/?sp=14,27,37453,1504,1.3303,104.4058,,Point,Feature
橫山,Héngshān,Horizontal Mountain,葛林芝火山,Mount Kerinci,,,,Indonesia,mountain,,,http://www.world10k.com/blog/?p=1171,https://en.wikipedia.org/wiki/Mount_Kerinci,https://zh.wikipedia.org/wiki/%E8%91%9B%E6%9E%97%E8%8A%9D%E7%81%AB%E5%B1%B1,https://loc.gov/resource/g7821rm.gct00058/?sp=14,27,37306,3376,-1.6967,101.2656,,Point,Feature
荅答那溪嶼,Dādánàxīyǔ,Answer that Stream Island,柔佛,Johor,,,,Malaysia,area,,,http://www.world10k.com/blog/?p=1115,https://en.wikipedia.org/wiki/Johor,https://zh.wikipedia.org/wiki/%E6%9F%94%E4%BD%9B,https://loc.gov/resource/g7821rm.gct00058/?sp=14,27,37165,492,1.9908,103.4828,,Point,Feature
官嶼,Guānyǔ,Official Island,德光島,Pulau Tekong,,,,Singapore,island,,,http://www.world10k.com/blog/?p=1167,https://en.wikipedia.org/wiki/Pulau_Tekong,https://zh.wikipedia.org/wiki/%E5%BE%B7%E5%85%89%E5%B3%B6,https://loc.gov/resource/g7821rm.gct00058/?sp=14,27,36997,1016,1.4064,104.0568,,Point,Feature
馬鞍山,Mǎ'ānshān,Horse Saddle Island,民丹島,Bintan Island,,,,Indonesia,island,,,http://www.world10k.com/blog/?p=1235,https://en.wikipedia.org/wiki/Bintan_Island,https://zh.wikipedia.org/wiki/%E6%B0%91%E4%B8%B9%E5%B3%B6,https://loc.gov/resource/g7821rm.gct00058/?sp=14,27,36947,1654,1.0767,104.5003,,Point,Feature
龍牙門,Lóngyámén,Dragon Tooth Channel,新加坡海峽,Singapore Strait,,,,Indonesia,water body,,,http://www.world10k.com/blog/?p=1226,https://en.wikipedia.org/wiki/Singapore_Strait,https://zh.wikipedia.org/wiki/%E6%96%B0%E5%8A%A0%E5%9D%A1%E6%B5%B7%E5%B3%A1,https://loc.gov/resource/g7821rm.gct00058/?sp=14,27,36826,1292,1.2012,103.8671,,Point,Feature
琶撓嶼,Pánáoyǔ,Lute Scratch Island,,Pulau Anak Sambu,,Anak Samlo,,Indonesia,island,,,http://www.world10k.com/blog/?p=1274,https://en.wikipedia.org/wiki/Sambu_Island,https://zh.wikipedia.org/wiki/%E6%A1%91%E5%B8%83%E5%B2%9B,https://loc.gov/resource/g7821rm.gct00058/?sp=14,27,36421,1844,1.1702,103.8910,,Point,Feature
東吉山,Dōngjíshān,Eastern Luck Island,廖內群島省,Pulau Durai,,,,Indonesia,island,,,http://www.world10k.com/blog/?p=1142,https://en.wikipedia.org/wiki/Riau_Islands,https://zh.wikipedia.org/wiki/%E5%BB%96%E5%86%85%E7%BE%A4%E5%B2%9B%E7%9C%81,https://loc.gov/resource/g7821rm.gct00058/?sp=14,27,36419,2371,0.5167,103.6000,,Point,Feature
琵琶嶼,Pípáyǔ,Lute Island,聖約翰島,Saint John's Island,棋樟山，上川島,Pulau Sakijang Bendera,,Singapore,island,,,http://www.world10k.com/blog/?p=1279,https://en.wikipedia.org/wiki/Saint_John%27s_Island,https://zh.wikipedia.org/wiki/%E8%81%96%E7%B4%84%E7%BF%B0%E5%B3%B6,https://loc.gov/resource/g7821rm.gct00058/?sp=14,27,36359,1232,1.2197,103.8478,,Point,Feature
淡馬錫,Dànmǎxī,[transliteration from Malay],新加坡,Singapore,,Temasek,,Singapore,town,,,http://www.world10k.com/blog/?p=1131,https://en.wikipedia.org/wiki/Singapore,https://zh.wikipedia.org/wiki/%E6%96%B0%E5%8A%A0%E5%9D%A1,https://loc.gov/resource/g7821rm.gct00058/?sp=14,27,36138,584,1.3000,103.8000,,Point,Feature
牛屎礁,Niúshǐjiāo,Ox Dung Reef,,Buffalo Rock,,,,Indonesia,island,,,http://www.world10k.com/blog/?p=1272,,,https://loc.gov/resource/g7821rm.gct00058/?sp=14,27,35858,1764,1.1571,103.8139,,Point,Feature
甘巴門,Gānbāmén,[transliteration],昆杜門,Kundur Channel,,Kampar Strait,,Indonesia,water body,,,http://www.world10k.com/blog/?p=1160,,,https://loc.gov/resource/g7821rm.gct00058/?sp=14,27,35754,2484,0.6584,103.3292,,Point,Feature
赤角山,Chìjiǎoshān,Red Point Mountain,塔拉克毛火山,Mount Talakmau,,,,Indonesia,mountain,,,http://www.world10k.com/blog/?p=1112,https://en.wikipedia.org/wiki/Mount_Talakmau,,https://loc.gov/resource/g7821rm.gct00058/?sp=14,27,35702,3672,0.0792,99.9833,,Point,Feature
涼傘嶼,Liángsǎnyǔ,Parasol Island,,Pulau Labun,,Labon,,Indonesia,island,,,http://www.world10k.com/blog/?p=1222,https://sv.wikipedia.org/wiki/Pulau_Labun,,https://loc.gov/resource/g7821rm.gct00058/?sp=14,27,35606,1947,0.6667,104.2243,,Point,Feature
長腰嶼,Zhǎngyāoyǔ,Long Waist Island,沙都姆島,Pulau Satumu,柯奈島,Coney Islet,,Singapore,island,,,http://www.world10k.com/blog/?p=1110,https://en.wikipedia.org/wiki/Pulau_Satumu,https://baike.baidu.com/item/%E6%B2%99%E9%83%BD%E6%9C%A8%E5%B2%9B,https://loc.gov/resource/g7821rm.gct00058/?sp=14,27,35588,1315,1.1599,103.7407,,Point,Feature
甘巴港,Gānbāgǎng,Kampar Anchorage,,Kampar River,,,,Indonesia,water body,,,http://www.world10k.com/blog/?p=1160,https://en.wikipedia.org/wiki/Kampar_River,,https://loc.gov/resource/g7821rm.gct00058/?sp=14,27,35539,3348,0.4690,103.1450,,Point,Feature
沙糖淺,shātángqiǎn,shallow sand,,,,,,Indonesia,descriptor,,,http://www.world10k.com/blog/?p=1300,,,https://loc.gov/resource/g7821rm.gct00058/?sp=14,27,35265,1956,,,,Point,Feature
仁義礁,Rényìjiāo,Humane Justice Reef,昆杜島,Kundur Island,,Pulau Kundur,,Indonesia,island,,,http://www.world10k.com/blog/?p=1289,https://en.wikipedia.org/wiki/Kundur_Island,,https://loc.gov/resource/g7821rm.gct00058/?sp=14,27,35237,2683,0.7580,103.4212,,Point,Feature
牛昆礁 (牛屎礁),Niúkūnjiāo (Niúshǐjiāo),Ox Dung Reef,門多耳島,Mendol Island,,,,Indonesia,island,,,http://www.world10k.com/blog/?p=1272,https://en.wikipedia.org/wiki/Mendol_Island,,https://loc.gov/resource/g7821rm.gct00058/?sp=14,27,35101,3026,0.6049,103.2157,,Point,Feature
白沙,Báishā,white sand,巴蓋群島,Pagai Islands,,,,Indonesia,island,,,http://www.world10k.com/blog/?p=1086,https://en.wikipedia.org/wiki/South_Pagai,https://zh.wikipedia.org/wiki/%E5%8D%97%E5%B7%B4%E8%93%8B%E5%B3%B6,https://loc.gov/resource/g7821rm.gct00058/?sp=14,28,34570,3868,-3.0000,100.3333,,Point,Feature
吉利門,Jílìmén,[transliteration],卡里摩群島,Great Karimun,,,,Indonesia,island,,,http://www.world10k.com/blog/?p=1179,https://en.wikipedia.org/wiki/Great_Karimun,,https://loc.gov/resource/g7821rm.gct00058/?sp=14,28,34514,2378,1.0500,103.3667,,Point,Feature
鬼嶼,Guǐyǔ,Ghost Island,朗桑島,Rangsang Island,,,,Indonesia,island,,,http://www.world10k.com/blog/?p=1168,"https://id.wikipedia.org/wiki/Rangsang,_Kepulauan_Meranti",,https://loc.gov/resource/g7821rm.gct00058/?sp=14,28,34254,2774,1.0167,102.9333,,Point,Feature
毘宋嶼,Písòngyǔ,[transliteration],香蕉屿,Pulau Pisang,,,,Malaysia,island,,,http://www.world10k.com/blog/?p=1279,https://en.wikipedia.org/wiki/Banana_Island_(Johor),https://zh.wikipedia.org/wiki/%E9%A6%99%E8%95%89%E5%B1%BF,https://loc.gov/resource/g7821rm.gct00058/?sp=14,28,34209,1616,1.4675,103.2547,,Point,Feature
射箭山,Shèjiànshān,Archery Mountain,巴株巴辖,Mount Banang,,,,Malaysia,mountain,,,http://www.world10k.com/blog/?p=1306,https://ceb.wikipedia.org/wiki/Bukit_Banang,,https://loc.gov/resource/g7821rm.gct00058/?sp=14,28,34061,1076,1.8136,102.9403,,Point,Feature
平洲,Píngzhōu,Flat Province,兄弟島,The Brothers,,"Bersaudara, Pulau Iyu Besar & Pulau Iyu Kecil",,Indonesia,island,,,http://www.world10k.com/blog/?p=1281,https://en.wikipedia.org/wiki/Great_Iyu_Island,,https://loc.gov/resource/g7821rm.gct00058/?sp=14,28,33994,2375,1.1892,103.3489,,Point,Feature
沙糖礁,shātángjiān,Sand Sugar Reef,西比路島,Siberut,西北路島,,,Indonesia,island,,,http://www.world10k.com/blog/?p=1300,https://en.wikipedia.org/wiki/Siberut,https://zh.wikipedia.org/wiki/%E8%A5%BF%E6%AF%94%E8%B7%AF%E5%B3%B6,https://loc.gov/resource/g7821rm.gct00058/?sp=14,28,33435,4040,-1.3833,98.9000,,Point,Feature
滿剌加,Mǎnlájiā,[transliteration],馬六甲,Malacca,,,,Malaysia,town,,"1,2,3,4,5,6,7",http://www.world10k.com/blog/?p=1244,https://en.wikipedia.org/wiki/Malacca,https://zh.wikipedia.org/wiki/%E9%A9%AC%E5%85%AD%E7%94%B2,https://loc.gov/resource/g7821rm.gct00058/?sp=14,28,33053,827,2.2000,102.2500,,Point,Feature
九嶼,Jiǔyǔ,Nine Islands,巴都群岛,Batu Islands,,,,Indonesia,island,,,http://www.world10k.com/blog/?p=1205,https://en.wikipedia.org/wiki/Batu_Islands,https://zh.wikipedia.org/wiki/%E5%B7%B4%E9%83%BD%E7%BE%A4%E5%B2%9B,https://loc.gov/resource/g7821rm.gct00058/?sp=14,28,32829,3890,-0.13,98.67,,Point,Feature
官廠,Guānchǎng,Government Mill (trading base),,at Malacca,,,,Malaysia,building,,,https://books.google.com.hk/books?id=DjQ9AAAAIAAJ&pg=PA285,,https://zh.wikipedia.org/wiki/%E9%A9%AC%E5%85%AD%E7%94%B2%E8%8B%8F%E4%B8%B9%E7%8E%8B%E6%9C%9D#%E9%A9%AC%E5%85%AD%E7%94%B2%E4%B8%8E%E6%98%8E%E6%9C%9D%E5%85%B3%E7%B3%BB,https://loc.gov/resource/g7821rm.gct00058/?sp=14,28,32571,624,2.2000,102.2500,,Point,Feature
雙嶼,Shuāngyǔ,Double Islands,潘當島,The Brothers,,Pandang and Salahnama Islands,,Indonesia,island,,,http://www.world10k.com/blog/?p=1313,https://en.wikipedia.org/wiki/Pandang_Island,https://zh.wikipedia.org/wiki/%E6%BD%98%E7%95%B6%E5%B3%B6,https://loc.gov/resource/g7821rm.gct00058/?sp=15,29,32128,4012,-0.2845,98.4839,,Point,Feature
假五嶼,Jiǎwǔyǔ,False Five Island,,Tanjung Tuan,,Cape Rachado,,Malaysia,peninsula,,,http://www.world10k.com/blog/?p=1188,https://en.wikipedia.org/wiki/Tanjung_Tuan,,https://loc.gov/resource/g7821rm.gct00058/?sp=15,29,32007,1284,2.4070,101.8521,,Point,Feature
金嶼,Jīnyǔ,Gold Island,皮尼島,Pini Island,,,,Indonesia,island,,,http://www.world10k.com/blog/?p=1203,https://en.wikipedia.org/wiki/Batu_Islands,https://zh.wikipedia.org/wiki/%E5%B7%B4%E9%83%BD%E7%BE%A4%E5%B2%9B,https://loc.gov/resource/g7821rm.gct00058/?sp=15,29,31384,3954,0.1241,98.6803,,Point,Feature
雞骨嶼,Jīgǔyǔ,Chicken Bone Island,,Kepulauan Arwah,,"Aruah (Aroa, Aru) Islands",,Indonesia,island,,,http://www.world10k.com/blog/?p=1175,https://id.wikipedia.org/wiki/Kepulauan_Arwah,,https://loc.gov/resource/g7821rm.gct00058/?sp=15,29,30915,2284,2.8805,100.5666,,Point,Feature
沉礁,chénjiāo,sunken reef,,Hinako Islands,,,,Indonesia,island,,,http://www.world10k.com/blog/?p=1111,https://en.wikipedia.org/wiki/Hinako_Islands,,https://loc.gov/resource/g7821rm.gct00058/?sp=15,29,30809,4046,0.8333,97.3333,,Point,Feature
綿花嶼,Miánhuāyǔ,Cotton Island,蚶山,Bukit Jugra,,Paracellar,,Malaysia,mountain,,,http://www.world10k.com/blog/?p=1255,https://en.wikipedia.org/wiki/Jugra,,https://loc.gov/resource/g7821rm.gct00058/?sp=15,29,30726,1108,2.8358,101.4175,,Point,Feature
吉令港,Jílìnggǎng,[transliteration from Malay],巴生港,Klang Estuary,,,,Malaysia,town,,,http://www.world10k.com/blog/?p=1178,https://en.wikipedia.org/wiki/Port_Klang,https://zh.wikipedia.org/wiki/%E5%B7%B4%E7%94%9F%E6%B8%AF,https://loc.gov/resource/g7821rm.gct00058/?sp=15,29,30462,711,3.0455,101.4474,,Point,Feature
綿花淺,Miánhuāqiǎn,Cotton Shoal,,Amazon Maru Shoal,,,,Malaysia,descriptor,,,http://www.world10k.com/blog/?p=1255,https://www.sea-seek.com/Amazon-Maru-Shoal-Selangor-Malaysia-,,https://loc.gov/resource/g7821rm.gct00058/?sp=15,29,30404,1434,2.8500,101.0000,,Point,Feature
龍牙加兒港 (龍牙加皃港),Lóngyájiāmàogǎng,Dragon Tooth Plus Child Anchorage,實武牙,Sibolga,,Siboga,,Indonesia,water body,,,http://www.world10k.com/blog/?p=1226,https://en.wikipedia.org/wiki/Sibolga,https://zh.wikipedia.org/wiki/%E5%AE%9E%E6%AD%A6%E7%89%99,https://loc.gov/resource/g7821rm.gct00058/?sp=15,29,30311,3314,1.7243,98.7886,,Point,Feature
龍牙加兒山 (龍牙加皃山),Lóngyájiāmàoshān,Dragon Tooth Plus Child Mountain,,Tombak Rantjang,,,,Indonesia,mountain,,,http://www.world10k.com/blog/?p=2250,https://en.wikipedia.org/wiki/Minangkabau_people,https://zh.wikipedia.org/wiki/%E7%B1%B3%E5%8D%97%E4%BD%B3%E4%BF%9D%E4%BA%BA,https://loc.gov/resource/g7821rm.gct00058/?sp=15,29,30125,2780,1.7023,98.8018,,Point,Feature
南傅山,Nánfùshān,South Teacher Island,尼亞斯島,Pulau Nias,,,,Indonesia,island,,,http://www.world10k.com/blog/?p=1268,https://en.wikipedia.org/wiki/Nias,https://zh.wikipedia.org/wiki/%E5%B0%BC%E4%BA%9E%E6%96%AF%E5%B3%B6,https://loc.gov/resource/g7821rm.gct00058/?sp=15,29,30081,3978,1.1000,97.5333,,Point,Feature
吉那大山,Jínàdàshān,[transliteration of Cherakah],,Cherakah Mountain,,False Parcellar,,Malaysia,mountain,,,http://www.world10k.com/blog/?p=1180,https://ms.wikipedia.org/wiki/Kampung_Bukit_Cherakah,,https://loc.gov/resource/g7821rm.gct00058/?sp=15,29,30065,344,3.2308,101.3939,,Point,Feature
涼傘嶼,Liángsǎnyǔ,Parasol Island,图昂库岛,Pulau Tuangku,,,,Indonesia,island,,,http://www.world10k.com/blog/?p=1222,https://en.wikipedia.org/wiki/Tuangku,https://zh.wikipedia.org/wiki/%E5%B7%B4%E5%B0%BC%E4%BA%9E%E7%BE%A4%E5%B3%B6,https://loc.gov/resource/g7821rm.gct00058/?sp=15,30,29453,3845,2.1728,97.2663,,Point,Feature
九洲,Jiǔzhōu,Nine Provinces,森美蘭,Negeri Sembilan,,,,Malaysia,island,,2,http://www.world10k.com/blog/?p=2257,https://en.wikipedia.org/wiki/Negeri_Sembilan,https://zh.wikipedia.org/wiki/%E6%A3%AE%E7%BE%8E%E5%85%B0,https://loc.gov/resource/g7821rm.gct00058/?sp=15,30,29116,1138,2.5315,101.8227,,Point,Feature
雙嶼,Shuāngyǔ,Double Island,萨拉赫纳马岛,Pandang and Salahnama Islands,,,,Indonesia,island,,,http://www.world10k.com/blog/?p=1313,https://en.wikipedia.org/wiki/Pandang_Island,https://zh.wikipedia.org/wiki/%E6%BD%98%E7%95%B6%E5%B3%B6,https://loc.gov/resource/g7821rm.gct00058/?sp=15,30,29007,1757,3.3875,99.7370,,Point,Feature
班卒,Bānzú,[transliteration],巴鲁斯,Barus,,,,Indonesia,town,,,http://www.world10k.com/blog/?p=1091,https://en.wikipedia.org/wiki/Barus,,https://loc.gov/resource/g7821rm.gct00058/?sp=15,30,28869,2802,2.0122,98.3995,,Point,Feature
陳公嶼,Chéngōngyǔ,Old Public Island,賈臘島,Pulau Jarak,,,,Malaysia,island,,,http://www.world10k.com/blog/?p=1111,https://ceb.wikipedia.org/wiki/Pulau_Jarak,,https://loc.gov/resource/g7821rm.gct00058/?sp=15,30,28627,1334,3.9778,100.0996,,Point,Feature
檳榔嶼,Bīnlángyǔ,[transliteration],檳島,Penang,,,,Malaysia,island,,,http://www.world10k.com/blog/?p=1100,https://en.wikipedia.org/wiki/Penang_Island,,https://loc.gov/resource/g7821rm.gct00058/?sp=15,30,28393,924,5.4145,100.3292,,Point,Feature
吉達港,Jídágǎng,Kedah Anchorage,梅爾博河,"Merbok River, Kedah",吉陀港,,,Malaysia,water body,,,http://www.world10k.com/blog/?p=1177,https://en.wikipedia.org/wiki/Kedah_Sultanate,https://zh.wikipedia.org/wiki/%E5%90%89%E6%89%93%E8%8B%8F%E4%B8%B9%E7%8E%8B%E6%9C%9D,https://loc.gov/resource/g7821rm.gct00058/?sp=15,30,28157,394,5.6623,100.3835,,Point,Feature
龍牙交椅,Lóngyájiāoyǐ,[transliteration],浮罗交怡,Langkawi,,,,Malaysia,island,,,http://www.world10k.com/blog/?p=1226,https://en.wikipedia.org/wiki/Langkawi,,https://loc.gov/resource/g7821rm.gct00058/?sp=15,30,27925,978,6.3500,99.8000,,Point,Feature
亞路,Yàlù,[transliteration from ancient Javanese],啞魯,Aru Kingdom,,Medan Belawan,,Indonesia,area,,"1,2,4,6,7",http://www.world10k.com/blog/?p=1377,https://en.wikipedia.org/wiki/Aru_Kingdom,,https://loc.gov/resource/g7821rm.gct00058/?sp=15,30,27866,2874,3.7662,98.6793,,Point,Feature
單嶼,Dānyǔ,Single Island,,Pulau Berhala,,,,Indonesia,island,,,http://www.world10k.com/blog/?p=1129,https://en.wikipedia.org/wiki/Berhala_Island_(Malacca_Strait),,https://loc.gov/resource/g7821rm.gct00058/?sp=15,30,27830,1516,3.7742,99.4995,,Point,Feature
石城山,Shíchéngshān,Stone City Island,錫默盧縣,Simeulue,,,,Indonesia,island,,,http://www.world10k.com/blog/?p=1310,https://en.wikipedia.org/wiki/Simeulue,,https://loc.gov/resource/g7821rm.gct00058/?sp=15,30,27699,3639,2.5833,96.0833,,Point,Feature
古力由不洞,Gǔlìyóubudòng,[transliteration],布坦群島,Batong Group,,,,Thailand,island,,,http://www.world10k.com/blog/?p=1166,https://en.wikipedia.org/wiki/Tarutao_National_Park,https://zh.wikipedia.org/wiki/%E8%BE%BE%E9%B2%81%E5%9B%BD%E5%AE%B6%E6%B5%B7%E6%B4%8B%E5%85%AC%E5%9B%AD,https://loc.gov/resource/g7821rm.gct00058/?sp=15,30,27427,772,6.5512,99.2632,,Point,Feature
有人家,Yǒurénjiā,Inhabited,指錫默盧縣？,referring to Simeulue?,,,,Indonesia,descriptor,,,https://books.google.com.hk/books?id=DjQ9AAAAIAAJ&pg=PA282,https://id.wikipedia.org/wiki/Pulau_Raya,,https://loc.gov/resource/g7821rm.gct00058/?sp=15,30,27361,3554,,,,Point,Feature
甘杯港,Gānbēigǎng,[transliteration of Kampei],蘭沙,Kampei Kingdom,,"Kuala Langsa, Pulau Kampei",near Sembilian Island [Mills 285],Indonesia,water body,,,http://www.world10k.com/blog/?p=1160,https://en.wikipedia.org/wiki/Langsa,,https://loc.gov/resource/g7821rm.gct00058/?sp=15,30,27309,2290,4.4859,98.0070,,Point,Feature
獨掛頭山,Dúguàtóushān,[transliteration of Takua Thung],博阿蘭角,"Promthep Cape, Phuket",,"Promphet Cape, Lem Voalan, Laem Phra Chao, Brahma's Cape",,Thailand,peninsula,,,http://www.world10k.com/blog/?p=1145,https://en.wikipedia.org/wiki/Phuket_Province#Geography,https://zh.wikipedia.org/wiki/%E6%99%AE%E5%90%89%E5%BA%9C,https://loc.gov/resource/g7821rm.gct00058/?sp=16,31,26912,652,7.7588,98.3034,,Point,Feature
巴碌頭,Bālùtóu,[transliteration],,Peureulak Sultanate,,East Aceh Regency,,Indonesia,town,,,http://www.world10k.com/blog/?p=1083,https://en.wikipedia.org/wiki/Peureulak_Sultanate,,https://loc.gov/resource/g7821rm.gct00058/?sp=16,31,26804,2528,4.9333,97.7833,,Point,Feature
急水湾,Jíshuǐwān,Rapids Bay,,Meunasah Asan,,"Udjung Djambuaje, Diamond Point, Diamond Head",,Indonesia,peninsula,,,http://www.world10k.com/blog/?p=1181,"https://id.wikipedia.org/wiki/Meunasah_Asan,_Madat,_Aceh_Timur",,https://loc.gov/resource/g7821rm.gct00058/?sp=16,31,26268,2528,5.2488,97.4983,,Point,Feature
蘇門答剌,Sūméndálá,[transliteration],蘇木都剌國,Samudera Pasai Sultanate,,Lhokseumawe,,Indonesia,town,,"1,2,3,4,5,6,7",http://www.world10k.com/blog/?p=1321,https://en.wikipedia.org/wiki/Samudera_Pasai_Sultanate,https://zh.wikipedia.org/wiki/%E8%8B%8F%E6%9C%A8%E9%83%BD%E5%89%8C%E5%9B%BD,https://loc.gov/resource/g7821rm.gct00058/?sp=16,31,25812,2828,5.1320,97.2022,,Point,Feature
答那思里,Dánàsīlǐ,[transliteration],德林达依省,Tanintharyi,,"Myeik, Tenasserim",,Myanmar,area,,,http://www.world10k.com/blog/?p=1115,https://en.wikipedia.org/wiki/Tanintharyi_Region,https://zh.wikipedia.org/wiki/%E5%BE%B7%E6%9E%97%E8%BE%BE%E4%BE%9D%E7%9C%81,https://loc.gov/resource/g7821rm.gct00058/?sp=16,31,25060,396,12.4246,98.6054,,Point,Feature
官廠,guānchǎng,Government Mill (trading base),蘇門答剌附近的未知地點,Unknown location near Samudera,,,,Indonesia,building,,,https://books.google.com.hk/books?id=DjQ9AAAAIAAJ,,,https://loc.gov/resource/g7821rm.gct00058/?sp=16,31,24792,2104,5.181406,97.141529,,Point,Feature
北暹,Běixiān,North Siam,勃劳,Palauk,,,,Myanmar,town,,,http://www.world10k.com/blog/?p=1095,https://en.wikipedia.org/wiki/Palauk,,https://loc.gov/resource/g7821rm.gct00058/?sp=16,32,24170,978,13.2622,98.6314,,Point,Feature
答那思里,Dánàsīlǐ,[transliteration],丹那沙林,Tenasserim Island,,Tanangthayi Kyun,,Myanmar,island,,,http://www.world10k.com/blog/?p=1115,https://en.wikipedia.org/wiki/Tenasserim_Island,https://zh.wikipedia.org/wiki/%E5%BE%B7%E6%9E%97%E8%BE%BE%E4%BE%9D%E7%9C%81,https://loc.gov/resource/g7821rm.gct00058/?sp=16,32,24128,1712,12.5667,97.8500,,Point,Feature
大小花面,Dàxiǎohuāmiàn,Big and Small Tatooed Faces,米拉务,Meulaboh,,,near Rigaih Bay [Mills 282],Indonesia,peninsula,,,http://www.world10k.com/blog/?p=1124,https://en.wikipedia.org/wiki/Meulaboh,https://baike.baidu.com/item/4%C2%B729%E5%8D%B0%E5%BA%A6%E5%B0%BC%E8%A5%BF%E4%BA%9A%E7%B1%B3%E6%8B%89%E5%8A%A1%E5%9C%B0%E9%9C%87,https://loc.gov/resource/g7821rm.gct00058/?sp=16,32,24088,3076,4.1333,96.1167,,Point,Feature
打歪,Dǎwāi,[transliteration],土瓦,Dawei,,Tavoy,,Myanmar,town,,,http://www.world10k.com/blog/?p=1116,https://en.wikipedia.org/wiki/Dawei,https://zh.wikipedia.org/wiki/%E5%9C%9F%E7%93%A6,https://loc.gov/resource/g7821rm.gct00058/?sp=16,32,23606,436,13.0659,98.1423,,Point,Feature
打歪嶼,Dǎwāiyǔ,[transliteration],默利岛,Mali Kyun,,Tavoy Island,,Myanmar,island,,,http://www.world10k.com/blog/?p=1116,https://en.wikipedia.org/wiki/Mali_Kyun,https://baike.baidu.com/item/%E9%BB%98%E5%88%A9%E5%B2%9B,https://loc.gov/resource/g7821rm.gct00058/?sp=16,32,23446,1650,13.1000,98.2667,,Point,Feature
屏風山,Píngfēngshān,Windscreen Mountain,塞拉瓦阿甘火山,Seulawaih Agam,,,,Indonesia,mountain,,,http://www.world10k.com/blog/?p=1281,https://en.wikipedia.org/wiki/Seulawah_Agam,https://zh.wikipedia.org/wiki/%E5%A1%9E%E6%8B%89%E7%93%A6%E9%98%BF%E7%94%98%E7%81%AB%E5%B1%B1,https://loc.gov/resource/g7821rm.gct00058/?sp=16,32,23408,2548,5.4475,95.6558,,Point,Feature
打歪山,Dǎwāishān,[transliteration],,Dawei Point,,"Tavoy Point, Shin Maw Pagoda",,Myanmar,island,,,http://www.world10k.com/blog/?p=1116,,,https://loc.gov/resource/g7821rm.gct00058/?sp=16,32,23206,1344,13.5368,98.1673,,Point,Feature
有人家,yǒurénjiā,Inhabited,指拉賈島？,reffering to Raya Island?,,Puloraja,,Indonesia,descriptor,,,,,,https://loc.gov/resource/g7821rm.gct00058/?sp=16,32,23200,3652,4.8698,95.3774,,Point,Feature
八都馬,Bādūmǎ,[transiteration from Mon],八都馬,Mottama,,Martaban,,Myanmar,town,,,http://www.world10k.com/blog/?p=1079,https://en.wikipedia.org/wiki/Mottama,https://zh.wikipedia.org/wiki/%E5%85%AB%E9%83%BD%E9%A9%AC,https://loc.gov/resource/g7821rm.gct00058/?sp=16,32,23028,856,16.5333,97.6000,,Point,Feature
白土,Báitǔ,White Earth,,Ujung Masammuka,,,,Indonesia,peninsula,,,http://www.world10k.com/blog/?p=1086,https://sv.wikipedia.org/wiki/Ujung_Masammuka,,https://loc.gov/resource/g7821rm.gct00058/?sp=16,32,22867,2902,5.5751,95.2249,,Point,Feature
竹牌礁,Zhúpáijiāo,Bamboo Tablet Reef,,Moscos Islands,,,,Myanmar,island,,,http://www.world10k.com/blog/?p=1412,https://en.wikipedia.org/wiki/Moscos_Islands,,https://loc.gov/resource/g7821rm.gct00058/?sp=16,32,22772,1500,14.1250,97.8042,,Point,Feature
南巫星 (南巫里),Nánwūxīng (Nánwūlǐ),[transliteration of local name],南浡裡,Lamuri Kingdom,,Lambri,,Indonesia,town,,"1,2,4,5,6,7",http://www.world10k.com/blog/?p=1267,https://en.wikipedia.org/wiki/Lamuri_Kingdom,https://zh.wikipedia.org/wiki/%E5%8D%97%E6%B5%A1%E9%87%8C,https://loc.gov/resource/g7821rm.gct00058/?sp=16,32,22717,2586,5.5116,95.3579,,Point,Feature
克迭迷,Kèdiémí,[transliteration],,Kadonkani,,Bogale Township,Hainggyi Kyun/Cosmin [Mills 287],Myanmar,island,,,http://www.world10k.com/blog/?p=1211,https://en.wikipedia.org/wiki/Bogale_Township,https://zh.wikipedia.org/wiki/%E5%8D%9A%E8%91%9B%E7%A6%AE%E9%8E%AE,https://loc.gov/resource/g7821rm.gct00058/?sp=16,32,22357,1120,15.8015,95.1267,,Point,Feature
虎尾礁,Hǔwěijiāo,Tiger Tail reef,,Rusa Island,,,,Indonesia,island,,,http://www.world10k.com/blog/?p=1172,https://id.wikipedia.org/wiki/Pulau_Rusa,,https://loc.gov/resource/g7821rm.gct00058/?sp=16,32,22332,3872,5.2778,95.2048,,Point,Feature
帽山,Màoshān,Hat Island,韋島,Weh Island,,,,Indonesia,island,,,http://www.world10k.com/blog/?p=1247,https://en.wikipedia.org/wiki/Weh_Island,https://zh.wikipedia.org/wiki/%E9%9F%A6%E5%B2%9B,https://loc.gov/resource/g7821rm.gct00058/?sp=16,32,22109,2305,5.8200,95.2800,,Point,Feature
馬船礁,Mǎchuánjiāo,Horse Boat Reef,勃生,island at the mouth of Pathein River,,,,Myanmar,island,,,http://www.world10k.com/blog/?p=1235,https://en.wikipedia.org/wiki/Pathein,https://zh.wikipedia.org/wiki/%E5%8B%83%E7%94%9F,https://loc.gov/resource/g7821rm.gct00058/?sp=16,32,21953,1442,16.0828,94.5550,,Point,Feature
翠藍嶼,Cuìlányǔ,Green Blue Island,尼科巴,Great Nicobar Island,,"Nakur, Nagur",,India,island,,"1,7",http://www.world10k.com/blog/?p=1113,https://en.wikipedia.org/wiki/Great_Nicobar_Island,https://zh.wikipedia.org/wiki/%E5%A4%A7%E5%B0%BC%E7%A7%91%E5%B7%B4%E5%B3%B6,https://loc.gov/resource/g7821rm.gct00058/?sp=17,33,21479,1918,7.0300,93.8000,,Point,Feature
龍涎嶼,Lóngxiányǔ,Ambergris Island,,Pulau Breueh,,Poelau Bras,Poulo Rondo [Mills 200],Indonesia,island,,,http://www.world10k.com/blog/?p=1226,https://en.wikipedia.org/wiki/Breueh_Island,,https://loc.gov/resource/g7821rm.gct00058/?sp=17,33,21404,2964,5.7000,95.0667,,Point,Feature
馬旺山,Mǎwàngshān,[transliteration],曼昂島,Cheduba Island,,Manaung Island,,Myanmar,island,,,http://www.world10k.com/blog/?p=1234,https://en.wikipedia.org/wiki/Cheduba_Island,https://zh.wikipedia.org/wiki/%E6%9B%BC%E6%98%82%E5%B3%B6,https://loc.gov/resource/g7821rm.gct00058/?sp=17,33,21105,1409,18.8000,93.6333,,Point,Feature
金嶼,Jīnyǔ,Gold Island,卡爾尼科巴島,Car Nicobar,,,,India,island,,,http://www.world10k.com/blog/?p=1203,https://en.wikipedia.org/wiki/Car_Nicobar,https://zh.wikipedia.org/wiki/%E5%8D%A1%E7%88%BE%E5%B0%BC%E7%A7%91%E5%B7%B4%E5%B3%B6,https://loc.gov/resource/g7821rm.gct00058/?sp=17,33,21067,1790,9.17,92.78,,Point,Feature
大莫山,Dàmòshān,Big Nothing Mountain,,Pakusa Mountain,,,,Myanmar,mountain,,,http://www.world10k.com/blog/?p=1122,https://en.wikipedia.org/wiki/Sidoktaya,,https://loc.gov/resource/g7821rm.gct00058/?sp=17,33,20928,920,20.1443,94.1682,,Point,Feature
北平頭山,Běipíngtóushān,North Flat Head Island,小安達曼島,Little Andaman Island,,,,India,island,,,http://www.world10k.com/blog/?p=1095,https://en.wikipedia.org/wiki/Little_Andaman,https://zh.wikipedia.org/wiki/%E5%B0%8F%E5%AE%89%E9%81%94%E6%9B%BC%E5%B3%B6,https://loc.gov/resource/g7821rm.gct00058/?sp=17,33,20726,1956,10.6500,92.4900,,Point,Feature
小莫山,Xiǎomòshān,Small Nothing Island,蘭里島,Ramree Island,,,,Myanmar,mountain,,,http://www.world10k.com/blog/?p=1364,https://en.wikipedia.org/wiki/Ramree_Island,https://zh.wikipedia.org/wiki/%E5%85%B0%E9%87%8C%E5%B2%9B,https://loc.gov/resource/g7821rm.gct00058/?sp=17,33,20420,936,19.0667,93.8333,,Point,Feature
按篤蠻山,Àndǔmánshān,[transliteration],安達曼島,North Andaman Islands,,,,India,island,,,http://www.world10k.com/blog/?p=1065,https://en.wikipedia.org/wiki/Andaman_and_Nicobar_Islands,https://zh.wikipedia.org/wiki/%E5%AE%89%E8%BE%BE%E6%9B%BC-%E5%B0%BC%E7%A7%91%E5%B7%B4%E7%BE%A4%E5%B2%9B,https://loc.gov/resource/g7821rm.gct00058/?sp=17,33,20222,1856,12.5581,92.8112,,Point,Feature
落坑山,Luòkēngshān,Pitfall Island,民光島,Myengun Kyun,,,,Myanmar,island,,,http://www.world10k.com/blog/?p=1230,https://sv.wikipedia.org/wiki/Myengun_Kyun,,https://loc.gov/resource/g7821rm.gct00058/?sp=17,33,19960,1552,19.9667,92.9833,,Point,Feature
落坑,Luòkēng,Pitfall,謬洪,Mrauk U,謬烏王國,Mrohaung,,Myanmar,town,,,http://www.world10k.com/blog/?p=1230,https://en.wikipedia.org/wiki/Kingdom_of_Mrauk_U,https://zh.wikipedia.org/wiki/%E8%B0%AC%E4%B9%8C%E7%8E%8B%E5%9B%BD,https://loc.gov/resource/g7821rm.gct00058/?sp=17,33,19708,745,20.5961,93.1941,,Point,Feature
龜頭山,Guītóushān,[transliteration],皎頭,Kyauktaw Mountain,,,,Myanmar,mountain,,,http://www.world10k.com/blog/?p=1168,https://en.wikipedia.org/wiki/Kyauktaw_Township,https://zh.wikipedia.org/wiki/%E7%9A%8E%E9%81%93%E9%8E%AE,https://loc.gov/resource/g7821rm.gct00058/?sp=17,33,19430,940,20.8500,92.9667,,Point,Feature
赤土山,Chìtǔshān,Red Earth Mountain,墨玉山,Mayu Mountain,,,,Myanmar,mountain,,,http://www.world10k.com/blog/?p=1112,https://en.wikipedia.org/wiki/Mayu_(river),https://zh.wikipedia.org/wiki/%E5%A2%A8%E7%8E%89%E6%B2%B3,https://loc.gov/resource/g7821rm.gct00058/?sp=17,33,19074,445,20.7015,92.5181,,Point,Feature
木客港,Mùkègǎng,[transliteration],馬赫什卡里烏帕齊拉,"Maheshkhali, Cox's Bazar",,,,Bangladesh,water body,,,http://www.world10k.com/blog/?p=2249,https://en.wikipedia.org/wiki/Maheshkhali_Upazila,https://zh.wikipedia.org/wiki/%E9%A6%AC%E8%B5%AB%E4%BB%80%E5%8D%A1%E9%87%8C%E7%83%8F%E5%B8%95%E9%BD%8A%E6%8B%89,https://loc.gov/resource/g7821rm.gct00058/?sp=17,34,18195,1036,21.5178,91.9877,,Point,Feature
撒地港,Sādegǎng,[transliteration],吉大港市,Chittagong,,,,Bangladesh,water body,,7,http://www.world10k.com/blog/?p=1296,https://en.wikipedia.org/wiki/Chittagong,https://zh.wikipedia.org/wiki/%E5%90%89%E5%A4%A7%E6%B8%AF%E5%B8%82,https://loc.gov/resource/g7821rm.gct00058/?sp=17,34,17464,584,22.3667,91.8000,,Point,Feature
九官人淺,Jiǔguānrénqiǎn,Nine Officials Shallows,松迪布島,Sandwip Island,,Sandvip,,Bangladesh,island,,,http://www.world10k.com/blog/?p=1205,https://en.wikipedia.org/wiki/Sandwip,https://zh.wikipedia.org/wiki/%E6%9D%BE%E8%BF%AA%E5%B8%83%E5%B3%B6,https://loc.gov/resource/g7821rm.gct00058/?sp=17,34,17024,1096,22.4997,91.4947,,Point,Feature
已龍溜,Yǐlóngliū,Already Dragon Slip,拉姆環礁,Laamu Atoll,,,,Maldives,island,華蓋五指 二角,,http://www.world10k.com/blog/?p=1384,https://en.wikipedia.org/wiki/Laamu_Atoll,https://zh.wikipedia.org/wiki/%E6%8B%89%E5%A7%86%E7%92%B0%E7%A4%81,https://loc.gov/resource/g7821rm.gct00058/?sp=17,34,16799,2832,1.9115,73.5049,5.20,Point,Feature
榜葛剌,Bǎnggélá,[transliteration],孟加拉蘇丹國,Bengal Sultanate,,"Gaur, Gauḍa",,Bangladesh,area,,7,http://www.world10k.com/blog/?p=1093,https://en.wikipedia.org/wiki/Gau%E1%B8%8Da_(city),https://zh.wikipedia.org/wiki/%E5%AD%9F%E5%8A%A0%E6%8B%89%E8%98%87%E4%B8%B9%E5%9C%8B,https://loc.gov/resource/g7821rm.gct00058/?sp=17,34,16753,454,24.8703,88.1359,,Point,Feature
竹牌礁,Zhúpáijiāo,Bamboo Plate Reef,在今斯里蘭卡島東南岸外，今地不詳。,"unknown island, southeast of Sri Lanka",,Great Basses Reef? Rawana?,,Sri Lanka,island,,,http://www.world10k.com/blog/?p=1412,https://en.wikipedia.org/wiki/Great_Basses_Reef_Lighthouse,,https://loc.gov/resource/g7821rm.gct00058/?sp=17,34,16178,2472,6.1811,81.4795,,Point,Feature
麻林地,Málíndì,[transliteration],馬林迪,Malindi,,,,Kenya,town,,5,http://www.world10k.com/blog/?p=1240,https://en.wikipedia.org/wiki/Malindi,,https://loc.gov/resource/g7821rm.gct00058/?sp=18,35,15858,4019,-3.2236,40.1300,,Point,Feature
佛堂,fótáng,Buddhist temple,亭可馬里,Trincomalee,,,,Sri Lanka,building,,,http://www.world10k.com/blog/?p=1154,https://en.wikipedia.org/wiki/Trincomalee,https://zh.wikipedia.org/wiki/%E4%BA%AD%E5%8F%AF%E9%A9%AC%E9%87%8C,https://loc.gov/resource/g7821rm.gct00058/?sp=18,35,15777,2575,5.9167,80.5833,,Point,Feature
沙剌溜,Shāláliū,Sandy Slash Slip,木拉庫環礁,Mulaku Atoll,,,,Maldives,island,華蓋六指一角,,http://www.world10k.com/blog/?p=1300,https://en.wikipedia.org/wiki/Mulaku_Atoll,,https://loc.gov/resource/g7821rm.gct00058/?sp=18,35,15771,3517,3.1587,73.4630,6.25,Point,Feature
錫蘭山,Xīlánshān,[transliteration from Tamil?],"斯里蘭卡, 锡兰",Sri Lanka,,Ceylon,,Sri Lanka,island,,"1,3,4,5,6,7",http://www.world10k.com/blog/?p=1358,https://en.wikipedia.org/wiki/Sri_Lanka,https://zh.wikipedia.org/wiki/%E6%96%AF%E9%87%8C%E8%98%AD%E5%8D%A1,https://loc.gov/resource/g7821rm.gct00058/?sp=18,35,15625,1658,7.4496,80.6396,,Point,Feature
別羅里,Biéluólǐ,[transliteration],貝魯沃勒,Beruwala,,,,Sri Lanka,town,,7,http://www.world10k.com/blog/?p=1098,https://en.wikipedia.org/wiki/Beruwala,,https://loc.gov/resource/g7821rm.gct00058/?sp=18,35,15178,2726,6.4667,79.9833,,Point,Feature
(千)佛堂,(Qiān) Fótáng,Buddhist temple,棟德臘,Dondra,,,,Sri Lanka,building,,,http://www.world10k.com/blog/?p=1154,https://en.wikipedia.org/wiki/Dondra,,https://loc.gov/resource/g7821rm.gct00058/?sp=18,35,15165,1012,8.5670,81.2330,,Point,Feature
葛答幹,Gédágàn,[transliteration],,Ilha Quitangonha,,Jamali,,Mozambique,town,,,http://www.world10k.com/blog/?p=1164,https://ca.wikipedia.org/wiki/Quitangonha,,https://loc.gov/resource/g7821rm.gct00058/?sp=18,35,15107,4069,-14.8607,40.8113,,Point,Feature
禮金務,Lǐjīnwù,Ceremony Gold Business,內貢博,Negombo,,,,Sri Lanka,town,,,http://www.world10k.com/blog/?p=1221,https://en.wikipedia.org/wiki/Negombo,https://zh.wikipedia.org/wiki/%E5%85%A7%E8%B2%A2%E5%8D%9A,https://loc.gov/resource/g7821rm.gct00058/?sp=18,35,14969,1626,7.2111,79.8386,,Point,Feature
高郎務,Gāolángwù,[transliteration],可倫坡,Colombo,,"Kotte, Kalanpu",,Sri Lanka,town,,3,http://www.world10k.com/blog/?p=1162,https://en.wikipedia.org/wiki/Colombo,https://zh.wikipedia.org/wiki/%E5%8F%AF%E5%80%AB%E5%9D%A1,https://loc.gov/resource/g7821rm.gct00058/?sp=18,35,14869,2104,6.9344,79.8428,,Point,Feature
官嶼,guānyǔ,Official Island,馬累,Malé,,,,Maldives,island,華蓋七指二角,4,http://www.world10k.com/blog/?p=1167,https://en.wikipedia.org/wiki/Mal%C3%A9,https://zh.wikipedia.org/wiki/%E9%A6%AC%E7%B4%AF,https://loc.gov/resource/g7821rm.gct00058/?sp=18,35,14824,3157,4.1753,73.5089,7.50,Point,Feature
門肥赤,Ménféichì,[transliteration],馬菲亞島,Mafia Island,,,,Tanzania,island,華蓋七指,,http://www.world10k.com/blog/?p=1249,https://en.wikipedia.org/wiki/Mafia_Island,https://zh.wikipedia.org/wiki/%E9%A9%AC%E8%8F%B2%E4%BA%9A%E5%B2%9B,https://loc.gov/resource/g7821rm.gct00058/?sp=18,35,14701,3851,-7.7605,39.8254,7.00,Point,Feature
者剌則郎哈剌,Zhělázélánghālá,[transliteration],桑給巴爾群島,Zanzibar Archipelago,,Jezira Gezira,,Tanzania,town,華蓋七指,,https://books.google.com.hk/books?id=DjQ9AAAAIAAJ&pg=PA186&lpg=PA186&dq=zanzibar+Jezira+-aljazeera&source=bl&ots=y7EiV-iQqW&sig=ACfU3U0qxIh8mw4O5kZmA5RxSvxXYTtrOw&hl=en&sa=X&ved=2ahUKEwi09ZKutenpAhXBaN4KHaUcBFUQ6AEwAXoECAkQAQ#v=onepage&q=zanzibar%20Jezira%20-aljazeera&f=false,https://en.wikipedia.org/wiki/Zanzibar_Archipelago,https://zh.wikipedia.org/wiki/%E6%A1%91%E7%BB%99%E5%B7%B4%E5%B0%94%E7%BE%A4%E5%B2%9B,https://loc.gov/resource/g7821rm.gct00058/?sp=18,35,14369,4156,-5.9373,39.3316,7.00,Point,Feature
慢八撒,Mànbāsā,[transliteration from Arabic],蒙巴萨,Mombasa,,,,Kenya,town,,,http://www.world10k.com/blog/?p=1244,https://en.wikipedia.org/wiki/Mombasa,,https://loc.gov/resource/g7821rm.gct00058/?sp=18,35,14129,3771,-4.0578,39.6757,,Point,Feature
任不知溜,rènbùzhīliū,Nobody Knows Slip,,Lhaviyani Atoll,,"Fadiffolu Atoll, Faadhippolhu Atoll",,Maldives,island,,,https://books.google.com.hk/books?id=DjQ9AAAAIAAJ&pg=198#v=onepage&q&f=false,,,https://loc.gov/resource/g7821rm.gct00058/?sp=18,35,14011,2658,5.3763,73.5128,,Point,Feature
加異城,Jiāyìchéng,Kayal [transliteration from Tamil] City,加異勒,Kayalpatanam,,"Kayal, Korkai, Jiayile",,India,town,,"2,4,6",http://www.world10k.com/blog/?p=1183,https://en.wikipedia.org/wiki/Kayalpatnam,https://zh.wikipedia.org/wiki/%E5%8D%A1%E8%80%B6%E5%B0%94%E5%B8%95%E8%92%82%E7%BA%B3%E5%A7%86,https://loc.gov/resource/g7821rm.gct00058/?sp=18,35,13984,1026,8.5664,78.1164,,Point,Feature
起答兒,Qǐdáer,Start Answer Child,曼達島,Manda Island,,,,Kenya,town,,,http://www.world10k.com/blog/?p=1284,https://en.wikipedia.org/wiki/Manda_Island,https://zh.wikipedia.org/wiki/%E6%9B%BC%E9%81%94%E5%B3%B6,https://loc.gov/resource/g7821rm.gct00058/?sp=18,35,13940,4118,-2.2667,40.9667,,Point,Feature
芝蘭,Zhīlán,Fungus Orchid,吉登伯勒姆,Chidambaram,,,,India,town,,,http://www.world10k.com/blog/?p=1405,https://en.wikipedia.org/wiki/Chidambaram,https://zh.wikipedia.org/wiki/%E5%90%89%E7%99%BB%E4%BC%AF%E5%8B%92%E5%A7%86,https://loc.gov/resource/g7821rm.gct00058/?sp=18,35,13805,768,11.4000,79.7000,,Point,Feature
葛得兒風,Gédéerfēng,"[transliteration from ancient Italian ""guarda fui""]",瓜達富伊角,Cape Guardafui,,,,Somalia,peninsula,,,http://www.world10k.com/blog/?p=1164,https://en.wikipedia.org/wiki/Cape_Guardafui,https://zh.wikipedia.org/wiki/%E7%93%9C%E9%81%94%E5%AF%8C%E4%BC%8A%E8%A7%92,https://loc.gov/resource/g7821rm.gct00058/?sp=18,35,13800,3378,11.8167,51.2500,,Point,Feature
甘巴里頭,Gānbālǐtóu,[transliteration],科摩林角,Kanyakumari,,"Cape Comorin, Gambari",,India,peninsula,,"2,6",http://www.world10k.com/blog/?p=1160,https://en.wikipedia.org/wiki/Kanyakumari,,https://loc.gov/resource/g7821rm.gct00058/?sp=18,35,13782,1450,8.0840,77.5460,,Point,Feature
起來溜,Qǐláiliū,[transliteration],喀雷,Kelaa,,"Kelai, Tiladummati Atoll",,Maldives,island,,,http://www.world10k.com/blog/?p=1284,https://en.wikipedia.org/wiki/Kelaa_(Haa_Alif_Atoll),,https://loc.gov/resource/g7821rm.gct00058/?sp=18,35,13619,2804,6.9597,73.2128,,Point,Feature
麻裡溪溜,Málǐxīliū,[transliteration],米尼科伊島,Minicoy Island,,Maliku,,India,island,北辰二指一角,,http://hk.crntt.com/crn-webapp/doc/docDetailCreate.jsp?coluid=0&kindid=0&docid=100018614,https://en.wikipedia.org/wiki/Minicoy,https://zh.wikipedia.org/wiki/%E7%B1%B3%E5%B0%BC%E7%A7%91%E4%BC%8A%E5%B2%9B,https://loc.gov/resource/g7821rm.gct00058/?sp=18,35,13595,2272,8.2750,73.0500,2.25,Point,Feature
第一赤泥,Dìyīchìní,First Red Mud,特里凡得琅,Thiruvananthapuram,,Trivandrum,,India,town,,,http://www.world10k.com/blog/?p=1135,https://en.wikipedia.org/wiki/Thiruvananthapuram,https://zh.wikipedia.org/wiki/%E7%89%B9%E9%87%8C%E5%87%A1%E5%BE%97%E7%90%85,https://loc.gov/resource/g7821rm.gct00058/?sp=18,35,13585,1369,8.4880,76.9530,,Point,Feature
木魯旺 (卜剌哇),Mùlǔwàng (Boláwa),[transliteration],巴拉韋,Barawa,,"Barawe, Brava",,Somalia,town,,,http://www.world10k.com/blog/?p=1261,https://en.wikipedia.org/wiki/Barawa,https://zh.wikipedia.org/wiki/%E5%B7%B4%E6%8B%89%E9%9F%A6,https://loc.gov/resource/g7821rm.gct00058/?sp=18,35,13575,3958,1.1133,44.0303,,Point,Feature
不剌哇,Bùláwa,[transliteration],巴拉韋,Barawa,,"Barawe, Brava",,Somalia,town,華蓋八指,"5,6,7",http://www.world10k.com/blog/?p=1106,https://en.wikipedia.org/wiki/Barawa,https://zh.wikipedia.org/wiki/%E5%B7%B4%E6%8B%89%E9%9F%A6,https://loc.gov/resource/g7821rm.gct00058/?sp=18,35,13509,3607,1.1142,44.0213,8.00,Point,Feature
買列補,Mǎilièbǔ,[transliteration],麥拉坡,Mylapore,,,,India,town,,,http://www.world10k.com/blog/?p=1243,https://en.wikipedia.org/wiki/Mylapore,https://zh.wikipedia.org/wiki/%E9%BA%A5%E6%8B%89%E5%9D%A1,https://loc.gov/resource/g7821rm.gct00058/?sp=18,35,13476,718,13.0336,80.2687,,Point,Feature
小葛蘭,Xiǎogélán,[transliteration],奎隆,Kollam,,Quilon,,India,town,,"1,2,3,7",http://www.world10k.com/blog/?p=2255,https://en.wikipedia.org/wiki/Kollam,,https://loc.gov/resource/g7821rm.gct00058/?sp=18,35,13468,1085,8.8800,76.6000,,Point,Feature
木骨都束,Mùgǔdōushù,[transliteration],摩加迪休,Mogadishu,,,,Somalia,town,北辰二指一角,"5,6,7",http://www.world10k.com/blog/?p=1261,https://en.wikipedia.org/wiki/Mogadishu,https://zh.wikipedia.org/wiki/%E6%91%A9%E5%8A%A0%E8%BF%AA%E4%BC%91,https://loc.gov/resource/g7821rm.gct00058/?sp=18,36,13236,3916,2.0333,45.3333,2.25,Point,Feature
沙里八丹,Shālǐbādān,[transliteration],纳加帕蒂南,Nagapattinam,,"Nagapatnam, Cholakula Vallipattinam",,India,town,,,http://www.world10k.com/blog/?p=1300,https://en.wikipedia.org/wiki/Chola_Nadu,,https://loc.gov/resource/g7821rm.gct00058/?sp=18,36,13190,729,10.7700,79.8300,,Point,Feature
短知蛮 (短知蠻),Duǎnzhīmán,Short Knowledge Man,阿勒皮,Alappuzha,,Alleppey,,India,town,,,http://www.world10k.com/blog/?p=1146,https://en.wikipedia.org/wiki/Alappuzha,,https://loc.gov/resource/g7821rm.gct00058/?sp=18,36,13188,1064,9.4900,76.3300,,Point,Feature
抹兒幹別,Mǒérgànbié,[transliteration from Arabic],馬伯爾角,Ras Ma'bar,,"Morro Khebir, Ras Mabber",,Somalia,peninsula,,,http://www.world10k.com/blog/?p=1259,https://en.wikipedia.org/wiki/Bayla,,https://loc.gov/resource/g7821rm.gct00058/?sp=18,36,12961,3990,9.4734,50.8275,,Point,Feature
俱里都利,Jùlǐdōulì,[transliteration],斯里卡庫拉姆,Srikakulam,,Chicacole,,India,town,,,http://www.world10k.com/blog/?p=1208,https://en.wikipedia.org/wiki/Srikakulam,https://zh.wikipedia.org/wiki/%E6%96%AF%E9%87%8C%E5%8D%A1%E5%BA%93%E6%8B%89%E5%A7%86,https://loc.gov/resource/g7821rm.gct00058/?sp=18,36,12896,839,18.3000,83.9000,,Point,Feature
柯枝國,Kēzhīguó,[transliteration],科契,Kochi,科欽，國貞,Cochin,,India,town,三指一角,"2,3,4,5,6",http://www.world10k.com/blog/?p=1211,https://en.wikipedia.org/wiki/Kochi,https://zh.wikipedia.org/wiki/%E7%A7%91%E5%A5%91,https://loc.gov/resource/g7821rm.gct00058/?sp=18,36,12830,1488,9.9700,76.2800,3.25,Point,Feature
辛剌高㟁,Xīnlágāoàn,[transliteration],鎖納兒港,Sonargaon,,Sounagoura,,Bangladesh,town,,7,http://www.world10k.com/blog/?p=1367,https://en.wikipedia.org/wiki/Sonargaon,,https://loc.gov/resource/g7821rm.gct00058/?sp=18,36,12800,386,23.6475,90.5978,,Point,Feature
加平年溜,Jiāpíngniánliū,[transliteration],格爾貝尼島,Kalpeni Island,,Gapingnian Passage,,India,island,北辰三指,,http://www.world10k.com/blog/?p=1184,https://en.wikipedia.org/wiki/Kalpeni,https://zh.wikipedia.org/wiki/%E6%A0%BC%E5%B0%94%E8%B4%9D%E5%B0%BC%E5%B2%9B,https://loc.gov/resource/g7821rm.gct00058/?sp=18,36,12595,2690,10.0900,73.6400,3.00,Point,Feature
龍牙葛,Lóngyágé,[transliteration],,Nagavali River,,Langulya River,,India,water body,,,https://books.google.com.hk/books?id=DjQ9AAAAIAAJ,https://en.wikipedia.org/wiki/Nagavali_River,,https://loc.gov/resource/g7821rm.gct00058/?sp=18,36,12538,972,18.3420,84.1210,,Point,Feature
剌思那呵,Lásīnàhē,Obstinate Thought That Shout,,Ras Assuad,,,,Somalia,peninsula,,,http://www.world10k.com/blog/?p=1214,https://de.wikipedia.org/wiki/Ras_Assuad,,https://loc.gov/resource/g7821rm.gct00058/?sp=18,36,12329,3932,4.5636,48.0861,,Point,Feature
加寧八丹,Jiāníngbādān,[transliteration],卡林加帕塔姆,Kalingapatnam,,Kalingapatana ,,India,town,,,http://www.world10k.com/blog/?p=1184,https://en.wikipedia.org/wiki/Kalingapatnam,,https://loc.gov/resource/g7821rm.gct00058/?sp=18,36,12282,1128,18.3420,84.1210,,Point,Feature
古里國,Gǔlǐguó,[transliteration],科澤科德,Kozhikode,,Calicut,,India,town,四指,"1,2,3,4,5,6,7",http://www.world10k.com/blog/?p=1166,https://en.wikipedia.org/wiki/Zamorin_of_Calicut,https://zh.wikipedia.org/wiki/%E7%A7%91%E6%BE%A4%E7%A7%91%E5%BE%B7%E6%89%8E%E8%8E%AB%E6%9E%97,https://loc.gov/resource/g7821rm.gct00058/?sp=18,36,12276,1526,11.2500,75.7700,4.00,Point,Feature
波羅高㟁,Bōluógāoàn,[transliteration],巴爾根那,Barguna,,,,Bangladesh,town,,,http://www.world10k.com/blog/?p=1104,https://en.wikipedia.org/wiki/Barguna,,https://loc.gov/resource/g7821rm.gct00058/?sp=18,36,12152,370,22.1500,90.1167,,Point,Feature
黑兒,Hēier,[transliteration of Eyl?],,Ras el Cheil Cape,,,,Somalia,peninsula,一角三指,,http://www.world10k.com/blog/?p=1171,https://en.wikipedia.org/wiki/Eyl,,https://loc.gov/resource/g7821rm.gct00058/?sp=18,36,11947,3539,7.7990,49.8084,3.25,Point,Feature
白礁,Báijiāo,white reef,,Velliyamkallu,,"Sacrafice Rock, Chombala Rock Island",,India,island,,,http://www.world10k.com/blog/?p=1087,https://en.wikipedia.org/wiki/Thikkodi,,https://loc.gov/resource/g7821rm.gct00058/?sp=18,36,11878,1334,11.6630,75.5420,,Point,Feature
佛思洞,Fúsīdòng,Buddha Thought Cave,松布爾,Sonpur,宋那浦拉姆比塔,Sonnapurampeta,,India,building,,,http://www.world10k.com/blog/?p=1154,https://de.wikipedia.org/wiki/Bahuda,,https://loc.gov/resource/g7821rm.gct00058/?sp=18,36,11773,1010,19.1240,84.7870,,Point,Feature
哈哈迭微,Hāhādiéwēi,[transliteration from Malayalam],為今印度西海岸卡利卡特（Calicut）西北面海上島嶼，今地不詳。迭微或即diva譯音，島嶼之意。,Mahé,,Mayyazhi,,India,island,四指一角,,http://www.world10k.com/blog/?p=1169,"https://en.wikipedia.org/wiki/Mah%C3%A9,_India",https://zh.wikipedia.org/wiki/%E9%A9%AC%E5%9F%83,https://loc.gov/resource/g7821rm.gct00058/?sp=18,36,11686,1673,11.7917,75.4681,4.25,Point,Feature
折的希㟁,Zhédexīàn,[transliteration],恰克達哈,Chakdaha,,,,India,town,,,http://www.world10k.com/blog/?p=1400,https://en.wikipedia.org/wiki/Chakdaha,https://zh.wikipedia.org/wiki/%E6%81%B0%E5%85%8B%E8%BE%BE%E5%93%88,https://loc.gov/resource/g7821rm.gct00058/?sp=18,36,11625,454,23.0800,88.5200,,Point,Feature
加加溜,Jiājiāliū,Kaka [transliteration?] Slip,卡瓦拉蒂,Kavaratti Island,,,,India,island,,,https://books.google.com.hk/books?id=tWx4CgAAQBAJ&pg=PA91&lpg=PA91&dq=%E5%8A%A0%E5%8A%A0%E6%BA%9C&source=bl&ots=dYbfJUb72Z&sig=ACfU3U14iS7iKE4kWQF4jCWQYYALRmTQ-g&hl=en&sa=X&ved=2ahUKEwjcquXVsNjpAhW4yIsBHa_1DRUQ6AEwAnoECBAQAQ#v=onepage&q=%E5%8A%A0%E5%8A%A0%E6%BA%9C&f=false,https://en.wikipedia.org/wiki/Kavaratti,https://zh.wikipedia.org/wiki/%E5%8D%A1%E7%93%A6%E6%8B%89%E8%92%82,https://loc.gov/resource/g7821rm.gct00058/?sp=18,36,11508,2504,10.5700,72.6400,,Point,Feature
骨八丹,Gǔbādān,[transliteration of Kushabhadra?],曼尼克帕塔那,Manikpatna,,"Kushabhadra?, Manikapatna ",,India,town,,,http://www.world10k.com/blog/?p=1166,https://en.wikipedia.org/wiki/Manikpatna,,https://loc.gov/resource/g7821rm.gct00058/?sp=18,36,11422,964,19.8701,85.5638,,Point,Feature
木兒立哈必兒,Mùerlìhābìer,[transliteration],馬伯爾角,Ras Ma'bar,,"Morro Khebir, Ras Mabber",,Somalia,peninsula,,,http://www.world10k.com/blog/?p=1261,https://en.wikipedia.org/wiki/Bayla,,https://loc.gov/resource/g7821rm.gct00058/?sp=18,36,11422,3717,9.4734,50.8275,,Point,Feature
盆那碌,Pénnàlù,Basin That Busy,,Kadalur Point,,Cotta Point,,India,town,,,https://books.google.com.hk/books?id=DjQ9AAAAIAAJ,https://en.wikipedia.org/wiki/Kadalur_Point_Lighthouse,,https://loc.gov/resource/g7821rm.gct00058/?sp=18,36,11401,1454,11.4691,75.6373,,Point,Feature
卜得法難,Bodéfǎnán,[transliteration],普圖帕坦南,Puthuppanam,,,,India,town,,,http://www.world10k.com/blog/?p=1106,https://en.wikipedia.org/wiki/Puthupparamb,,https://loc.gov/resource/g7821rm.gct00058/?sp=18,36,11312,1352,11.5870,75.5890,,Point,Feature
丁得把昔,Dīngdébǎxī,[transliteration],代奧格爾,Devgad,,,,India,town,,,http://www.world10k.com/blog/?p=1137,https://en.wikipedia.org/wiki/Devgad_taluka,https://zh.wikipedia.org/wiki/%E4%B8%81%E5%BE%97%E6%8A%8A%E6%98%94,https://loc.gov/resource/g7821rm.gct00058/?sp=18,36,11305,1354,16.3735,73.3778,,Point,Feature
歇立,Xiēlì,[transliteration],,Ezhimala,,Mount Eli or Delly,,India,mountain,四指二角,,http://www.world10k.com/blog/?p=1366,"https://en.wikipedia.org/wiki/Ezhimala_(hill,_Kannur)",,https://loc.gov/resource/g7821rm.gct00058/?sp=18,36,10980,1543,12.0183,75.2158,4.50,Point,Feature
烏里舍城,Wūlǐshìchéng,[transliteration of Orissa] City,克塔克,Cuttack,,Orissa City,,India,town,,,http://www.world10k.com/blog/?p=1348,https://en.wikipedia.org/wiki/Eastern_Ganga_dynasty,https://zh.wikipedia.org/wiki/%E4%B8%9C%E6%81%92%E4%BC%BD%E7%8E%8B%E6%9C%9D,https://loc.gov/resource/g7821rm.gct00058/?sp=18,36,10937,566,20.5236,85.7881,,Point,Feature
安都里溜,Āndōulǐliū,[transliteration],安德羅特島,Andrott Island,,Androth Island,,India,island,北辰四指,,http://www.world10k.com/blog/?p=1075,https://en.wikipedia.org/wiki/Andrott,https://zh.wikipedia.org/wiki/%E5%AE%89%E5%BE%B7%E7%BD%97%E7%89%B9%E5%B2%9B,https://loc.gov/resource/g7821rm.gct00058/?sp=18,36,10824,2341,10.8100,73.6700,4.00,Point,Feature
哈甫泥,Hāfǔní (Hāfǔer),[transliteration],哈丰,Xaafuun,哈甫兒,Hafun,,Somalia,peninsula,一角四指,,http://www.world10k.com/blog/?p=1169,https://en.wikipedia.org/wiki/Hafun,,https://loc.gov/resource/g7821rm.gct00058/?sp=18,36,10791,3783,10.4535,51.2381,4.25,Point,Feature
烏里舍塔,Wūlǐshìtǎ,[transliteration],普里,Puri,,,,India,town,,,http://www.world10k.com/blog/?p=1348,https://en.wikipedia.org/wiki/Puri,https://zh.wikipedia.org/wiki/%E6%99%AE%E9%87%8C,https://loc.gov/resource/g7821rm.gct00058/?sp=18,36,10791,1084,19.8106,85.8314,,Point,Feature
旁不八丹,Pángbùbādān,[transliteration],巴特那,Patna,帕特納，華氏城,Patana,,India,town,,,https://books.google.com.hk/books?id=DjQ9AAAAIAAJ,https://en.wikipedia.org/wiki/Patna,https://zh.wikipedia.org/wiki/%E5%B7%B4%E7%89%B9%E9%82%A3,https://loc.gov/resource/g7821rm.gct00058/?sp=18,36,10703,532,25.6000,85.1000,,Point,Feature
莽葛奴兒,Mǎnggénúer,[transliteration],門格洛爾,Mangalore,,,,India,town,五指,,http://www.world10k.com/blog/?p=1245,https://en.wikipedia.org/wiki/Mangalore,https://zh.wikipedia.org/wiki/%E9%97%A8%E6%A0%BC%E6%B4%9B%E5%B0%94,https://loc.gov/resource/g7821rm.gct00058/?sp=19,37,10530,1338,12.869543,74.840802,5.00,Point,Feature
須多大嶼（番名連古荅剌）,Xūduōdàyǔ (fānmíngliángǔdālá),[transliteration],索科特拉島,Socotra Island,速古答剌，索科特拉群島,Suquṭrā,,Yemen,island,,,http://www.world10k.com/blog/?p=1373,https://en.wikipedia.org/wiki/Socotra,https://zh.wikipedia.org/wiki/%E7%B4%A2%E7%A7%91%E7%89%B9%E6%8B%89%E5%B2%9B,https://loc.gov/resource/g7821rm.gct00058/?sp=19,37,10359,2650,12.5115,53.3580,,Point,Feature
阿者刁,Āzhědiāo,[transliteration],安吉迪烏島,Anjediva Island,,Anjadip Island,,India,island,六指,,http://www.world10k.com/blog/?p=1069,https://en.wikipedia.org/wiki/Anjediva_Island,,https://loc.gov/resource/g7821rm.gct00058/?sp=19,37,10090,1379,14.7609,74.1113,6.00,Point,Feature
阿丹,Ādān,[transliteration],亞丁,Aden,,"Adin, Adan",,Yemen,town,北辰五指,"5,6,7",http://www.world10k.com/blog/?p=1067,https://en.wikipedia.org/wiki/Aden,https://zh.wikipedia.org/wiki/%E4%BA%9E%E4%B8%81,https://loc.gov/resource/g7821rm.gct00058/?sp=19,37,9560,3554,12.8000,45.0333,5.00,Point,Feature
纏打兀兒,Chándǎwùer,[transliteration of Sindapur],果阿邦,Goa,,"Sindapur, Sandabur, Mahassapatam, Gomanchala",,India,town,六指二角,,http://www.world10k.com/blog/?p=1109,https://en.wikipedia.org/wiki/Goa,https://zh.wikipedia.org/wiki/%E6%9E%9C%E9%98%BF%E9%82%A6,https://loc.gov/resource/g7821rm.gct00058/?sp=19,37,9518,1419,15.5000,73.8300,6.50,Point,Feature
破兒牙,Pòeryá,[transliteration],,Velaneshwar,,Boria Headland,,India,peninsula,六指,,http://www.world10k.com/blog/?p=1282,https://en.wikipedia.org/wiki/Velneshwar,,https://loc.gov/resource/g7821rm.gct00058/?sp=19,37,9267,1310,17.4047,73.1704,6.00,Point,Feature
剌撒,Lásā,[transliteration],穆卡拉,Mukalla,,,,Yemen,town,,"5,6,7",http://www.world10k.com/blog/?p=1214,https://en.wikipedia.org/wiki/Mukalla,https://zh.wikipedia.org/wiki/%E7%A9%86%E5%8D%A1%E6%8B%89,https://loc.gov/resource/g7821rm.gct00058/?sp=19,37,9150,3728,14.5250,49.1581,,Point,Feature
跛兒牙,Bǒeryá,[transliteration],班果德,Bankot,,,,India,town,八指,,http://www.world10k.com/blog/?p=1105,https://en.wikipedia.org/wiki/Bankot,,https://loc.gov/resource/g7821rm.gct00058/?sp=19,37,9124,1283,17.9833,73.0500,8.00,Point,Feature
起兒末兒,Qǐermòer,[transliteration],焦爾,Chaul,,Chemulaka,,India,town,八指,,http://www.world10k.com/blog/?p=1284,https://en.wikipedia.org/wiki/Chaul,,https://loc.gov/resource/g7821rm.gct00058/?sp=19,37,8711,1264,18.5461,72.9272,8.00,Point,Feature
失里兒,Shīlǐer,[transliteration],阿司斯爾,Ash-Shihr,,"al-Shir, Shihr, al-Asʿā",,Yemen,town,北辰六指,,http://www.world10k.com/blog/?p=1309,https://en.wikipedia.org/wiki/Ash_Shihr,,https://loc.gov/resource/g7821rm.gct00058/?sp=19,37,8645,3802,14.7640,49.5721,6.00,Point,Feature
馬哈音,Mǎhāyīn,[transliteration of Maharashtra],孟買,"Mahim, Mumbai",,,,India,town,九指,,http://www.world10k.com/blog/?p=1234,https://en.wikipedia.org/wiki/Mahim,https://zh.wikipedia.org/wiki/%E5%AD%9F%E4%B9%B0,https://loc.gov/resource/g7821rm.gct00058/?sp=19,37,8580,1296,18.9750,72.8258,9.00,Point,Feature
加剌哈,Jiāláhā,[transliteration],盖勒哈特,Qalhat,,"Galhat, Calha",,Oman,town,,,http://www.world10k.com/blog/?p=11844,https://en.wikipedia.org/wiki/Qalhat,https://zh.wikipedia.org/wiki/%E7%9B%96%E5%8B%92%E5%93%88%E7%89%B9,https://loc.gov/resource/g7821rm.gct00058/?sp=19,37,8539,2318,22.7000,59.3667,,Point,Feature
麻樓,Málóu,[transliteration],,Maroli,,,,India,town,十指,,https://www.geog.ntu.edu.tw/index.php/tw/72-journal/volumn/journal41-60?limit=5&start=50&contentbuilder_download_file=377773f0e825f0137d43ed777b170dfc3bc6794f,https://en.wikipedia.org/wiki/Maroli,,https://loc.gov/resource/g7821rm.gct00058/?sp=19,37,8452,1229,21.0240,72.8890,10.00,Point,Feature
羅法,Luófǎ,[transliteration],,Al Luḩayyah,,,,Yemen,town,北辰七指,,http://www.world10k.com/blog/?p=1229,https://en.wikipedia.org/wiki/Al_Lu%E1%B8%A9ayyah,,https://loc.gov/resource/g7821rm.gct00058/?sp=19,37,8114,3883,15.7037,42.6860,9.00,Point,Feature
佐法兒,Zuǒfǎer,[transliteration],佐法爾省,Dhofar,,"Djofar, Ẓufār, Dufar",,Oman,town,北辰八指,"6,7",http://www.world10k.com/blog/?p=2266,https://en.wikipedia.org/wiki/Dhofar_Governorate,https://zh.wikipedia.org/wiki/%E4%BD%90%E6%B3%95%E7%88%BE%E7%9C%81,https://loc.gov/resource/g7821rm.gct00058/?sp=19,38,7473,3537,18.3107,51.9339,8.00,Point,Feature
坎八葉城,Kǎnbāyèchéng,[transliteration],肯帕德,Khambhat,,"Cambay City, Cambaet, Camanes, Khambat",,India,town,十一指,,http://www.world10k.com/blog/?p=1210,https://en.wikipedia.org/wiki/Khambhat,https://zh.wikipedia.org/wiki/%E8%82%AF%E5%B8%95%E5%BE%B7,https://loc.gov/resource/g7821rm.gct00058/?sp=19,38,7176,1157,22.3000,72.6200,11.00,Point,Feature
刁元,Diāoyuán,[transliteration],第烏,Diu,,,,India,town,,,http://www.world10k.com/blog/?p=1136,"https://en.wikipedia.org/wiki/Diu,_India",https://zh.wikipedia.org/wiki/%E7%AC%AC%E4%B9%8C,https://loc.gov/resource/g7821rm.gct00058/?sp=19,38,7009,1428,20.7150,70.9844,,Point,Feature
阿胡那,Āhúnà,Flatter Beard That,,Ras al Madrakah,,,coast of Dhufar [南溟網1069],Oman,peninsula,北辰九指,,https://www.geog.ntu.edu.tw/index.php/tw/72-journal/volumn/journal41-60?limit=5&start=50&contentbuilder_download_file=377773f0e825f0137d43ed777b170dfc3bc6794ff,https://en.wikipedia.org/wiki/Duqm,,https://loc.gov/resource/g7821rm.gct00058/?sp=19,38,6845,3454,19.0042,57.8448,9.00,Point,Feature
雜葛得,Zágédé,[transliteration],德瓦尔卡,Dwarka,,,,India,town,十二指,,http://www.world10k.com/blog/?p=1392,https://en.wikipedia.org/wiki/Dwarka,https://zh.wikipedia.org/wiki/%E5%BE%B7%E7%93%A6%E5%B0%94%E5%8D%A1,https://loc.gov/resource/g7821rm.gct00058/?sp=19,38,6786,1339,22.2466,68.9690,12.00,Point,Feature
新得,Xīndé,[transliteration],信德省,Sindh,,,,Pakistan,town,,,http://www.world10k.com/blog/?p=1369,https://en.wikipedia.org/wiki/Sindh,https://zh.wikipedia.org/wiki/%E4%BF%A1%E5%BE%B7%E7%9C%81,https://loc.gov/resource/g7821rm.gct00058/?sp=19,38,6692,1030,26.3500,68.8500,,Point,Feature
碟于里,Diéyúlǐ,[transliteration],提䫻,Debal,,,,Pakistan,town,,,http://www.world10k.com/blog/?p=1137,https://en.wikipedia.org/wiki/Debal,https://zh.wikipedia.org/wiki/%E6%8F%90%E4%AB%BB,https://loc.gov/resource/g7821rm.gct00058/?sp=19,38,6585,1083,24.7498,67.5212,,Point,Feature
大灣,Dàwān,Big Bay,馬西拉灣,Gulf of Masirah,,,,Oman,water body,北辰九指 二角,,http://www.world10k.com/blog/?p=1119,https://en.wikipedia.org/wiki/Masirah_Island,https://zh.wikipedia.org/wiki/%E9%A6%AC%E8%A5%BF%E6%8B%89%E5%B3%B6,https://loc.gov/resource/g7821rm.gct00058/?sp=19,38,6383,3357,20.3091,58.5470,9.50,Point,Feature
離坎八菓八日路,líkǎnbāguǒbārìlù,eight days away?,,,,,,Pakistan,descriptor,,,,,,https://loc.gov/resource/g7821rm.gct00058/?sp=19,38,6297,1400,,,,Point,Feature
千佛池番名撒昔靈,Qiānfúchífānmíngsāxīlíng,"10,000 Buddha Pond (foreign name: Saxiling)",,Ghaz Ab Kaur,,Hor Batt Gorge,,Pakistan,water body,,,http://www.world10k.com/blog/?p=1285,https://en.wikipedia.org/wiki/Hingol_National_Park,,https://loc.gov/resource/g7821rm.gct00058/?sp=19,38,6287,964,25.3951,65.0806,,Point,Feature
吳實記落,Wúshíjìluò,Shout Real Remember Drop,,Sir Creek,,"Bhitaro Creek, Ban Ganga",,Pakistan/India,water body,,,https://www.geog.ntu.edu.tw/index.php/tw/72-journal/volumn/journal41-60?limit=5&start=50&contentbuilder_download_file=377773f0e825f0137d43ed777b170dfc3bc6794f,https://en.wikipedia.org/wiki/Sir_Creek,,https://loc.gov/resource/g7821rm.gct00058/?sp=19,38,6080,1663,23.7333,68.0500,,Point,Feature
客實,Kèshí,[transliteration],科奇县,Kech,,,,Pakistan,town,十三指,,http://www.world10k.com/blog/?p=1211,https://en.wikipedia.org/wiki/Kech_District,https://zh.wikipedia.org/wiki/%E7%A7%91%E5%A5%87%E5%8E%BF,https://loc.gov/resource/g7821rm.gct00058/?sp=19,38,5972,1135,25.9810,62.0756,13.00,Point,Feature
都里馬新富,Dōulǐmǎxīnfù,[transliteration],,Musandam Peninsula,,,,Oman/UAE,peninsula,,,http://www.world10k.com/blog/?p=1144,https://en.wikipedia.org/wiki/Musandam_Peninsula,,https://loc.gov/resource/g7821rm.gct00058/?sp=19,38,5911,1705,26.3800,56.5260,,Point,Feature
木克郎,Mùkèláng,[transliteration],莫克蘭,Makran Coast,,,,Pakistan,town,,,http://www.world10k.com/blog/?p=1261,https://en.wikipedia.org/wiki/Makran,https://zh.wikipedia.org/wiki/%E8%8E%AB%E5%85%8B%E5%85%B0,https://loc.gov/resource/g7821rm.gct00058/?sp=19,38,5801,1257,25.4283,61.8236,,Point,Feature
八思尼,Bāsīní,[transliteration],伯斯尼,Pasni,,,,Pakistan,town,,,http://www.world10k.com/blog/?p=1079,https://en.wikipedia.org/wiki/Pasni_(city),https://zh.wikipedia.org/wiki/%E4%BC%AF%E6%96%AF%E5%B0%BC,https://loc.gov/resource/g7821rm.gct00058/?sp=19,38,5740,695,25.2594,63.2250,,Point,Feature
克瓦荅兒 (克瓦答兒),Kèwǎdāer (Kèwǎdáer),[transliteration],瓜達爾,Gwadar,,,,Pakistan,town,,,http://www.world10k.com/blog/?p=2242,https://en.wikipedia.org/wiki/Gwadar,https://zh.wikipedia.org/wiki/%E7%93%9C%E8%BE%BE%E5%B0%94,https://loc.gov/resource/g7821rm.gct00058/?sp=19,38,5563,1138,25.1947,62.1839,,Point,Feature
迭微,Diéwēi,[transliteration],提維,Tiwi,,,,Oman,town,,,http://www.world10k.com/blog/?p=1137,"https://en.wikipedia.org/wiki/Tiwi,_Oman",,https://loc.gov/resource/g7821rm.gct00058/?sp=20,39,4925,2601,22.8403,59.2353,,Point,Feature
古里牙,Gǔlǐyá,[transliteration],古賴亞特,Quraiyat,,,,Oman,town,,,http://www.world10k.com/blog/?p=1166,"https://en.wikipedia.org/wiki/Qurayyat,_Oman",https://zh.wikipedia.org/wiki/%E5%8F%A4%E8%B5%96%E4%BA%9A%E7%89%B9,https://loc.gov/resource/g7821rm.gct00058/?sp=20,39,4015,2769,23.2670,58.8875,,Point,Feature
克瓦荅兒 (克瓦答兒),Kèwǎdāer (Kèwǎdáer),[transliteration],恰巴哈爾,Chabahar,,,,Iran,town,,,http://www.world10k.com/blog/?p=2242,https://en.wikipedia.org/wiki/Chabahar,https://zh.wikipedia.org/wiki/%E6%81%B0%E5%B7%B4%E5%93%88%E7%88%BE,https://loc.gov/resource/g7821rm.gct00058/?sp=20,39,3891,961,25.2919,60.6431,,Point,Feature
查實,Cháshí,[transliteration],賈斯克,Jask,,,,Iran,town,,,http://www.world10k.com/blog/?p=1108,https://en.wikipedia.org/wiki/Jask,https://zh.wikipedia.org/wiki/%E8%B3%88%E6%96%AF%E5%85%8B,https://loc.gov/resource/g7821rm.gct00058/?sp=20,39,3622,805,25.6555,57.7687,,Point,Feature
苦思荅兒 (苦思答兒),Kǔsīdāer (Kǔsīdáer),[transliteration],庫海斯塔克,Kouhestak,,,,Iran,town,,,http://www.world10k.com/blog/?p=1212,https://en.wikipedia.org/wiki/Kuhestak,,https://loc.gov/resource/g7821rm.gct00058/?sp=20,39,3405,895,26.8043,57.0188,,Point,Feature
麻實吉,Máshíjí,[transliteration],馬斯喀特,Muscat ,,,,Oman,town,看北辰十二指,,http://www.world10k.com/blog/?p=1240,https://en.wikipedia.org/wiki/Muscat,https://zh.wikipedia.org/wiki/%E9%A9%AC%E6%96%AF%E5%96%80%E7%89%B9,https://loc.gov/resource/g7821rm.gct00058/?sp=20,39,3355,2707,23.6054,58.3703,12.00,Point,Feature
龜嶼,Guīyǔ,Tortoise Island,費赫勒島,Al Fahal Island,,"Ǧazīrat al-Faḥl, Shark Island",,Oman,island,,,http://www.world10k.com/blog/?p=1168,https://de.wikipedia.org/wiki/Al_Fahal,https://zh.wikipedia.org/zh-hk/%E8%B4%B9%E8%B5%AB%E5%8B%92%E5%B2%9B,https://loc.gov/resource/g7821rm.gct00058/?sp=20,39,2950,2832,23.6808,58.4839,,Point,Feature
亞東灾記嶼 (亞束災記嶼),Yàdōngzāijìyǔ (Yàshùzāijìyǔ),[transliteration],迪馬尼亞特群島,Ad Dimaniyat Islands,,,,Oman,island,,,http://www.world10k.com/blog/?p=2239,https://en.wikipedia.org/wiki/Ad_Dimaniyat_Islands,https://baike.baidu.com/item/%E8%BF%AA%E6%9B%BC%E5%B0%BC%E4%BA%9A%E7%BE%A4%E5%B2%9B,https://loc.gov/resource/g7821rm.gct00058/?sp=20,40,2443,2816,23.8560,58.0750,,Point,Feature
撒剌抹嶼,Sālámǒyǔ,[transliteration],薩拉馬島,Quoin Island,赛莱麦岛，角落岛,As Salamah Island,,Oman,island,,,http://www.world10k.com/blog/?p=1296,https://en.wikipedia.org/wiki/Quoin_Island_(Persian_Gulf),https://baike.baidu.com/item/%E8%90%A8%E6%8B%89%E9%A9%AC%E5%B2%9B/212148,https://loc.gov/resource/g7821rm.gct00058/?sp=20,40,2027,2877,26.5087,56.4603,,Point,Feature
苦碌麻剌,Kǔlùmálá,Bitter Busy Hemp Slash,米納卜,Minab,,"Harmosia, Harmozeia",,Iran,town,,,http://www.world10k.com/blog/?p=1212,https://en.wikipedia.org/wiki/Minab,https://zh.wikipedia.org/wiki/%E7%B1%B3%E7%B4%8D%E5%8D%9C,https://loc.gov/resource/g7821rm.gct00058/?sp=20,40,1795,1240,27.1467,57.0800,,Point,Feature
假忽魯謨斯,Jiǎhūlǔmósī,[transliteration],格甚姆島,Qeshm Island,,False Hormuz,,Iran,island,,,http://www.world10k.com/blog/?p=1188,https://en.wikipedia.org/wiki/Qeshm_Island,https://zh.wikipedia.org/wiki/%E6%A0%BC%E4%BB%80%E5%A7%86%E5%B2%9B,https://loc.gov/resource/g7821rm.gct00058/?sp=20,40,1468,3741,26.7559,55.7848,,Point,Feature
忽魯莫斯,Hūlǔmòsī,[transliteration],"霍爾木茲, 忽里模子",Hormuz,,,,Iran,island,,"4,5,6,7",http://www.world10k.com/blog/?p=2243,https://en.wikipedia.org/wiki/Hormuz_Island,https://zh.wikipedia.org/wiki/%E9%9C%8D%E7%88%BE%E6%9C%A8%E8%8C%B2%E5%B3%B6,https://loc.gov/resource/g7821rm.gct00058/?sp=20,40,1042,2780,27.0936,56.4522,,Point,Feature
剌兒可束,Láerkěshù,[transliteration],拉臘克島,Larak Island,,,,Iran,island,,,http://www.world10k.com/blog/?p=1214,https://en.wikipedia.org/wiki/Larak_Island,https://zh.wikipedia.org/wiki/%E6%8B%89%E8%87%98%E5%85%8B%E5%B3%B6,https://loc.gov/resource/g7821rm.gct00058/?sp=20,40,900,3948,26.8588,56.3605,,Point,Feature
阿撥把丹,Ābōbǎdān,[transliteration],,Puttanapur?,,Putthanapura?,,India,town,,,https://books.google.com.hk/books/about/Zheng_He.html?id=9BeFQgAACAAJ,,,,,,,11.7649,76.6452,,,
黎代,Lide,Black Generation,实格里,Sigli,,,,Indonesia,town,,,http://www.world10k.com/blog/?p=1219,https://en.wikipedia.org/wiki/Sigli,,,,,,5.3862,95.9613,,,
比剌,Bǐlá,[transliteration],阿卜杜勒庫裡島,Abd al Kuri,,,Bitra Atoll [Mills 212],Yemen,island,,4,http://www.world10k.com/blog/?p=1097,https://en.wikipedia.org/wiki/Abd_al_Kuri,https://zh.wikipedia.org/wiki/%E9%98%BF%E5%8D%9C%E6%9D%9C%E5%8B%92%E5%BA%AB%E9%87%8C%E5%B3%B6,,,,,12.1858,52.2383,,,
孫剌,Sūnlá,Grandson Slash,,Chetlat Atoll,,,,India,island,,4,https://books.google.com.hk/books/about/Zheng_He.html?id=9BeFQgAACAAJ,https://en.wikipedia.org/wiki/Chetlat_Island,,,,,,11.6921,72.7123,,,
沙里灣泥,Shālǐwānní,[transliteration],沙爾偉恩角,Ra's Sharwayn,,,Cannanore [Mills 215],Yemen,peninsula,,5,http://www.world10k.com/blog/?p=1300,https://ceb.wikipedia.org/wiki/Ra's_Sharwayn,,,,,,15.3412,51.6614,,,
溜山,Liūshān,Slip Islands,馬爾代夫群島和拉克代夫群島,Maladives and Laccadive Islands,,,,Maldives,area,,"5,6,7",http://www.world10k.com/blog/?p=1225,https://en.wikipedia.org/wiki/Maldives,https://zh.wikipedia.org/wiki/%E9%A9%AC%E5%B0%94%E4%BB%A3%E5%A4%AB,,,,,8.5747,72.6321,,,
竹步,Zhúbù,[transliteration],准博,Giumbo,,"Ajuran Sultanate, Jubba River",,Somalia,town,,5,http://www.world10k.com/blog/?p=1412,https://en.wikipedia.org/wiki/Jubba_River,https://zh.wikipedia.org/wiki/%E6%9C%B1%E5%B7%B4%E6%B2%B3,,,,,-0.2491,42.6194,,,
墨加,Mòjiā,[transliteration from Arabic],麥加,Mecca,天方國,Makkah,,Saudi Arabia,town,,7,http://www.world10k.com/blog/?p=1260,https://en.wikipedia.org/wiki/Mecca,https://zh.wikipedia.org/wiki/%E9%BA%A5%E5%8A%A0,,,,,21.4225,39.8233,,,